BOROUGH,Cultural Venue Type,site_name,address1,address2,address3,borough_code,borough_name,latitude,longitude,easting,northing,os_addressbase_uprn,ward_2018_code,ward_2018_name,website,gss_code,runtime
Brent,Archives,Brent Museum and Archives,The Library at Willesden Green ,95 High Road,Willesden,E09000005,Brent,51.54665039984011,-0.22892150078570994,522903.96658540505,184569.9226591483,202149110,E05000105,Willesden Green,https://www.brent.gov.uk/archives,E09000005,12/27/2020
Brent,Artists workspaces,Second Floor Studios & Arts,Palace Arts Way,,,,,51.55954184637806,-0.2832765486319462,519101.62411703425,185913.7058933862,,,,,E09000005,12/27/2020
Brent,Artists workspaces,Harrow Road,733 Harrow Road,Kensal Green,,E09000005,Brent,51.530835474919115,-0.23031426855245707,522849.9665976183,182808.92313684284,202199583,E05000092,Kensal Green,www.acme.org.uk,E09000005,12/27/2020
Brent,Artists workspaces,,6 scrubs Lane,,,E09000005,Brent,51.532049761750315,-0.2387017553079721,522264.9667558851,182929.9231039536,202040584,E05000092,Kensal Green,http://www.lightfactoryworkshops.co.uk,E09000005,12/27/2020
Brent,Artists workspaces,,"Wembly Point, 1 Harrow Rd",,,E09000005,Brent,51.54461353651682,-0.2738966626335012,519790.96743212966,184268.9227425948,202197437,E05000102,Tokyngton,createspacelondon.org,E09000005,12/27/2020
Brent,Artists workspaces,Barham Park,660 Harrow Rd,,,E09000005,Brent,51.55232007800864,-0.31099268904461874,517198.968135039,185065.92252524843,202209700,E05000101,Sudbury,www.acava.org,E09000005,12/27/2020
Brent,Artists workspaces,Honeypot Lane,"1-2 Palm Court, 1-2 Tulip Court, 1 Acacia Court",,,E09000005,Brent,51.59056613948688,-0.28381962272148176,518982.96765337174,189362.92135742254,202208355,E05000099,Queensbury,www.acava.org,E09000005,12/27/2020
Brent,Arts centres,The Library at Willesdon Green,95 High Road,Willesden ,,E09000005,Brent,51.54665039984011,-0.22892150078570994,522903.96658540505,184569.9226591483,202149110,E05000105,Willesden Green,https://www.brent.gov.uk/your-council/the-library-at-willesden-green/,E09000005,12/27/2020
Brent,Cinemas,Cineworld Cinema London Wembley,Stadium Way,,,,,51.55685619721717,-0.28371052470183833,519078.5460051069,185614.34662150295,,,,,E09000005,12/27/2020
Brent,Cinemas,The Lexi Cinema,,194b Chamberlyne Road,Kensal Rise,E09000005,Brent,51.537589161089834,-0.2225971158193454,523366.96658047015,183572.92305263336,000202195465,E05000087,Brondesbury Park,,E09000005,12/27/2020
Brent,Cinemas,Tricycle Cinema,,269 Kilburn High Road,,E09000005,Brent,51.54297499935986,-0.20013477279500091,524909.9661632153,184209.92287983088,000202124574,E05000094,Kilburn,,E09000005,12/27/2020
Brent,Cinemas,Cineworld Wembley,,Wembley Park Blvd,,E09000005,Brent,51.556687143992036,-0.28347998392793294,519094.9677409852,185595.9225018323,000202206309,E05000102,Tokyngton,www.cineworld.co.uk,E09000005,12/27/2020
Brent,Commercial galleries,Brent Artists Resource,4⁄5 Queenâs Parade,NA,NA,E09000005,Brent,51.54766993458268,-0.22379059093534182,523256.96661167673,184691.9227482378,202054057,E05000105,Willesden Green,http://www.brentartistsresource.org.uk/#,E09000005,12/27/2020
Brent,Community centres,Woodheyes,34 Woodheyes Road, London,NA,E09000005,Brent,51.55134633377537,-0.2566788661552979,520966.9672321029,185045.9226521795,202029222,E05000100,Stonebridge,,E09000005,12/27/2020
Brent,Community centres,Unity Centre,103 Church Road, London,NA,E09000005,Brent,51.54434828071018,-0.2535284959163183,521203.9671662856,184272.9228637932,202146192,E05000091,Harlesden,http://www.unitycentre.org.uk,E09000005,12/27/2020
Brent,Community centres,The Stonebridge Hub,6 Hillside,Brent,NA,E09000005,Brent,51.541506532651375,-0.26079023342147917,520707.96730307385,183944.92295354337,202196460,E05000100,Stonebridge,,E09000005,12/27/2020
Brent,Community centres,Pakistan Community Centre (Pakistan Welfare Association),Marley Walk, Station Parade, London,E09000005,Brent,51.55009335969699,-0.22467696928692527,523188.9666302561,184959.92267438996,202043209,E05000089,Dudden Hill,,E09000005,12/27/2020
Brent,Community centres,Preston and Mall,May Lane, 237 The Mall, Kenton,E09000005,Brent,51.577605255588345,-0.2879308197068259,518731.967840772,187914.92187170318,202071290,E05000086,Barnhill,,E09000005,12/27/2020
Brent,Community centres,Kings Hall,155 Harlesden Road, Willesden, London,E09000005,Brent,51.54466413097958,-0.23436364147547573,522531.9668092586,184339.92284390348,202090623,E05000105,Willesden Green,http://khcc.btck.co.uk/,E09000005,12/27/2020
Brent,Community centres,The Granville Plus Centre,The Granville Plus Centre, 80 Granville Road, Kilburn,E09000005,Brent,51.53276317916913,-0.1974522972032938,525123.9661004528,183078.92318690615,202093923,E05000094,Kilburn,http://granvillecommunitykitchen.wordpress.com or http://www.theotherwiseclub.org.uk/,E09000005,12/27/2020
Brent,Community centres,Dudden Hill Community Centre,19 Dudden Hill Lane,Brent,NA,E09000005,Brent,51.54939556227291,-0.23924309094935195,522180.966902255,184857.92270163458,202103783,E05000105,Willesden Green,https://www.brent.gov.uk/services-for-residents/sport-leisure-and-parks/sports/sport-activity-finder/zumba-dudden-hill-community-centre/,E09000005,12/27/2020
Brent,Community centres,The Tabot Centre,151 Granville Road, Kilburn, London,E09000005,Brent,51.5329798448113,-0.19809256085924007,525078.9661126347,183101.9231807188,202195084,E05000094,Kilburn,http://tabot.co.uk/,E09000005,12/27/2020
Brent,Community centres,Chalkhill Community Centre,113 Chalkhill Road,Brent,NA,E09000005,Brent,51.56389604733131,-0.2765282438169598,519557.96761739143,186408.92228132556,202151476,E05000086,Barnhill,https://www.metropolitan.org.uk/images/centre-profile_Chalkhill.pdf,E09000005,12/27/2020
Brent,Community centres,The Vale Community Centre,1 Pentland Road,Brent,NA,E09000005,Brent,51.5317658623611,-0.1963382738151575,525203.9660788501,182969.92321638938,202139453,E05000094,Kilburn,https://www.brent.gov.uk/your-community/community-directory/the-vale-community-centre/,E09000005,12/27/2020
Brent,Community centres,Marian Community Centre,Stafford Road,Brent,NA,E09000005,Brent,51.53096657372622,-0.19582200785730647,525241.9660686201,182881.92324023083,202043775,E05000094,Kilburn,https://www.brent.gov.uk/your-community/community-directory/marian-community-centre/,E09000005,12/27/2020
Brent,Community centres,KSL Hall,Mount Pleasant,Brent,NA,E09000005,Brent,51.54251954178392,-0.28564265658738625,518981.9677722449,184016.9229319163,202087690,E05000085,Alperton,,E09000005,12/27/2020
Brent,Community centres,The Bridgestone Arena,Stonebridge Recreation Ground, Pavilion, Hillside,E09000005,Brent,51.541066061064605,-0.2662725740863493,520328.96740742226,183886.92296918284,202149676,E05000100,Stonebridge,http://bridgestoneleisure.com/community,E09000005,12/27/2020
Brent,Community centres,The Granville,140 Carlton Vale, South Kilburn,NA,E09000005,Brent,51.53272045723489,-0.19759816874159963,525113.9661031668,183073.92318827135,202224308,E05000094,Kilburn,http://thegranville.org,E09000005,12/27/2020
Brent,Community centres,St Kitts and Nevis,Kingfisher Youth and Community Centre, Crest Road, Neasden,E09000005,Brent,51.564437432139236,-0.243264380919278,521861.966990646,186523.92225082277,202110351,E05000088,Dollis Hill,,E09000005,12/27/2020
Brent,Community centres,Gladstone Youth and Community Centre,162 Anson Road, Cricklewood, London,E09000005,Brent,51.55530536441951,-0.22919115386651367,522861.9667189794,185531.92251984496,202135024,E05000095,Mapesbury,,E09000005,12/27/2020
Brent,Community centres,Donnington Court Community Room,Community Room,Donnington Court,Donnington Road,E09000005,Brent,51.54232305086708,-0.23296891661338473,522634.9667818123,184081.92291502008,202146927,E05000105,Willesden Green,,E09000005,12/27/2020
Brent,Community centres,Mulberry Court Community Centre,Mulberry Court Community Centre,17 Mulberry Court,Elgar Avenue,E09000005,Brent,51.5488734622383,-0.2603216357839101,520720.9673002484,184764.92272953852,202065743,E05000100,Stonebridge,,E09000005,12/27/2020
Brent,Creative co-working desk space,Brent Artists Resource Company,Bar Lab,4-5 Queens Parade,Walm Lane,E09000005,Brent,51.5477424874218,-0.2238310328605482,523253.9666124971,184699.92274603108,202192120,E05000105,Willesden Green,http://www.brentartistsresource.org.uk/,E09000005,12/27/2020
Brent,Dance performance venues,Patidar House Studios,22 London Road,,,E09000005,Brent,51.5522954835727,-0.29498259917589753,518308.96783445537,185088.92251702904,202073653,E05000104,Wembley Central,,E09000005,12/27/2020
Brent,Dance performance venues,Tricycle Theatre,269 Kilburn High Road,,,E09000005,Brent,51.54331474177344,-0.20000599073152175,524917.9660387419,184247.92274747143,202079064,E05000094,Kilburn,http://www.tricycle.co.uk,E09000005,12/27/2020
Brent,Dance rehearsal studios,Capital City Academy ,"Doyle Gardens,",,,E09000005,Brent,51.539965981048404,-0.23290165282211148,522645.96665547893,183819.92286345956,202191532,E05000105,Willesden Green,http://www.capitalcityacademy.org/224/hire-our-facilities,E09000005,12/27/2020
Brent,Dance rehearsal studios,Patidar House Studios,22 London Road,,,E09000005,Brent,51.5522954835727,-0.29498259917589753,518308.96783445537,185088.92251702904,202073653,E05000104,Wembley Central,,E09000005,12/27/2020
Brent,Dance rehearsal studios,Tricycle Theatre,269 Kilburn High Road,,,E09000005,Brent,51.54331474177344,-0.20000599073152175,524917.9660387419,184247.92274747143,202079064,E05000094,Kilburn,http://www.tricycle.co.uk,E09000005,12/27/2020
Brent,Fashion and design,Plus Samples Ltd,Unit B1 Summer Court,1 Maybury Gardens,,E09000005,Brent,51.54699302485884,-0.23375422195105092,522567.9666766007,184599.92265036883,202207163,E05000105,Willesden Green,http://www.plussamples.co.uk/,E09000005,12/27/2020
Brent,Fashion and design,Grade House,Sage Brent,45-47 Alperton Lane,,E09000005,Brent,51.53536557447156,-0.29890299060210024,518080.9678957524,183199.92303226114,202135826,E05000085,Alperton,https://www.gradehouseltd.com/about,E09000005,12/27/2020
Brent,Jewellery design,Bare Grillz London Ltd,864 Dental Lab,129b Carlton Avenue East,,E09000005,Brent,51.569554958486925,-0.2939477684376439,518335.9679488368,187009.9221185384,202120436,E05000097,Preston,,E09000005,12/27/2020
Brent,Jewellery design,Best Craft Jewellers Limited,55 Randall Avenue,,,E09000005,Brent,51.561970272681386,-0.24425407109028519,521799.9670072101,186247.92232636258,202190651,E05000088,Dollis Hill,,E09000005,12/27/2020
Brent,Jewellery design,Crystals R Us Limited,18 The Broadway,East Lane,,E09000005,Brent,51.56220630657835,-0.2925780437602248,518449.96791812254,186194.92234003858,202126634,E05000097,Preston,,E09000005,12/27/2020
Brent,Jewellery design,Love-Gifts (Dot) Com Limited,Unimix House,Abbey Road,,E09000005,Brent,51.53341863426425,-0.2751710454987956,519731.9675690576,183021.92320427892,202202377,E05000100,Stonebridge,,E09000005,12/27/2020
Brent,Jewellery design,Malcolm Betts Limited,York House Empire Way,Wembley,,E09000005,Brent,51.55637546788018,-0.2849198539356083,518995.96776785003,185558.92251180467,202005953,E05000102,Tokyngton,,E09000005,12/27/2020
Brent,Jewellery design,MVS Imports Ltd,1 Lancelot Parade,Lancelot Road,,E09000005,Brent,51.552610914983575,-0.29937024890043873,518003.96804010775,185116.92263147293,202076577,E05000104,Wembley Central,,E09000005,12/27/2020
Brent,Jewellery design,Rathy Jewellers Limited,28 Ealing Road,Wembley,,E09000005,Brent,51.55110263730464,-0.2989215717152747,518038.96803045785,184949.92267631035,202102528,E05000104,Wembley Central,,E09000005,12/27/2020
Brent,Jewellery design,S.R Jewellery Work Shop Ltd,519-521 High Road,Wembley,,E09000005,Brent,51.551937256711355,-0.2981837049882742,518087.9680170758,185043.9226511111,202205692,E05000104,Wembley Central,,E09000005,12/27/2020
Brent,Jewellery design,U.K. Diamjewel Limited,Kimberley House,31 Burnt Oak Broadway,,E09000005,Brent,51.59936784199536,-0.2665358433168683,520156.9674507644,190369.92120458581,10091797104,E05000099,Queensbury,,E09000005,12/27/2020
Brent,Jewellery design,Multiple businesses ,515 Kingsbury Road,,,E09000005,Brent,51.58493779167202,-0.2783443984008243,519376.96766843833,188745.92164853483,202078183,E05000090,Fryent,,E09000005,12/27/2020
Brent,Jewellery design,World Islamic Mint Ltd,5 Kimberley Road,,,E09000005,Brent,51.54068332547899,-0.2072770024473121,524420.9662952643,183942.92295290943,202078864,E05000098,Queens Park,,E09000005,12/27/2020
Brent,Libraries,Wembley Library,Brent Civic Centre Engineers Way,,,,,51.558913203309395,-0.28145091034719716,519229.8115887138,185846.76843330555,,,,,E09000005,12/27/2020
Brent,Libraries,Kilburn,Salusbury Road,,,E09000005,Brent,51.535114827059026,-0.20537632933328115,524567.9662526551,183326.92311962735,202046410,E05000098,Queens Park,,E09000005,12/27/2020
Brent,Libraries,Harlesden,Craven Park Road,,,E09000005,Brent,51.538682427947755,-0.2504721285511835,521430.9671044777,183647.92303396435,202110706,E05000091,Harlesden,,E09000005,12/27/2020
Brent,Libraries,Willesden Green,High Road,,,E09000005,Brent,51.5466504009109,-0.22892149898310693,522903.9667075057,184569.92278124887,202216288,E05000105,Willesden Green,,E09000005,12/27/2020
Brent,Libraries,Ealing Road,Ealing Road,Wembley,,E09000005,Brent,51.54953419172751,-0.29742233452430544,518146.9680006942,184777.92272303248,202102174,E05000104,Wembley Central,,E09000005,12/27/2020
Brent,Libraries,Barham Park,Harrow Road,Wembley,,E09000005,Brent,51.5521822873598,-0.311416087796811,517169.9682648821,185049.92265177018,202209694,E05000101,Sudbury,,E09000005,12/27/2020
Brent,Libraries,Cricklewood,Olive Road,,,E09000005,Brent,51.55686058827446,-0.22737082985598045,522983.9666858531,185707.9224726662,202217896,E05000095,Mapesbury,,E09000005,12/27/2020
Brent,Libraries,Preston,Carlton Avenue East,Wembley,,E09000005,Brent,51.57019251358885,-0.2957421058530939,518209.96798273036,187077.92210020788,202120286,E05000097,Preston,,E09000005,12/27/2020
Brent,Libraries,Kingsbury,Kingsbury Road,,,E09000005,Brent,51.586024749046395,-0.27642667052965963,519506.9676326654,188869.92161471304,202078174,E05000099,Queensbury,,E09000005,12/27/2020
Brent,Makerspaces,Create Space London,Create Space London,Former Willesden Green Police Station,,E09000005,Brent,51.54717166758514,-0.23068967277430227,522779.96661900287,184624.922643825,202086681,E05000105,Willesden Green,www.createspacelondon.org/,E09000005,12/27/2020
Brent,Makerspaces,Fashion Workspace,Fashion Workspace,Kilburn Bridge House,69-71 Kilburn High Road,E09000005,Brent,51.53741803115922,-0.1931442353495107,525409.9659017595,183603.9229215526,202191878,E05000094,Kilburn,http://www.fashionworkspace.co.uk/our-space/,E09000005,12/27/2020
Brent,Makerspaces,London Fashion Studios,London Fashion Studios,"1st Floor, Kilburn Bridge House",69-71 Kilburn High Road,E09000005,Brent,51.537409044031655,-0.1931445914680448,525409.9659017564,183602.92292182439,202079338,E05000094,Kilburn,http://www.londonfashionstudios.co.uk/,E09000005,12/27/2020
Brent,Making and manufacturing,Degross Design & Innovation Limited,Office 17 Wembley Point,1 Harrow Road,,E09000005,Brent,51.544613537588326,-0.2738966608320267,519790.9675542291,184268.92286469525,202206446,E05000102,Tokyngton,https://www.degross.co.uk,E09000005,12/27/2020
Brent,Making and manufacturing,Machine Shop Special Effects,180 Acton Lane,,,E09000005,Brent,51.53404094741237,-0.2612767937279312,520693.9673052388,183113.9231792671,202136775,E05000100,Stonebridge,http://www.machineshop.co.uk/contact/,E09000005,12/27/2020
Brent,Museums and public galleries,Brent Museum,Willesden Library Centre,95 High Rd,NA,E09000005,Brent,51.5466504009109,-0.22892149898310693,522903.9667075057,184569.92278124887,202149110,E05000105,Willesden Green,https://www.brent.gov.uk/museum,E09000005,12/27/2020
Brent,Music (office based businesses),Playtime Publishing Ltd,156 Purves Road,Brent,,E09000005,Brent,51.5333572427988,-0.22283415480927693,523361.96658146393,183101.92317878205,10091058607,E05000098,Queens Park,,E09000005,12/27/2020
Brent,Music (office based businesses),Ard Records Ltd,5 Sterling Close,Brent,,E09000005,Brent,51.54609269998047,-0.2366736262627054,522367.96685302665,184494.92280095123,202020633,E05000105,Willesden Green,,E09000005,12/27/2020
Brent,Music (office based businesses),Champion Records Ltd,181 High Street,Brent,,E09000005,Brent,51.534243760577546,-0.2416882476807265,522051.9669357149,183168.9231614184,202085894,E05000092,Kensal Green,www.championrecords.co.uk,E09000005,12/27/2020
Brent,Music (office based businesses),Polo Records Ltd,181 High Street,Brent,,E09000005,Brent,51.534243760577546,-0.2416882476807265,522051.9669357149,183168.9231614184,202085894,E05000092,Kensal Green,,E09000005,12/27/2020
Brent,Music (office based businesses),Platform 3 Records Ltd,61 Buckingham Road,Brent,,E09000005,Brent,51.53459347785716,-0.24402507054881195,521888.96698018187,183203.92315242725,202124751,E05000092,Kensal Green,,E09000005,12/27/2020
Brent,Music (office based businesses),Ace Records Ltd,42-50 Steele Road,Brent,,E09000005,Brent,51.53516099700736,-0.26465141053756225,520456.9673702072,183232.92314671585,202042930,E05000100,Stonebridge,www.acerecords.com,E09000005,12/27/2020
Brent,Music (office based businesses),Def - Deutsch Englische Freundschaft,51 Lonsdale Road,Brent,,E09000005,Brent,51.53652708643223,-0.20481606663255147,524602.9662439374,183484.92307633627,202073130,E05000098,Queens Park,,E09000005,12/27/2020
Brent,Music (office based businesses),Various Artist Management Ltd,37 Lonsdale Road,Brent,,E09000005,Brent,51.536839376780506,-0.20406837394164448,524653.966230208,183520.9230665968,202073137,E05000098,Queens Park,,E09000005,12/27/2020
Brent,Music (office based businesses),Strictly Rhythm Publishing Ltd,10 Trevelyan Gardens,Brent,,E09000005,Brent,51.53814777772328,-0.22444993406312608,523236.9666159757,183631.92303629406,202037641,E05000087,Brondesbury Park,,E09000005,12/27/2020
Brent,Music (office based businesses),Malicious Damage Records Ltd,41 Charteris Road,Brent,,E09000005,Brent,51.53806344344723,-0.20061704993471974,524889.9661666385,183662.92302794295,202116620,E05000094,Kilburn,,E09000005,12/27/2020
Brent,Music (office based businesses),Sugar Records Ltd,142 Glengall Road,Brent,,E09000005,Brent,51.5389721746639,-0.2018213299477411,524803.9661907766,183761.92300114676,202094746,E05000094,Kilburn,,E09000005,12/27/2020
Brent,Music (office based businesses),Throwing Records Ltd,1 College Yard,Winchester Avenue,Brent,E09000005,Brent,51.54022439572204,-0.20843427773978523,524341.9663165146,183889.92296681955,202112620,E05000098,Queens Park,,E09000005,12/27/2020
Brent,Music (office based businesses),Cross X Roads Ltd,19 Bentham Walk,Brent,,E09000005,Brent,51.552695582302725,-0.2627722089633968,520540.96734972374,185185.92261476163,202122210,E05000100,Stonebridge,,E09000005,12/27/2020
Brent,Music (office based businesses),Applause Records Inc Ltd,31 Dobree Avenue,Brent,,E09000005,Brent,51.54293929623779,-0.2308971875597225,522776.9667428382,184153.92289505922,202105556,E05000087,Brondesbury Park,,E09000005,12/27/2020
Brent,Music (office based businesses),Audio Fidelity Records Inc Ltd,31 Dobree Avenue,Brent,,E09000005,Brent,51.54293929623779,-0.2308971875597225,522776.9667428382,184153.92289505922,202105556,E05000087,Brondesbury Park,,E09000005,12/27/2020
Brent,Music (office based businesses),Boardwalk Records Inc Ltd,31 Dobree Avenue,Brent,,E09000005,Brent,51.54293929623779,-0.2308971875597225,522776.9667428382,184153.92289505922,202105556,E05000087,Brondesbury Park,,E09000005,12/27/2020
Brent,Music (office based businesses),Charlie Parker Records Ltd,31 Dobree Avenue,Brent,,E09000005,Brent,51.54293929623779,-0.2308971875597225,522776.9667428382,184153.92289505922,202105556,E05000087,Brondesbury Park,,E09000005,12/27/2020
Brent,Music (office based businesses),Rko Unique Ltd,31 Dobree Avenue,Brent,,E09000005,Brent,51.54293929623779,-0.2308971875597225,522776.9667428382,184153.92289505922,202105556,E05000087,Brondesbury Park,,E09000005,12/27/2020
Brent,Music (office based businesses),Skye Recording Company Ltd,31 Dobree Avenue,Brent,,E09000005,Brent,51.54293929623779,-0.2308971875597225,522776.9667428382,184153.92289505922,202105556,E05000087,Brondesbury Park,,E09000005,12/27/2020
Brent,Music (office based businesses),Black Party Ltd,6 Lansbury Close,Brent,,E09000005,Brent,51.55146113647226,-0.2656464223135199,520344.967404386,185043.922654045,202072038,E05000100,Stonebridge,,E09000005,12/27/2020
Brent,Music (office based businesses),Search Party Entertainment Ltd,6 Lansbury Close,Brent,,E09000005,Brent,51.55146113647226,-0.2656464223135199,520344.967404386,185043.922654045,202072038,E05000100,Stonebridge,,E09000005,12/27/2020
Brent,Music (office based businesses),Amphibic Records Ltd,137 Fleetwood Road,Brent,,E09000005,Brent,51.553223036716346,-0.23183958679104658,522683.966767064,185295.92258268181,202097428,E05000089,Dudden Hill,,E09000005,12/27/2020
Brent,Music (office based businesses),Chimpsky  Records Ltd,40 Charterhouse Avenue,Brent,,E09000005,Brent,51.555166401303076,-0.3119404792898758,517125.96827776596,185380.92256203387,202116760,E05000101,Sudbury,,E09000005,12/27/2020
Brent,Music (office based businesses),Halloumi Records Ltd,43 Compton Avenue,Brent,,E09000005,Brent,51.55819980308481,-0.3127660652302694,517060.96829643473,185716.922471288,202139207,E05000101,Sudbury,,E09000005,12/27/2020
Brent,Music recording studios,Assualt and Battery,1 Maybury Gardens,Willesdon,,,Brent,51.546673861426974,-0.23407407002374794,522546.6472576936,184563.8953697399,,,,https://milocostudios.com/studios/assault-&-battery-2/intro/,E09000005,12/27/2020
Brent,Music recording studios,Residents Studio,57a Windsor Road,,,,Willesden,51.55012137127764,-0.23233072206127242,522658.25398998975,184950.18783738272,,,,www.residentstudios.com/,E09000005,12/27/2020
Brent,Music recording studios,Produbbing,Unit 5 Quadrant Business Centre,135,Salusbury Road,E09000005,Brent,51.54048674816362,-0.20794808495028236,524374.9663077003,183919.92295867612,202014691,E05000098,Queens Park,http://www.produbbing.com,E09000005,12/27/2020
Brent,Music recording studios,3 Sixty Studios Ltd,17 Sapcote Trading Centre,High Road,Brent,E09000005,Brent,51.55018457624692,-0.24268878975418726,521939.96696710994,184939.92267883226,202040336,E05000089,Dudden Hill,www.3sixtystudios.co.uk,E09000005,12/27/2020
Brent,Music recording studios,Blue Box Studios Ltd,183 Edgware Road,Brent,,E09000005,Brent,51.58696752914217,-0.25135931746731816,521240.967158478,189015.92157353467,202099122,E05000090,Fryent,www.blueboxstudios.com,E09000005,12/27/2020
Brent,Music rehearsal studios,Resident Studios,57a Windsor Road,Willesden,,E09000005,Brent,51.55011006324938,-0.23233530332777486,522657.96677357005,184948.92267623183,202030058,E05000105,Willesden Green,www.residentstudios.com,E09000005,12/27/2020
Brent,Music venues (all),Paradise By Way Of Kensal Green,19 Kilburn Lane,Brent,,E09000005,Brent,51.52885114021126,-0.21626255542107162,523829.96645509836,182611.92331374896,202077350,E05000098,Queens Park,www.theparadise.co.uk,E09000005,12/27/2020
Brent,Music venues (all),Wembley Stadium,London ,,,E09000005,Brent,51.55602627881597,-0.27949451407896375,519372.9676659411,185528.92251996195,0,E05000102,Tokyngton,www.wembleystadium.com,E09000005,12/27/2020
Brent,Music venues (all),"The Sse Arena, Wembley",Arena Square Engineers Way,London,,E09000005,Brent,51.55809453899968,-0.2825614701356719,519154.96772455896,185753.92245846894,0,E05000102,Tokyngton,www.ssearena.co.uk,E09000005,12/27/2020
Brent,Music venues (all),Arista Club,232 Church Lane,Brent,,E09000005,Brent,51.573193668349234,-0.26184597946404414,520550.9673467622,187466.92199302203,202114719,E05000103,Welsh Harp,,E09000005,12/27/2020
Brent,Prop and costume making,303 Hire,D link House,1 Abbey Road,,E09000005,Brent,51.538632885553575,-0.276300465335029,519639.9675944838,183599.92304665298,202142808,E05000100,Stonebridge,http://www.303hire.com,E09000005,12/27/2020
Brent,Prop and costume making,Film Medical,5-7  Commercial Way,,,E09000005,Brent,51.53262802517065,-0.27155315984119677,519984.9674993929,182939.92322678515,202108303,E05000100,Stonebridge,http://filmmedical.co.uk,E09000005,12/27/2020
Brent,Prop and costume making,Granger Hertzog,Central Park,Unit 6  Central Way,,E09000005,Brent,51.53149364027651,-0.2653676470517705,520416.9673813968,182823.92325829563,202209337,E05000100,Stonebridge,https://www.grangerhertzog.com/,E09000005,12/27/2020
Brent,Prop and costume making,Prop Hire and Deliver,Popin Business Centre,Unit 20  South Way,,E09000005,Brent,51.55494033054267,-0.27535213838963685,519662.96758776845,185414.9225519179,202054543,E05000102,Tokyngton,http://www.prophireanddeliver.com/,E09000005,12/27/2020
Brent,Prop and costume making,Stockyard Backdrops,Unit A Genesis Business Park,Rainsford Road,,E09000005,Brent,51.53368416083174,-0.27794376258312314,519538.9676223356,183046.92319735407,202191752,E05000100,Stonebridge,https://www.prophire-backdrophire.com,E09000005,12/27/2020
Brent,Prop and costume making,Superhire,D Link House,1 Abbey Road,,E09000005,Brent,51.538632885553575,-0.276300465335029,519639.9675944838,183599.92304665298,202142808,E05000100,Stonebridge,http://www.superhire.com,E09000005,12/27/2020
Brent,Pubs,Boat,346 Ealing Road,Alperton,Wembley,E09000005,Brent,51.53771965690749,-0.3006320321846831,517954.9680516641,183458.92308309925,,E05000085,Alperton,,E09000005,12/27/2020
Brent,Pubs,Apna Lounge,5 Heather Park Parade,Alperton,Wembley,E09000005,Brent,51.54302698922774,-0.2852918857261337,519004.96776600456,184073.92291639722,,E05000085,Alperton,,E09000005,12/27/2020
Brent,Pubs,Flannery's Bar,610-612 High Road,Wembley,,E09000005,Brent,51.55219433282024,-0.2997896379451409,517975.96804775763,185069.92264406884,,E05000104,Wembley Central,,E09000005,12/27/2020
Brent,Pubs,Savannah Lounge,"4 Lancelot Rd, Lancelot Parade",Wembley,,E09000005,Brent,51.55252981565372,-0.2993588442721983,518004.96803983074,185107.92263388686,,E05000104,Wembley Central,,E09000005,12/27/2020
Brent,Pubs,Saffran,551 High Road,Wembley,,E09000005,Brent,51.55202603832872,-0.30120946980410557,517877.9680745851,185048.92264964484,,E05000104,Wembley Central,,E09000005,12/27/2020
Brent,Pubs,Swan,789 Harrow Road,Sudbury,Wembley,E09000005,Brent,51.55579920177392,-0.31718239139264315,516760.9683765137,185442.92254643468,,E05000101,Sudbury,,E09000005,12/27/2020
Brent,Pubs,Black Horse,1018 Harrow Rd,Sudbury,Wembley,E09000005,Brent,51.560505294177666,-0.3293584686395278,515904.968610117,185946.92240934854,,E05000096,Northwick Park,,E09000005,12/27/2020
Brent,Pubs,Himalayan Club (Bar & Restaurant),32-34 Watford Road,Sudbury,Wembley,E09000005,Brent,51.55654943189427,-0.3168229581967948,516783.9683706672,185526.92252358235,,E05000101,Sudbury,,E09000005,12/27/2020
Brent,Pubs,Moonbay,"1-2 Court Parade, East Lane",Wembley,North Wembley,E09000005,Brent,51.562118138706616,-0.3188683036338592,516627.9684148525,186142.9223558879,,E05000096,Northwick Park,,E09000005,12/27/2020
Brent,Pubs,Panthers,3-4 Glenmore Parade,Alperton,Wembley,E09000005,Brent,51.54186423525115,-0.29746358621483765,518163.967994614,183924.92295550322,,E05000085,Alperton,,E09000005,12/27/2020
Brent,Pubs,Balkan,66C Ealing Road,Wembley,,E09000005,Brent,51.548445649380035,-0.2980110635247496,518108.96801085497,184655.9227562162,,E05000104,Wembley Central,,E09000005,12/27/2020
Brent,Pubs,Mumbai Junction,231 Watford Rd,Sudbury,Harrow,E09000005,Brent,51.56820216487683,-0.3217463461302684,516412.9684744384,186814.9221724074,,E05000096,Northwick Park,,E09000005,12/27/2020
Brent,Pubs,Blue Zenzer,280 Watford Road,Northwick Park,,E09000005,Brent,51.57235085507757,-0.3232385408588829,516298.96850509156,187273.92204669793,,E05000096,Northwick Park,,E09000005,12/27/2020
Brent,Pubs,Fizz Sports Bar,217 Kenton Road,Kenton,Harrow,E09000005,Brent,51.583329113995575,-0.31436127430125943,516885.9683462527,188508.92170982092,,E05000093,Kenton,,E09000005,12/27/2020
Brent,Pubs,Fleadh,278 Preston Road,Wembley,,E09000005,Brent,51.57306693450554,-0.29429244208797595,518302.967956615,187399.92201247666,,E05000086,Barnhill,,E09000005,12/27/2020
Brent,Pubs,Blue Ginger,383 Kenton Road,Kenton,Harrow,E09000005,Brent,51.58677387151727,-0.30503843825560556,517522.9681715414,188906.92160394375,,E05000093,Kenton,,E09000005,12/27/2020
Brent,Pubs,New Inn,19 Burnt Oak Broadway,Burnt Oak,Edgware,E09000005,Brent,51.599230480800514,-0.26636779426760077,520168.9674475547,190354.92120866175,,E05000099,Queensbury,,E09000005,12/27/2020
Brent,Pubs,Powerleague Wembley,"Yellow Car Park, Engineers Way",Wembley,,E09000005,Brent,51.55873926412894,-0.27807938980380126,519463.9676403726,185832.9224373962,,E05000102,Tokyngton,,E09000005,12/27/2020
Brent,Pubs,Watkin's Folly,"Empire House, 1 Empire Way",Wembley,Wembley Park,E09000005,Brent,51.56148425660283,-0.2825347587436899,519147.9677274317,186130.9223566823,,E05000102,Tokyngton,,E09000005,12/27/2020
Brent,Pubs,Frankie & Benny's,"Unit 100, Level 2, Wembley Park Boulevard",Wembley,,E09000005,Brent,51.55670287921307,-0.2839410197011541,519062.9677496513,185596.92250153382,,E05000102,Tokyngton,,E09000005,12/27/2020
Brent,Pubs,Ping Pong,Unit 68-70 London Designer Outlet,Wembley,,E09000005,Brent,51.55670287921307,-0.2839410197011541,519062.9677496513,185596.92250153382,,E05000102,Tokyngton,,E09000005,12/27/2020
Brent,Pubs,Boxpark Wembley,Olympic Way,Wembley Park,,E09000005,Brent,51.56201921030463,-0.2791529441009877,519380.967664454,186195.92233905528,,E05000102,Tokyngton,,E09000005,12/27/2020
Brent,Pubs,Blue Check,12-13 Empire Parade,Wembley,Wembley Park,E09000005,Brent,51.561201938663984,-0.28290608355248237,519122.96773408883,186098.92236534687,,E05000102,Tokyngton,,E09000005,12/27/2020
Brent,Pubs,TGI Friday's,1 Wembley Park Boulevard,Wembley,,E09000005,Brent,51.55707762120851,-0.2837393923895712,519075.96774607117,185638.92249012244,,E05000102,Tokyngton,,E09000005,12/27/2020
Brent,Pubs,Wembley Stadium,Olympic Way,Wembley,,E09000005,Brent,51.55669389865153,-0.2796424507560817,519360.9676689139,185602.9225001561,,E05000102,Tokyngton,,E09000005,12/27/2020
Brent,Pubs,J J Moons,397 High Road,Wembley,,E09000005,Brent,51.55343370326394,-0.2922426938816402,518495.967905291,185219.92260385567,,E05000104,Wembley Central,,E09000005,12/27/2020
Brent,Pubs,Liquor Station,397a High Road,Wembley,,E09000005,Brent,51.55343370326394,-0.2922426938816402,518495.967905291,185219.92260385567,,E05000104,Wembley Central,,E09000005,12/27/2020
Brent,Pubs,Thirsty Eddie's,412 High Road,Wembley,,E09000005,Brent,51.55377688578491,-0.2917249925637695,518530.96789568034,185258.92259332532,,E05000104,Wembley Central,,E09000005,12/27/2020
Brent,Pubs,Corner House,313 Harrow Road,Wembley,,E09000005,Brent,51.55310301483342,-0.28621118269813534,518914.9677904815,185192.9226112311,,E05000104,Wembley Central,,E09000005,12/27/2020
Brent,Pubs,Station 31,299-301 Harrow Road,Wembley,,E09000005,Brent,51.55263074821336,-0.2852769012384194,518980.9677724565,185141.92262510245,,E05000104,Wembley Central,,E09000005,12/27/2020
Brent,Pubs,Arch,324 Harrow Road,Wembley,,E09000005,Brent,51.55289532611023,-0.2849207766655469,519004.9677658464,185171.9226169596,,E05000102,Tokyngton,,E09000005,12/27/2020
Brent,Pubs,Travelodge London Wembley High Road,High Road,Wembley,,E09000005,Brent,51.55216027144105,-0.29619927903592363,518224.9679795617,185071.92264366156,,E05000104,Wembley Central,,E09000005,12/27/2020
Brent,Pubs,Aroma Lounge,96 Llanover Road,Wembley,North Wembley,E09000005,Brent,51.56208790785526,-0.30239321227391375,517769.96810385486,186165.9223487365,,E05000097,Preston,,E09000005,12/27/2020
Brent,Pubs,St Georges Hotel,43-51 Wembley Hill Road,Wembley,,E09000005,Brent,51.55532803412616,-0.28647386103210454,518890.96779680625,185439.92254420306,,E05000102,Tokyngton,,E09000005,12/27/2020
Brent,Pubs,Green Man Hotel,64 Dagmar Avenue,Wembley,,E09000005,Brent,51.557007954725975,-0.2894402261127001,518680.96785430674,185621.9224950719,,E05000102,Tokyngton,,E09000005,12/27/2020
Brent,Pubs,Wembley Tavern,121 Wembley Park Drive,Wembley,Wembley Park,E09000005,Brent,51.56205024490624,-0.28249900094850217,519148.9677274187,186193.92233962653,,E05000102,Tokyngton,,E09000005,12/27/2020
Brent,Pubs,Parish,120 Wembley Park Drive,Wembley,Wembley Park,E09000005,Brent,51.56175353914476,-0.2831161424256857,519106.9677386814,186159.92234883562,,E05000102,Tokyngton,,E09000005,12/27/2020
Brent,Pubs,Double 6 Sports Bar,125 Wembley Park Drive,Wembley,Wembley Park,E09000005,Brent,51.56216985472943,-0.281455695202833,519220.9677079391,186208.92233555636,,E05000102,Tokyngton,,E09000005,12/27/2020
Brent,Pubs,Stadium Lounge,10 The Broadway,Wembley,,E09000005,Brent,51.562409451036565,-0.292325166435155,518466.9679135073,186217.92233376973,,E05000097,Preston,,E09000005,12/27/2020
Brent,Pubs,Preston,161 Preston Road,Wembley,Preston,E09000005,Brent,51.56966496117477,-0.29532894087757977,518239.96797478053,187019.92211592925,,E05000097,Preston,,E09000005,12/27/2020
Brent,Pubs,182,182-184 Preston Road,Wembley,Preston,E09000005,Brent,51.57037283590197,-0.29453763906293495,518292.9679602065,187099.9220941086,,E05000097,Preston,,E09000005,12/27/2020
Brent,Pubs,Windermere,Windermere Avenue,South Kenton,Wembley,E09000005,Brent,51.569168215764435,-0.3063575292169352,517476.9681828411,186946.9221361595,,E05000097,Preston,,E09000005,12/27/2020
Brent,Pubs,Nest (Bar & Dining),104-106 Windermere Avenue,South Kenton,Wembley,E09000005,Brent,51.571072150742694,-0.30806166611040203,517353.9682163419,187155.92207933107,,E05000097,Preston,,E09000005,12/27/2020
Brent,Pubs,Crock Of Gold,23 Bridge Road,Wembley,Wembley Park,E09000005,Brent,51.564455605993665,-0.27789221425840654,519461.9676436964,186468.92226509488,,E05000086,Barnhill,,E09000005,12/27/2020
Brent,Pubs,Torch,1 Bridge Road,Wembley,Wembley Park,E09000005,Brent,51.564455605993665,-0.27789221425840654,519461.9676436964,186468.92226509488,,E05000086,Barnhill,,E09000005,12/27/2020
Brent,Pubs,Metro Bar,240-242 Neasden Lane,Neasden,London,E09000005,Brent,51.55912231930494,-0.24925449074458228,521460.96709826216,185922.92241606506,,E05000089,Dudden Hill,,E09000005,12/27/2020
Brent,Pubs,Katie's,350 Neasden Lane,Neasden,London,E09000005,Brent,51.56011296782855,-0.2511640464988369,521325.96713462967,186029.92238668335,,E05000089,Dudden Hill,,E09000005,12/27/2020
Brent,Pubs,Greenes,362 Neasden Lane North,Neasden,London,E09000005,Brent,51.561343498853766,-0.2546948505699168,521077.9672022283,186160.92235004483,,E05000103,Welsh Harp,,E09000005,12/27/2020
Brent,Pubs,Field,249 Neasden Lane,Neasden,London,E09000005,Brent,51.559451273216844,-0.2502084361474065,521393.9671163028,185957.92240650684,,E05000089,Dudden Hill,,E09000005,12/27/2020
Brent,Pubs,Rising Sun,25 Harlesden Road,Willesden,London,E09000005,Brent,51.545426465548665,-0.23005071555775763,522828.9667280821,184431.92281908786,,E05000087,Brondesbury Park,,E09000005,12/27/2020
Brent,Pubs,Tony's Bar,356-360 High Road,Willesden,London,E09000005,Brent,51.54889663602286,-0.2413537858765347,522035.9669414102,184798.92271799553,,E05000105,Willesden Green,,E09000005,12/27/2020
Brent,Pubs,Moloneys,429 High Road,Willesden,London,E09000005,Brent,51.548973147342856,-0.2422595210683515,521972.96695835155,184805.92271612084,,E05000105,Willesden Green,,E09000005,12/27/2020
Brent,Pubs,No.8,"305 High Road, Willesden Green",Willesden,London,E09000005,Brent,51.54869022472621,-0.23898186865289883,522200.96689705504,184779.922723088,,E05000105,Willesden Green,,E09000005,12/27/2020
Brent,Pubs,McGoverns,60 High Road,Willesden,London,E09000005,Brent,51.547312632548575,-0.22870827342075903,522916.9667039022,184643.9227609143,,E05000105,Willesden Green,,E09000005,12/27/2020
Brent,Pubs,Bar Lulas,50 High Road,Willesden,London,E09000005,Brent,51.54745083321065,-0.22773657140883494,522983.9666857127,184660.9227563424,,E05000105,Willesden Green,,E09000005,12/27/2020
Brent,Pubs,Flynns,117 High Road,Willesden,London,E09000005,Brent,51.54690234097072,-0.23012321680942227,522819.9667302895,184595.9227739643,,E05000105,Willesden Green,,E09000005,12/27/2020
Brent,Pubs,Whippet Inn,64-66 Chamberlayne Road,Kensal Rise,London,E09000005,Brent,51.53233992198701,-0.21801488342060849,523698.9664906392,182996.92320833897,,E05000098,Queens Park,,E09000005,12/27/2020
Brent,Pubs,Maggies Bar,102 Chamberlayne Road,Kensal Rise,London,E09000005,Brent,51.53483174567412,-0.21984964912243107,523564.96652668994,183270.92313365312,,E05000098,Queens Park,,E09000005,12/27/2020
Brent,Pubs,Shop,75 Chamberlayne Road,Kensal Rise,London,E09000005,Brent,51.53384187415495,-0.21861945179504502,523652.9665029912,183162.92316259997,,E05000098,Queens Park,,E09000005,12/27/2020
Brent,Pubs,Chamberlayne,83 Chamberlayne Road,Kensal Rise,London,E09000005,Brent,51.53384187415495,-0.21861945179504502,523652.9665029912,183162.92316259997,,E05000098,Queens Park,,E09000005,12/27/2020
Brent,Pubs,Shawl,25 High Street,Harlesden,London,E09000005,Brent,51.536729639370684,-0.24796591718582497,521609.96705612604,183434.923091156,,E05000091,Harlesden,,E09000005,12/27/2020
Brent,Pubs,Angies,127-129 High Street,Harlesden,London,E09000005,Brent,51.53533979499112,-0.2434195590160081,521928.96696940693,183287.92313005053,,E05000092,Kensal Green,,E09000005,12/27/2020
Brent,Pubs,Green Man,109 High Street,Harlesden,London,E09000005,Brent,51.53609486785355,-0.2446017134773954,521844.96699238365,183369.92310813465,,E05000092,Kensal Green,,E09000005,12/27/2020
Brent,Pubs,Royal Oak,95 High Street,Harlesden,London,E09000005,Brent,51.53609486785355,-0.2446017134773954,521844.96699238365,183369.92310813465,,E05000092,Kensal Green,,E09000005,12/27/2020
Brent,Pubs,Sportsmans,58 Station Road,Harlesden,London,E09000005,Brent,51.5338037854697,-0.24774669331321958,521632.96704969124,183109.92317893024,,E05000091,Harlesden,,E09000005,12/27/2020
Brent,Pubs,Le Junction,47 Station Road,Harlesden,London,E09000005,Brent,51.533833066275626,-0.2472985850576596,521663.9670412297,183113.92317776376,,E05000092,Kensal Green,,E09000005,12/27/2020
Brent,Pubs,Island,123 College Road,Kensal Rise,London,E09000005,Brent,51.53528372912557,-0.22653686799223016,523099.9666522609,183309.92312293418,,E05000092,Kensal Green,,E09000005,12/27/2020
Brent,Pubs,William IV,786 Harrow Road,Kensal Rise,London,E09000005,Brent,51.5289545491745,-0.2189256685754631,523644.96650554263,182618.92331231572,,E05000098,Queens Park,,E09000005,12/27/2020
Brent,Pubs,Parlour,5 Regent Street,Kensal Rise,London,E09000005,Brent,51.52873386118928,-0.21682940418166674,523790.9664657128,182597.92331812688,,E05000098,Queens Park,,E09000005,12/27/2020
Brent,Pubs,Masons Arms,665 Harrow Road,Harlesden,London,E09000005,Brent,51.53001395244473,-0.225934417776186,523155.96663735225,182724.92328237533,,E05000092,Kensal Green,,E09000005,12/27/2020
Brent,Pubs,Grand Junction Arms,Acton Lane,Harlesden,London,E09000005,Brent,51.53446209725241,-0.2605686342792539,520741.9672922692,183161.92316618568,,E05000100,Stonebridge,,E09000005,12/27/2020
Brent,Pubs,Ace Cafe London,"Ace Corner, North Circular Road",Stonebridge,,E09000005,Brent,51.54045671459321,-0.2786397494961942,519472.96763982676,183798.9229921511,,E05000100,Stonebridge,,E09000005,12/27/2020
Brent,Pubs,Bridge Park Hotel,16 Hillside,Harlesden,London,E09000005,Brent,51.541506532651375,-0.26079023342147917,520707.96730307385,183944.92295354337,,E05000100,Stonebridge,,E09000005,12/27/2020
Brent,Pubs,Burren,174 Church Road,Harlesden,London,E09000005,Brent,51.54715820770964,-0.2501900720438116,521427.96710508445,184590.92277588096,,E05000091,Harlesden,,E09000005,12/27/2020
Brent,Pubs,Barretts,239 Cricklewood Broadway,Cricklewood,London,E09000005,Brent,51.55800210956324,-0.21724266123648497,523682.9664949628,185851.92243472958,,E05000095,Mapesbury,,E09000005,12/27/2020
Brent,Pubs,Beer & Burger Store,88 Walm Lane,London,Cricklewood,E09000005,Brent,51.5487018612639,-0.22126957942199008,523428.96656524326,184810.92271575186,,E05000105,Willesden Green,,E09000005,12/27/2020
Brent,Pubs,Queensbury,110a Walm Lane,Cricklewood,London,E09000005,Brent,51.54961948625822,-0.22010873461955038,523506.9665443674,184914.92268724623,,E05000095,Mapesbury,,E09000005,12/27/2020
Brent,Pubs,Angies III,"11 Walm Lane, Willesden",Cricklewood,London,E09000005,Brent,51.54796673295036,-0.22379344936242776,523255.96661197586,184724.92273915524,,E05000105,Willesden Green,,E09000005,12/27/2020
Brent,Pubs,Moncada Brewery Tap Room,37 Humber Road,Cricklewood,London,E09000005,Brent,51.566036064497894,-0.228759625425472,522862.96671925264,186725.9221961178,,E05000088,Dollis Hill,,E09000005,12/27/2020
Brent,Pubs,Loz Lounge,301 Cricklewood Broadway,Cricklewood,London,E09000005,Brent,51.55995318319771,-0.21959005535188217,523514.9665404499,186064.92237657518,,E05000095,Mapesbury,,E09000005,12/27/2020
Brent,Pubs,Whelans,341 Oxgate Lane,Cricklewood,London,E09000005,Brent,51.56686867802323,-0.23328666051971456,522546.96680587553,186810.92217373953,,E05000088,Dollis Hill,,E09000005,12/27/2020
Brent,Pubs,Prince Of Wales,11A Cambridge Gardens,Kilburn,London,E09000005,Brent,51.534051739037416,-0.19411389747275531,525351.9660385957,183227.9231461999,,E05000094,Kilburn,,E09000005,12/27/2020
Brent,Pubs,Bokor,77 Kilburn High Road,Kilburn,London,E09000005,Brent,51.53747417429029,-0.193286206937778,525399.966026611,183609.9230420324,,E05000094,Kilburn,,E09000005,12/27/2020
Brent,Pubs,Cock Tavern,125 Kilburn High Road,Kilburn,London,E09000005,Brent,51.53879316576343,-0.1948490078306961,525287.9660577462,183753.9230029846,,E05000094,Kilburn,,E09000005,12/27/2020
Brent,Pubs,Kitchen 79,79 Salusbury Road,Queen's Park,London,E09000005,Brent,51.535849572224194,-0.20520322051845247,524577.9662503031,183408.9230974217,,E05000098,Queens Park,,E09000005,12/27/2020
Brent,Pubs,Alice House,53-55 Salusbury Road,Queen's Park,London,E09000005,Brent,51.53489555404902,-0.20456307830221288,524624.9662369371,183303.9231259256,,E05000098,Queens Park,,E09000005,12/27/2020
Brent,Pubs,Salusbury,50-52 Salusbury Road,Queen's Park,London,E09000005,Brent,51.535485285777604,-0.20549152215683233,524558.9662553071,183367.92310851376,,E05000098,Queens Park,,E09000005,12/27/2020
Brent,Pubs,Wolfpack,53 Lonsdale Road,Queens Park,London,E09000005,Brent,51.537021709391084,-0.20364302338101478,524682.9662223175,183541.92306141648,,E05000098,Queens Park,,E09000005,12/27/2020
Brent,Pubs,Earl of Derby,155 Kilburn High Road,Kilburn,London,E09000005,Brent,51.54069285211662,-0.19674944634709668,525150.966096225,183961.9229465918,,E05000094,Kilburn,,E09000005,12/27/2020
Brent,Pubs,Kiln Theatre Bar,269 Kilburn High Road,Kilburn,London,E09000005,Brent,51.54372535598836,-0.2003935886209495,524889.9661683738,184292.92285750102,,E05000094,Kilburn,,E09000005,12/27/2020
Brent,Pubs,North London Tavern,375 Kilburn High Road,London,Kilburn,E09000005,Brent,51.545135013654814,-0.2020109249613567,524773.9661994899,184446.9228161609,,E05000094,Kilburn,,E09000005,12/27/2020
Brent,Pubs,Kilburn Arms,97-101 Willesden Lane,London,Kilburn,E09000005,Brent,51.540543859670294,-0.20403782030566792,524645.9662344317,183932.92295534624,,E05000098,Queens Park,,E09000005,12/27/2020
Brent,Pubs,McGlynn's,70 Willesden Lane,Kilburn,London,E09000005,Brent,51.54113226495182,-0.2007699318575665,524870.9661737334,184003.9229357299,,E05000094,Kilburn,,E09000005,12/27/2020
Brent,Pubs,Carlton Lounge,232-234 Kingsbury Road,Kingsbury,London,E09000005,Brent,51.58339065368462,-0.2630299872020922,520441.9673776198,188598.9216893401,,E05000090,Fryent,,E09000005,12/27/2020
Brent,Pubs,Power's Bar,23 Hay Lane,Kingsbury,London,E09000005,Brent,51.58826926034964,-0.26334910188754096,520406.9673858232,189140.9215403237,,E05000090,Fryent,,E09000005,12/27/2020
Brent,Pubs,Black Leaf Lounge,163 Edgware Road,Kingsbury,London,E09000005,Brent,51.58581752733521,-0.2502197798664734,521322.9671364234,188889.92160877376,,E05000090,Fryent,,E09000005,12/27/2020
Brent,Pubs,Erin's Hope,189 Edgware Road,Kingsbury,London,E09000005,Brent,51.5871320901861,-0.251540662723737,521227.96716185665,189033.92156894365,,E05000090,Fryent,,E09000005,12/27/2020
Brent,Pubs,Shanakee,253 Edgware Road,Kingsbury,London,E09000005,Brent,51.58838307719602,-0.25282076170664997,521135.9671864701,189170.92153099185,,E05000090,Fryent,,E09000005,12/27/2020
Brent,Pubs,Clery's Clock Bar,225 - 227 Edgware Road,Kingsbury,London,E09000005,Brent,51.58838307719602,-0.25282076170664997,521135.9671864701,189170.92153099185,,E05000090,Fryent,,E09000005,12/27/2020
Brent,Pubs,Wishing Well,175 Church Lane,Kingsbury,London,E09000005,Brent,51.57359913587441,-0.262508784026569,520503.9673593614,187510.92198146536,,E05000103,Welsh Harp,,E09000005,12/27/2020
Brent,Pubs,Mcdonaghs Bar,2-4 Slough Lane,Kingsbury,London,E09000005,Brent,51.578764057608936,-0.2633364182298402,520432.96737892804,188083.92182720872,,E05000090,Fryent,,E09000005,12/27/2020
Brent,Pubs,Flyer's Bar,45 Blackbird Hill,Kingsbury,,E09000005,Brent,51.5646434158268,-0.26256189710436006,520523.96735468495,186514.92225240462,,E05000103,Welsh Harp,,E09000005,12/27/2020
Brent,Pubs,George,234 Church Lane,Kingsbury,London,E09000005,Brent,51.57303253426448,-0.26189542513091335,520547.9673475242,187448.9219983109,,E05000103,Welsh Harp,,E09000005,12/27/2020
Brent,Pubs,Jono's Pub,458 Church Lane,Kingsbury,London,E09000005,Brent,51.58118579193364,-0.2623058181554633,520497.9673618258,188354.9217546683,,E05000090,Fryent,,E09000005,12/27/2020
Brent,Pubs,Green Man,125 Slough Lane,Kingsbury,London,E09000005,Brent,51.58354889874265,-0.26705124103575206,520162.9674537679,188609.92168645537,,E05000090,Fryent,,E09000005,12/27/2020
Brent,Pubs,J J Moons,551 - 553 Kingsbury Road,Kingsbury,London,E09000005,Brent,51.58459009277952,-0.2803928895189927,519235.9677070569,188703.92165986658,,E05000093,Kenton,,E09000005,12/27/2020
Brent,Pubs,Hennesseys,543 - 545 Kingsbury Road,Kingsbury,London,E09000005,Brent,51.58459009277952,-0.2803928895189927,519235.9677070569,188703.92165986658,,E05000093,Kenton,,E09000005,12/27/2020
Brent,Pubs,Roisin Dubh,1 Fryent Way,Kingsbury,London,E09000005,Brent,51.58443507114855,-0.28086066551331784,519203.9677158301,188685.92166475364,,E05000093,Kenton,,E09000005,12/27/2020
Brent,Pubs,Paradise by Way of Kensal Green,19 Kilburn Lane,North Kensington,London,E09000005,Brent,51.52911155168096,-0.21623795456621558,523830.9664547042,182640.9233062853,,E05000098,Queens Park,,E09000005,12/27/2020
Brent,Set and exhibition building,Exib,Unit 1,Fourth Way,,E09000005,Brent,51.559666440999415,-0.2720283346304452,519880.9675274701,185945.92240675987,202096971,E05000102,Tokyngton,http://www.exib.co.uk,E09000005,12/27/2020
Brent,Set and exhibition building,TAIT,Unit 9,Neasden Lane,,E09000005,Brent,51.554413323112705,-0.24885842180667397,521500.96708633914,185399.92255622795,202009207,E05000089,Dudden Hill,http://www.taittowers.com,E09000005,12/27/2020
Brent,Set and exhibition building,RDW Scenery ,Unit A Genesis Business Park,Rainsford Road,,E09000005,Brent,51.53368416083174,-0.27794376258312314,519538.9676223356,183046.92319735407,202191752,E05000100,Stonebridge,https://www.scenery-construction.com/,E09000005,12/27/2020
Brent,Set and exhibition building,Scenic Sets,Stadium Business Center ,Unit 45 North End Road,,E09000005,Brent,51.56069551946741,-0.2716863285962466,519901.9675223418,186060.92237558612,202001588,E05000102,Tokyngton,http://www.scenicsets.com,E09000005,12/27/2020
Brent,Set and exhibition building,Stockyard Backdrops,Unit A Genesis Business Park,Rainsford Road,,E09000005,Brent,51.53368416083174,-0.27794376258312314,519538.9676223356,183046.92319735407,202191752,E05000100,Stonebridge,https://www.prophire-backdrophire.com,E09000005,12/27/2020
Brent,Skate Parks,River-Brent-Park,,,,E09000005,Brent,51.54608680328119,-0.27084844756721965,519998.4540707885,184437.74380318914,0,E05000100,Stonebridge,,E09000005,12/27/2020
Brent,Textile design,Fashion Formula,Drakeglen House,35-36 Disraeli Road,,E09000005,Brent,51.53467084256219,-0.263127237705693,520563.96734079445,183180.9231611737,202105732,E05000100,Stonebridge,http://www.fashion-formula.com/,E09000005,12/27/2020
Brent,Theatre rehearsal studio,The Kiln Theatre,269 Kilburn High Road,,,E09000005,Brent,51.54372535491802,-0.20039359042409316,524889.9660462736,184292.9227354013,202079064,E05000094,Kilburn,www.tricycle.co.uk,E09000005,12/27/2020
Brent,Theatres,Troubadour Wembley Park Theatre,Fulton Road,,,,,51.56085053698574,-0.2817884536759514,519201.3516905481,186061.6633533293,,,,,E09000005,12/27/2020
Brent,Theatres,The Kiln,269 Kilburn High Rd, Kilburn,NA,E09000005,Brent,51.54423111173105,-0.20199356192404672,524777.6416768447,184346.43632116436,202124574,E05000094,Kilburn,https://kilntheatre.com/,E09000005,12/27/2020
