BOROUGH,Cultural Venue Type,site_name,address1,address2,address3,borough_code,borough_name,latitude,longitude,easting,northing,os_addressbase_uprn,ward_2018_code,ward_2018_name,website,gss_code,runtime
Hammersmith and Fulham,Archives,Catholic Union of Great Britain,St Maximilian Kolbe House ,63 Jeddo Road,,E09000013,Hammersmith and Fulha,51.50441553910975,-0.2489180690435214,521629.96692901175,179839.9239443401,34000250,E05000251,Askew,http://catholicunion.org.uk/,E09000013,12/27/2020
Hammersmith and Fulham,Archives,Latymer Upper School,King Street,,,E09000013,Hammersmith and Fulha,51.49273647902588,-0.23706339544394048,522483.9666972709,178560.92429353797,34004704,E05000261,Ravenscourt Park,http://www.latymer-upper.org/,E09000013,12/27/2020
Hammersmith and Fulham,Archives,Polish Library POSK,Polish Social and Cultural Centre ,238-246 King Street,,E09000013,Hammersmith and Fulha,51.49351545275808,-0.2374366947128584,522455.96670495067,178646.92426981893,34006639,E05000261,Ravenscourt Park,http://www.posk.org/c5/en/library/about-library/,E09000013,12/27/2020
Hammersmith and Fulham,Archives,William Morris Society,Kelmscott House ,26 Upper Mall ,Hammersmith,E09000013,Hammersmith and Fulha,51.49058178727145,-0.23550436618855625,522597.9666667681,178323.9243578065,34008094,E05000261,Ravenscourt Park,https://williammorrissociety.org/,E09000013,12/27/2020
Hammersmith and Fulham,Archives,Rogers Stirk Harbour + Partners,Thames Wharf ,Rainville Road,,E09000013,Hammersmith and Fulha,51.48362317408272,-0.22429400856088202,523394.9664529341,177568.9245615187,34024755,E05000255,Fulham Reach,https://www.rsh-p.com/,E09000013,12/27/2020
Hammersmith and Fulham,Archives,St Paul's Girls' School,Brook Green ,Hammersmith,,E09000013,Hammersmith and Fulha,51.49513189704774,-0.21883326308777842,523742.96635653987,178857.9242113827,34026608,E05000252,Avonmore and Brook Green,https://spgs.org/,E09000013,12/27/2020
Hammersmith and Fulham,Archives,Hammersmith and Fulham Archives and Local History Centre,First Floor Hammersmith Library Shepherd's Bush Road,,,E09000013,Hammersmith and Fulha,51.494584691998604,-0.22366629184841172,523408.96644692624,178788.92423019884,34027231,E05000256,Hammersmith Broadway,https://www.lbhf.gov.uk/libraries/local-studies-and-archives,E09000013,12/27/2020
Hammersmith and Fulham,Archives,The Nutrition Society,10 Cambridge Court,210 Shepherds Bush Road,,E09000013,Hammersmith and Fulha,51.49533778359173,-0.2247030797950462,523334.9664670432,178870.9242079964,34028103,E05000256,Hammersmith Broadway,https://www.nutritionsociety.org/,E09000013,12/27/2020
Hammersmith and Fulham,Archives,Society for Psychical Research,1 Vernon Mews ,West Kensington,,E09000013,Hammersmith and Fulha,51.49391402689298,-0.21030917426154164,524337.9661945885,178736.92424532503,34037603,E05000252,Avonmore and Brook Green,https://www.spr.ac.uk/,E09000013,12/27/2020
Hammersmith and Fulham,Archives,National Federation of Women's Institutes,104 New Kings Road,,,E09000013,Hammersmith and Fulha,51.47223328674403,-0.20387155690914466,524843.9660600156,176336.92489809165,34044214,E05000264,Town,https://www.thewi.org.uk/,E09000013,12/27/2020
Hammersmith and Fulham,Archives,V&A Archive of Art and Design,Blythe House 23 Blythe Road,,,E09000013,Hammersmith and Fulha,51.496413877812444,-0.21384172436352888,524085.96626319404,179008.92417144217,34062985,E05000252,Avonmore and Brook Green,https://www.vam.ac.uk/info/archive-of-art-and-design,E09000013,12/27/2020
Hammersmith and Fulham,Archives,V&A Department of Theatre and Performance,23 Blythe Road,,,E09000013,Hammersmith and Fulha,51.496413877812444,-0.21384172436352888,524085.96626319404,179008.92417144217,34062985,E05000252,Avonmore and Brook Green,https://www.vam.ac.uk/collections/theatre-performance,E09000013,12/27/2020
Hammersmith and Fulham,Archives,Harrods Archive,68-72 Hammersmith Road,,,E09000013,Hammersmith and Fulha,51.49454912264182,-0.2136265321280767,524105.9662577259,178801.92422721058,34142299,E05000252,Avonmore and Brook Green,,E09000013,12/27/2020
Hammersmith and Fulham,Artists workspaces,Faroe Rd,23 - 29 Faroe Rd,,,E09000013,Hammersmith and Fulham,51.498592089894295,-0.21515404976425173,523988.9662897113,179248.92410668632,34034840,E05000252,Avonmore and Brook Green,www.acava.org,E09000013,12/27/2020
Hammersmith and Fulham,Artists workspaces,Hetley Rd,62 Hetley Rd,,,E09000013,Hammersmith and Fulham,51.50456463827418,-0.23366720048757378,522687.9666420115,179881.92393124138,34100876,E05000263,Shepherd's Bush Green,www.acava.org,E09000013,12/27/2020
Hammersmith and Fulham,Artists workspaces,Cadogen House,60 Hythe Road,,,E09000013,Hammersmith and Fulham,51.526598250025984,-0.2361731412659659,522454.9667055776,182327.92326752673,34141600,E05000253,College Park and Old Oak,https://nwstudios.wordpress.com,E09000013,12/27/2020
Hammersmith and Fulham,Artists workspaces,Regents House,17 Hythe Road,,,E09000013,Hammersmith and Fulham,51.52826455604197,-0.24354788448396167,521938.9668462639,182500.92322053172,34004522,E05000253,College Park and Old Oak,https://nwstudios.wordpress.com,E09000013,12/27/2020
Hammersmith and Fulham,Artists workspaces,Hythe Rd,First Floor,17 - 19 Hythe Rd,,E09000013,Hammersmith and Fulham,51.528460553988296,-0.2434250001073188,521946.9668440013,182522.9232145868,34156437,E05000253,College Park and Old Oak,www.acava.org,E09000013,12/27/2020
Hammersmith and Fulham,Artists workspaces,Apex House,23-25 Hythe Road,,,E09000013,Hammersmith and Fulham,51.528530214205134,-0.24447476603060936,521873.966863942,182528.9232129905,34131643,E05000253,College Park and Old Oak,https://nwstudios.wordpress.com,E09000013,12/27/2020
Hammersmith and Fulham,Arts centres,Irish Cultural Centre ,5 Black's Rd,Hammersmith,,E09000013,Hammersmith and Fulham,51.492313231802655,-0.2255847105141464,523281.92648107564,178533.1042998233,34156699,E05000256,Hammersmith Broadway,https://irishculturalcentre.co.uk/,E09000013,12/27/2020
Hammersmith and Fulham,Arts centres,Riverside Studios ,19 Crisp Rd, Hammersmith,,E09000013,Hammersmith and Fulham,51.48890897112333,-0.228255396863794,523105.69652979344,178150.05440400844,34157767,E05000256,Hammersmith Broadway,https://www.riversidestudios.co.uk/,E09000013,12/27/2020
Hammersmith and Fulham,Cinemas,Vue Cinema Fulham Broadway,Fulham Broadway Retail Centre,Fulham Rd,,E09000013,Hammersmith and Fulham,51.48041644797003,-0.1944915146069944,525472.9660085883,177262.92476769112,000034131058,E05000260,Parsons Green and Walham,,E09000013,12/27/2020
Hammersmith and Fulham,Cinemas,Riverside Studios,,65 Aspenlea Rd,Hammersmith,E09000013,Hammersmith and Fulham,51.485894103167674,-0.2178377058088614,523837.08644961636,177832.34459478903,000034158197,E05000255,Fulham Reach,,E09000013,12/27/2020
Hammersmith and Fulham,Cinemas,"Vue Shepherd's Bush



",Westfield London Shopping Centre,Ariel Way,"
",E09000013,Hammersmith and Fulham,51.50759868766784,-0.2214018558622982,523530.96653453144,180239.92395724682,000034141269,E05000263,Shepherd's Bush Green,,E09000013,12/27/2020
Hammersmith and Fulham,Commercial galleries,Studio 106,106 Dawes Road,NA,NA,E09000013,Hammersmith and Fulham,51.480499616048014,-0.20400786320649367,524811.9661876966,177255.924770798,34055693,E05000254,Fulham Broadway,http://www.studio106artgallery.org/#,E09000013,12/27/2020
Hammersmith and Fulham,Commercial galleries,Louise T Blouin Institute,3 Olaf Street,NA,NA,E09000013,Hammersmith and Fulham,51.510088326234644,-0.21775969406160056,523776.9664675742,180522.9238806009,34115265,E05000263,Shepherd's Bush Green,http://www.ltbfoundation.org/#,E09000013,12/27/2020
Hammersmith and Fulham,Commercial galleries,Bhavan Art Gallery,4a Castletown Road,NA,NA,E09000013,Hammersmith and Fulham,51.48976350443796,-0.20704343091384247,524575.9662516486,178280.92449157394,34140084,E05000258,North End,http://www.bhavan.net/art-gallery#,E09000013,12/27/2020
Hammersmith and Fulham,Commercial galleries,Hidde van Seggelen Gallery,2 Michael Road,NA,NA,E09000013,Hammersmith and Fulham,51.47758981129139,-0.18846824317930932,525898.9658949017,176958.924849384,34144768,E05000262,Sands End,http://www.hiddevanseggelen.com/#,E09000013,12/27/2020
Hammersmith and Fulham,Community centres,William Church TRA Hall ,60 Lime Grove,Hammersmith And Fulham,NA,E09000013,Hammersmith and Fulham,51.50296811082395,-0.22797981005247628,523086.9666562748,179713.92410011328,34119379,E05000263,Shepherd's Bush Green,,E09000013,12/27/2020
Hammersmith and Fulham,Community centres,St Peter's Terrace Residents Association Rooms,St Peter'S Terrace,Hammersmith And Fulham,NA,E09000013,Hammersmith and Fulham,51.479110158855086,-0.20841164136613458,524509.9662711219,177093.92481469893,34133232,E05000257,Munster,http://www.spraweb.net/index.html,E09000013,12/27/2020
Hammersmith and Fulham,Community centres,Kathy Dolan Centre ,78 White City Close,Hammersmith And Fulham,NA,E09000013,Hammersmith and Fulham,51.510965390538615,-0.22697759874051202,523134.96664229606,180604.9238577542,34135006,E05000253,College Park and Old Oak,,E09000013,12/27/2020
Hammersmith and Fulham,Community centres,Philpot Square Residents Hall,Philpot Square,Hammersmith And Fulham,NA,E09000013,Hammersmith and Fulham,51.466445876119714,-0.19183203115268413,525695.9659500554,175713.9251872531,34136875,E05000262,Sands End,,E09000013,12/27/2020
Hammersmith and Fulham,Community centres,Rene Davis Memorial Hall ,Laundry Road,Hammersmith And Fulham,NA,E09000013,Hammersmith and Fulham,51.483840437204776,-0.2137282765803966,524127.96637461206,177610.9246727206,34138852,E05000255,Fulham Reach,,E09000013,12/27/2020
Hammersmith and Fulham,Community centres,Maystar Estate Residents Hall,Sun Road,Hammersmith And Fulham,NA,E09000013,Hammersmith and Fulham,51.48769830159798,-0.2054823876948269,524689.9662200117,178053.92455343023,34140274,E05000258,North End,,E09000013,12/27/2020
Hammersmith and Fulham,Community centres,Woodmans Mews TRA Hall,Woodmans Mews,Hammersmith And Fulham,NA,E09000013,Hammersmith and Fulham,51.51945931542332,-0.22849255601454585,523006.96667876944,181546.92360304808,34140969,E05000253,College Park and Old Oak,,E09000013,12/27/2020
Hammersmith and Fulham,Community centres,Springvale Estate Residents Hall,Blythe Road,Hammersmith And Fulham,NA,E09000013,Hammersmith and Fulham,51.497252328136135,-0.21398181239671973,524073.96638857736,179101.92426848738,34141098,E05000252,Avonmore and Brook Green,,E09000013,12/27/2020
Hammersmith and Fulham,Community centres,Robert Owen Residents Hall,Fulham Palace Road,Hammersmith And Fulham,NA,E09000013,Hammersmith and Fulham,51.477288631026994,-0.21752671544457802,523881.96644258004,176875.92487362074,34141099,E05000259,Palace Riverside,,E09000013,12/27/2020
Hammersmith and Fulham,Community centres,Tudor Rose ,Fulham Road,Hammersmith And Fulham,NA,E09000013,Hammersmith and Fulham,51.4769821924114,-0.19864483740838326,525193.9660864313,176873.92487476004,34150881,E05000264,Town,,E09000013,12/27/2020
Hammersmith and Fulham,Community centres,West Kensington Community Hall,80 Lillie Road,Hammersmith And Fulham,NA,E09000013,Hammersmith and Fulham,51.48603853746944,-0.20103923522223496,525002.9661336319,177876.92460184742,34070106,E05000258,North End,www.creightonhouse.co.uk,E09000013,12/27/2020
Hammersmith and Fulham,Community centres,White City Community Centre,India Way,Hammersmith And Fulham,NA,E09000013,Hammersmith and Fulham,51.51172215309458,-0.2330299301463379,522712.96675733017,180678.92383736203,34128630,E05000265,Wormholt and White City,,E09000013,12/27/2020
Hammersmith and Fulham,Community centres,Queen Caroline Estate Community Hall,Queen Caroline Street,Hammersmith And Fulham,NA,E09000013,Hammersmith and Fulham,51.48995665871648,-0.22803802719196117,523117.96664823836,178266.92449443677,34141083,E05000256,Hammersmith Broadway,http://www.queencaroline.co.uk/,E09000013,12/27/2020
Hammersmith and Fulham,Community centres,Browning Court Residents Hall,Turneville Road,Hammersmith And Fulham,NA,E09000013,Hammersmith and Fulham,51.48659059924699,-0.20772965534525517,524536.9662618318,177926.92458755744,34160359,E05000258,North End,,E09000013,12/27/2020
Hammersmith and Fulham,Community centres,Matthews Community Hall,12 Margravine Road,Hammersmith And Fulham,NA,E09000013,Hammersmith and Fulham,51.48679856395551,-0.21547074784330672,523998.96640977106,177936.92458372185,34141653,E05000255,Fulham Reach,,E09000013,12/27/2020
Hammersmith and Fulham,Community centres,Gibbs Green Hall,Gibbs Green,Hammersmith And Fulham,NA,E09000013,Hammersmith and Fulham,51.49034679604057,-0.20402432052573868,524783.9661950044,178350.9244731572,34141100,E05000258,North End,,E09000013,12/27/2020
Hammersmith and Fulham,Community centres,Masbro Centre,87 Masbro' Road,Hammersmith And Fulham,NA,E09000013,Hammersmith and Fulham,51.500206725882975,-0.2160706772637377,523920.9664304545,179426.92418082297,34034846,E05000250,Addison,http://www.upg.org.uk,E09000013,12/27/2020
Hammersmith and Fulham,Community centres,Dorset Wharf Residents Hall,158 Rainville Road,Hammersmith And Fulham,NA,E09000013,Hammersmith and Fulham,51.482529819162615,-0.22394759003322373,523421.9665674951,177447.9247168501,34024170,E05000255,Fulham Reach,,E09000013,12/27/2020
Hammersmith and Fulham,Community centres,Old Oak Centre,76 Braybrook Street,Hammersmith And Fulham,NA,E09000013,Hammersmith and Fulham,51.51846993781981,-0.243434879420826,521972.9669597514,181411.9236403933,34115066,E05000253,College Park and Old Oak,http://www.oldoakcentre.co.uk,E09000013,12/27/2020
Hammersmith and Fulham,Community centres,Lytton Estate Community Hall,North End Crescent,Hammersmith And Fulham,NA,E09000013,Hammersmith and Fulham,51.493318749823715,-0.20724964714507432,524551.9662585069,178675.92438447918,34128657,E05000252,Avonmore and Brook Green,lyttonresidents.blogspot.com,E09000013,12/27/2020
Hammersmith and Fulham,Community centres,Becklow Gardens Residents Hall,Becklow Road,Hammersmith And Fulham,NA,E09000013,Hammersmith and Fulham,51.5048404225955,-0.24305152134772387,522035.9669409943,179896.9240502498,34013799,E05000251,Askew,,E09000013,12/27/2020
Hammersmith and Fulham,Community centres,Lancaster Court Tenantsâ Hall,Darlan Road,Hammersmith And Fulham,NA,E09000013,Hammersmith and Fulham,51.478746233054196,-0.2016716692167158,524978.9661433367,177064.924823198,34140754,E05000264,Town,,E09000013,12/27/2020
Hammersmith and Fulham,Community centres,Dorset Wharf Community Hall,Rainville Road,Hammersmith And Fulham,NA,E09000013,Hammersmith and Fulham,51.48309030519419,-0.2241418641803825,523406.966571672,177509.92469982337,34141101,E05000255,Fulham Reach,http://www.rockingscots.co.uk/Dorsetwharfcommunityhall.html,E09000013,12/27/2020
Hammersmith and Fulham,Community centres,Vanston Place Community Centre,Samuel Lewis Trust Dwellings,Vanston Place,Hammersmith And Fulham,E09000013,Hammersmith and Fulham,51.48116894590411,-0.19722701624792374,525280.9660599073,177341.92474666965,34142009,E05000254,Fulham Broadway,https://www.shgroup.org.uk/media/233111/vanston-place.pdf,E09000013,12/27/2020
Hammersmith and Fulham,Community centres,Brunswick Club,34 Haldane Road,Hammersmith And Fulham,NA,E09000013,Hammersmith and Fulham,51.48275132875867,-0.20247920624468876,524911.9661585509,177508.92470180657,34055896,E05000254,Fulham Broadway,www.thebrunswickclub.org.uk,E09000013,12/27/2020
Hammersmith and Fulham,Community centres,The Irish Cultural Centre,5 Black'S Road,Hammersmith And Fulham,NA,E09000013,Hammersmith and Fulham,51.49231323281632,-0.22558470927921048,523281.92656406754,178533.10441462253,34156699,E05000256,Hammersmith Broadway,http://irishculturalcentre.co.uk/,E09000013,12/27/2020
Hammersmith and Fulham,Community centres,William Banfield Community Hall,Munster Road,NA,NA,E09000013,Hammersmith and Fulham,51.47360124538922,-0.20570421444667342,524712.9662175857,176485.92498020298,34043341,E05000264,Town,,E09000013,12/27/2020
Hammersmith and Fulham,Community centres,Clem Attlee Residents Hall,Clem Attlee Tenants Hall,Len Freeman Place,London,E09000013,Hammersmith and Fulham,51.482801138376054,-0.20573223155292694,524685.9662208607,177508.92470147088,34050487,E05000254,Fulham Broadway,,E09000013,12/27/2020
Hammersmith and Fulham,Community centres,Nye Bevan Hall,Aspen Gardens,London,NA,E09000013,Hammersmith and Fulham,51.49127619426377,-0.2302628757819505,522959.96669058886,178409.92445603927,34006935,E05000256,Hammersmith Broadway,,E09000013,12/27/2020
Hammersmith and Fulham,Community centres,Prospects Centre,Banstead Court,60 Westway,London,E09000013,Hammersmith and Fulham,51.51391424768628,-0.24427319737254427,521926.96697156946,180903.9237785117,34142348,E05000265,Wormholt and White City,,E09000013,12/27/2020
Hammersmith and Fulham,Community centres,Elgin Close Resource Centre,1-3 Elgin Close,London,NA,E09000013,Hammersmith and Fulham,51.50152020599489,-0.235730109822682,522552.9668013643,179539.92414612358,34131373,E05000251,Askew,,E09000013,12/27/2020
Hammersmith and Fulham,Community centres,Vignola Hall,Fulham Estate Residents Association (FERA),Old Estate Office (opposite Block J),Peabody Estate,E09000013,Hammersmith and Fulham,51.48564318331154,-0.1998881154735473,525083.9661116308,177834.9246129825,34134720,E05000254,Fulham Broadway,https://fulhamestatetra.org.uk/?page_id=126,E09000013,12/27/2020
Hammersmith and Fulham,Community centres,Tenant Hall,Tenant Hall,Peabody Estate,Fulham Palace Road,E09000013,Hammersmith and Fulham,51.49008268701139,-0.22388455465971122,523405.9665702197,178287.92448824306,34029839,E05000256,Hammersmith Broadway,,E09000013,12/27/2020
Hammersmith and Fulham,Community centres,Lisgar Terrace Community Centre,Community Hall,Samuel Lewis Trust Dwellings,Lisgar Terrace,E09000013,Hammersmith and Fulham,51.494143253471016,-0.20883076685798224,524439.9662889175,178764.92436014337,34162985,E05000252,Avonmore and Brook Green,https://www.shgroup.org.uk/media/233106/lisgar-terrace.pdf,E09000013,12/27/2020
Hammersmith and Fulham,Creative co-working desk space,The Carlyle Group,Uncommon,126 New King's Road,,E09000013,Hammersmith and Fulham,51.4717899913732,-0.20604883657459017,524693.9662224494,176283.92503454426,34107031,E05000264,Town,https://uncommon.co.uk/,E09000013,12/27/2020
Hammersmith and Fulham,Creative co-working desk space,Ugli Campus,Ugli Campus,Ugli Campus,56 Wood Lane,E09000013,Hammersmith and Fulham,51.51111518263762,-0.2238012499487389,523354.9665825,180626.92385204276,34152043,E05000253,College Park and Old Oak,http://ugli.lovelyinside.com,E09000013,12/27/2020
Hammersmith and Fulham,Creative co-working desk space,Huckletree,Huckletree,White City Place,191 Wood Lane,E09000013,Hammersmith and Fulham,51.5133779657065,-0.2278549654969391,523067.5866564025,180871.73378319904,34160930,E05000253,College Park and Old Oak,http://www.huckletree.com/,E09000013,12/27/2020
Hammersmith and Fulham,Dance performance venues,Barons Court Theatre,28a Comeragh Road,,,E09000013,Hammersmith and Fulham,51.48943219347189,-0.20949081488484225,524406.9661756891,178239.9243801625,34128758,E05000258,North End,http://www.offwestend.com/index.php/theatres/view/42,E09000013,12/27/2020
Hammersmith and Fulham,Dance performance venues,Eventim Apollo Hammersmith,45 Queen Caroline Street,,,E09000013,Hammersmith and Fulham,51.490693338648484,-0.22442261589391588,523366.9664584937,178354.9243480144,34030384,E05000256,Hammersmith Broadway,,E09000013,12/27/2020
Hammersmith and Fulham,Dance performance venues,Bhavan Centre,4a Castletown Road,,,E09000013,Hammersmith and Fulham,51.4897635033675,-0.20704343271466347,524575.9661295479,178280.92436947458,34140084,E05000258,North End,http://www.bhavan.net,E09000013,12/27/2020
Hammersmith and Fulham,Dance performance venues,West London School of Dance,25 Bulwer Street,,,E09000013,Hammersmith and Fulham,51.505484972953944,-0.22374653497969876,523373.96645564213,180000.92390029988,34039599,E05000263,Shepherd's Bush Green,https://www.westlondonschoolofdance.co.uk,E09000013,12/27/2020
Hammersmith and Fulham,Dance rehearsal studios,Hammersmith Campus,7 Gliddon Road,,,E09000013,Hammersmith and Fulham,51.49186608745685,-0.21400516858517282,524086.96626289625,178502.9243077393,34141735,E05000252,Avonmore and Brook Green,,E09000013,12/27/2020
Hammersmith and Fulham,Dance rehearsal studios,Dance Attic,368 North End Road,,,E09000013,Hammersmith and Fulham,51.48115894540207,-0.19950293816484524,525122.9659804336,177336.92462638248,34069847,E05000254,Fulham Broadway,https://www.danceattic.com,E09000013,12/27/2020
Hammersmith and Fulham,Dance rehearsal studios,Village Hall Dance Studio,58 Bulwer Street,,,E09000013,Hammersmith and Fulham,51.505742722754725,-0.22413998062796733,523345.9664631684,180028.92389258277,34039610,E05000263,Shepherd's Bush Green,https://www.westlondonschoolofdance.co.uk/studio-hire,E09000013,12/27/2020
Hammersmith and Fulham,Dance rehearsal studios,Karen Hardy Dance studios,10-12 The Boulevard,,,E09000013,Hammersmith and Fulham,51.47343759523636,-0.1816487750206737,526383.9656405736,176508.92484922946,34145839,E05000262,Sands End,http://www.karenhardystudios.com,E09000013,12/27/2020
Hammersmith and Fulham,Dance rehearsal studios,Bhavan Centre,4a Castletown Road,,,E09000013,Hammersmith and Fulham,51.4897635033675,-0.20704343271466347,524575.9661295479,178280.92436947458,34140084,E05000258,North End,http://www.bhavan.net,E09000013,12/27/2020
Hammersmith and Fulham,Dance rehearsal studios,West London School of Dance,25 Bulwer Street,,,E09000013,Hammersmith and Fulham,51.505484972953944,-0.22374653497969876,523373.96645564213,180000.92390029988,34039599,E05000263,Shepherd's Bush Green,https://www.westlondonschoolofdance.co.uk,E09000013,12/27/2020
Hammersmith and Fulham,Fashion and design,Francesca Zagari,32C Aynhoe Road,,,E09000013,Hammersmith and Fulham,51.496295911534396,-0.21731837081751876,523844.9663288974,178989.9241760492,34026245,E05000252,Avonmore and Brook Green,http://www.coroflot.com/francescazagari,E09000013,12/27/2020
Hammersmith and Fulham,Jewellery design,Helia'Z Limited,117a Munster Road,,,E09000013,Hammersmith and Fulham,51.47642870588091,-0.2094814823222482,524442.9662904876,176793.92489667202,34151569,E05000257,Munster,,E09000013,12/27/2020
Hammersmith and Fulham,Jewellery design,Jack Cube Ltd,200 Uxbridge Road,,,E09000013,Hammersmith and Fulham,51.50549244104805,-0.22602297775181246,523215.9666206154,179997.9240228898,34030736,E05000263,Shepherd's Bush Green,,E09000013,12/27/2020
Hammersmith and Fulham,Jewellery design,Lescapricesdemarianne Ltd,102 Adelaide Grove,,,E09000013,Hammersmith and Fulham,51.50970932459451,-0.23731587971345391,522420.96683613927,180447.9239001178,34014321,E05000265,Wormholt and White City,,E09000013,12/27/2020
Hammersmith and Fulham,Jewellery design,Rachel Balfour Limited,2 Findon Road,White City,,E09000013,Hammersmith and Fulham,51.50493560283622,-0.23800452476066136,522385.9668459896,179915.92404436198,34010795,E05000251,Askew,,E09000013,12/27/2020
Hammersmith and Fulham,Jewellery design,Rock and Raw Limited,Huckletree West 191 Wood Lane,,,E09000013,Hammersmith and Fulham,51.513379590647624,-0.2278494256881931,523067.9666612048,180871.92378564825,34160940,E05000253,College Park and Old Oak,,E09000013,12/27/2020
Hammersmith and Fulham,Jewellery design,Tateossian Limited,Suite 3-5,Fulham Business Exchange,,E09000013,Hammersmith and Fulham,51.473606057364684,-0.1820740710938956,526353.9657709843,176526.92496641394,34137686,E05000262,Sands End,http://www.tateossian.com,E09000013,12/27/2020
Hammersmith and Fulham,LGBT+ night time venues,Ted's Place,305a North End Road,Fulham,,E09000013,Hammersmith and Fulham,51.48640268031557,-0.20414000370529242,524786.6952709911,177912.13366997225,,E05000258,North End,http://www.tedsplaceuk.co.uk,E09000013,12/27/2020
Hammersmith and Fulham,Libraries,Hurlingham and Chelsea School and Community Library ,Peterborough Road,,,E09000013,Hammersmith and Fulham,51.46782168220948,-0.1965001992063294,525367.9660397246,175858.92514789983,34063756,E05000262,Sands End,,E09000013,12/27/2020
Hammersmith and Fulham,Libraries,Fulham,Fulham Road,,,E09000013,Hammersmith and Fulham,51.47726891717708,-0.20268018959206402,524912.9661624572,176898.9248684743,34044300,E05000264,Town,,E09000013,12/27/2020
Hammersmith and Fulham,Libraries,Avonmore Library and Neighbourhood Centre,North End Crescent,,,E09000013,Hammersmith and Fulham,51.49257937341141,-0.2071202071093801,524562.9662555805,178593.92440666078,34058302,E05000252,Avonmore and Brook Green,,E09000013,12/27/2020
Hammersmith and Fulham,Libraries,Hammersmith,Shepherd's Bush Road,,,E09000013,Hammersmith and Fulham,51.494584693069335,-0.22366629004776184,523408.9665690265,178788.9243522979,34027231,E05000256,Hammersmith Broadway,,E09000013,12/27/2020
Hammersmith and Fulham,Libraries,Askew Road,Askew Road,,,E09000013,Hammersmith and Fulham,51.50368018316416,-0.24303853013544896,522039.96693990345,179767.9240850634,34011906,E05000251,Askew,,E09000013,12/27/2020
Hammersmith and Fulham,Makerspaces,Imperial College London,The Invention Rooms,68 Wood Lane,White City,E09000013,Hammersmith & Fulham,51.513527825546575,-0.22516299115712804,523253.9664884719,180892.9236580613,34126299,E05000253,College Park and Old Oak,https://www.imperial.ac.uk/white-city-campus/community/the-invention-rooms/,E09000013,12/27/2020
Hammersmith and Fulham,Makerspaces,Light Factory Workshops,Light Factory Workshops,6 Scrubs Lane,,E09000013,Hammersmith & Fulham,51.53189092182494,-0.2383041805111276,522292.96674829285,182912.92310851696,34119028,E05000253,College Park and Old Oak,http://www.lightfactoryworkshops.co.uk,E09000013,12/27/2020
Hammersmith and Fulham,Making and manufacturing,The Art Bronze Foundry,1 & 3 Michael Road Kings Road,,,E09000013,Hammersmith and Fulham,51.47741199445612,-0.1894211343223665,525833.2859200875,176937.51482122595,34066852,E05000260,Parsons Green and Walham,http://www.artbronze.co.uk/index.html,E09000013,12/27/2020
Hammersmith and Fulham,Museums and public galleries,Kelmscott House,26 Upper Mall,Hammersmith,NA,E09000013,Hammersmith and Fulham,51.490581788342375,-0.235504364388356,522597.96678886766,178323.9244799068,34008094,E05000261,Ravenscourt Park,http://www.culture24.org.uk/se000423,E09000013,12/27/2020
Hammersmith and Fulham,Museums and public galleries,Fulham Palace,Fulham Palace,Bishop's Ave,Fulham,E09000013,Hammersmith and Fulham,51.47054466539842,-0.21519770387377254,524061.96639213513,176129.92507687438,34022825,E05000259,Palace Riverside,www.fulhampalace.org/,E09000013,12/27/2020
Hammersmith and Fulham,Music (office based businesses),Eclectic Electric Publishing Ltd,48 Hurlingham Square,Peterborough Road,Hammersmith And Fulham,E09000013,Hammersmith And Fulham,51.46720143016848,-0.19417780501894813,525530.9659953848,175793.92516484304,34064322,E05000262,Sands End,,E09000013,12/27/2020
Hammersmith and Fulham,Music (office based businesses),Sunsick Records Ltd,278 Wandsworth Bridge Road,Hammersmith And Fulham,,E09000013,Hammersmith And Fulham,51.46887164710702,-0.19110265634827062,525739.9659386063,175984.9251132062,34063522,E05000262,Sands End,,E09000013,12/27/2020
Hammersmith and Fulham,Music (office based businesses),Room 609 Records Ltd,94 Broughton Road,Hammersmith And Fulham,,E09000013,Hammersmith And Fulham,51.471333657932675,-0.18864389566927983,525903.9658942049,176262.92503780784,34065404,E05000262,Sands End,,E09000013,12/27/2020
Hammersmith and Fulham,Music (office based businesses),Kassner Associated Publishers Ltd,11 Wyfold Road,Hammersmith And Fulham,,E09000013,Hammersmith And Fulham,51.478565328231326,-0.21219170723096017,524248.96634263545,177026.92483220337,10091844161,E05000257,Munster,www.kassnermusic.com,E09000013,12/27/2020
Hammersmith and Fulham,Music (office based businesses),Focus Music (Publishing) Ltd,20 Fulham Broadway,Hammersmith And Fulham,,E09000013,Hammersmith And Fulham,51.4804819389803,-0.19699485321303345,525298.9660556212,177265.92476686754,34069870,E05000254,Fulham Broadway,www.focusmusic.com,E09000013,12/27/2020
Hammersmith and Fulham,Music (office based businesses),Universal Music Publishing International Ltd,20 Fulham Broadway,Hammersmith And Fulham,,E09000013,Hammersmith And Fulham,51.4804819389803,-0.19699485321303345,525298.9660556212,177265.92476686754,34069870,E05000254,Fulham Broadway,www.bmg.com,E09000013,12/27/2020
Hammersmith and Fulham,Music (office based businesses),Persies Ltd,64 Sherbrooke Road,Hammersmith And Fulham,,E09000013,Hammersmith And Fulham,51.48066693136323,-0.20848029133397866,524500.9662729747,177266.92476687004,34053745,E05000257,Munster,,E09000013,12/27/2020
Hammersmith and Fulham,Music (office based businesses),Riverman Records Ltd,George House Brecon Road,,,E09000013,Hammersmith And Fulham,51.48343050720833,-0.21161267795699348,524275.96633388434,177568.92468393856,0,E05000255,Fulham Reach,www.riverman.co.uk,E09000013,12/27/2020
Hammersmith and Fulham,Music (office based businesses),Creative Artists Agency,3 Shortlands,Hammersmith And Fulham,,E09000013,Hammersmith And Fulham,51.49285302590003,-0.2197720727186901,523683.9664945103,178602.92440166097,10091856203,E05000256,Hammersmith Broadway,www.caatouring.com,E09000013,12/27/2020
Hammersmith and Fulham,Music (office based businesses),Greensleeves Records Ltd,107 Hammersmith Road,Hammersmith And Fulham,,E09000013,Hammersmith And Fulham,51.49457168340819,-0.21215621178825256,524207.96635215107,178806.92434771342,34117003,E05000252,Avonmore And Brook Green,www.greensleeves.net,E09000013,12/27/2020
Hammersmith and Fulham,Music (office based businesses),Pendragon Productions Ltd,43 Overstone Road,Hammersmith And Fulham,,E09000013,Hammersmith And Fulham,51.49622628979751,-0.2281549749760247,523092.9666548774,178963.92430435412,34027197,E05000256,Hammersmith Broadway,www.pendragonproductions.com,E09000013,12/27/2020
Hammersmith and Fulham,Music (office based businesses),Rogues Records Ltd,43 Overstone Road,Hammersmith And Fulham,,E09000013,Hammersmith And Fulham,51.49622628979751,-0.2281549749760247,523092.9666548774,178963.92430435412,34027197,E05000256,Hammersmith Broadway,,E09000013,12/27/2020
Hammersmith and Fulham,Music (office based businesses),Rocket Entertainment,1 Blythe Road Hammersmith W14 0hg,,,E09000013,Hammersmith And Fulham,51.49602785294081,-0.21270428556803903,524165.9663635808,178967.9243042472,0,E05000252,Avonmore And Brook Green,,E09000013,12/27/2020
Hammersmith and Fulham,Music (office based businesses),First Access Entertainment,Grove Studios Adie Road,Hammersmith And Fulham,,E09000013,Hammersmith And Fulham,51.49708298584211,-0.2277183395044784,523120.96664739307,179059.9242781854,34143474,E05000256,Hammersmith Broadway,,E09000013,12/27/2020
Hammersmith and Fulham,Music (office based businesses),Spilt Milk Management Ltd,215 Goldhawk Road,Hammersmith And Fulham,,E09000013,Hammersmith And Fulham,51.50010940226887,-0.2357990258988059,522551.9668018836,179382.92418854788,34009018,E05000261,Ravenscourt Park,www.spiltmilkmusic.co.uk,E09000013,12/27/2020
Hammersmith and Fulham,Music (office based businesses),Godlike & Electric Records Ltd,6 Netherwood Road,Hammersmith And Fulham,,E09000013,Hammersmith And Fulham,51.500081795145306,-0.2214641448525631,523546.9665322794,179403.9241856336,34033006,E05000250,Addison,www.godlikeandelectric.com,E09000013,12/27/2020
Hammersmith and Fulham,Music (office based businesses),Fat Controller Management Ltd,32 Stowe Road,Hammersmith And Fulham,,E09000013,Hammersmith And Fulham,51.50284393057528,-0.23345999735988954,522706.9667594603,179690.9241049193,34008913,E05000251,Askew,,E09000013,12/27/2020
Hammersmith and Fulham,Music (office based businesses),Calculated+ Records Ltd,68 Coningham Road,Hammersmith And Fulham,,E09000013,Hammersmith And Fulham,51.50313012784052,-0.23395323752096558,522671.96676888503,179721.9240963949,34008774,E05000251,Askew,,E09000013,12/27/2020
Hammersmith and Fulham,Music (office based businesses),Lima Limo Records Ltd,2 Jeddo Road,Hammersmith And Fulham,,E09000013,Hammersmith And Fulham,51.50436310425585,-0.2460093932396787,521831.96699641435,179838.92406590463,34000453,E05000251,Askew,,E09000013,12/27/2020
Hammersmith and Fulham,Music (office based businesses),I E Music Ltd,111 Frithville Gardens,Hammersmith And Fulham,,E09000013,Hammersmith And Fulham,51.508890119587036,-0.22770669778633104,523089.96665404225,180372.92391989968,34039375,E05000263,Shepherd's Bush Green,,E09000013,12/27/2020
Hammersmith and Fulham,Music recording studios,Rds Studios Ltd,12 Hetley Road,Hammersmith And Fulham,,E09000013,Hammersmith And Fulham,51.505675506689435,-0.23398446433277695,522662.9667707303,180004.92401944532,34019456,E05000263,Shepherd's Bush Green,,E09000013,12/27/2020
Hammersmith and Fulham,Music rehearsal studios,Rms Rehearsal Studios,Arch 57 Putney Station Approach,,,E09000013,Hammersmith And Fulham,51.469373176986466,-0.20854813768019984,524526.9662670105,176010.92510782048,0,E05000259,Palace Riverside,www.rmsstudios.co.uk,E09000013,12/27/2020
Hammersmith and Fulham,Music rehearsal studios,Bush Studios,151 Railway Arches,Macfarlane Road,Hammersmith And Fulham,E09000013,Hammersmith And Fulham,51.50744312874672,-0.22597599436209292,523213.9666207314,180214.923963196,34156724,E05000263,Shepherd's Bush Green,www.bushstudios.co.uk,E09000013,12/27/2020
Hammersmith and Fulham,Music venues (all),Under the Bridge,Fulham Road,,,,,51.482013407952564,-0.18998411058717557,525781.5533077489,177448.23708703718,,,,www.underthebridge.co.uk,E09000013,12/27/2020
Hammersmith and Fulham,Music venues (all),The White Horse,42795 Parsons Green,Hammersmith And Fulham,,E09000013,Hammersmith And Fulham,51.47449486934361,-0.20005315845779184,525102.9661122946,176594.92495019257,34069416,E05000260,Parsons Green And Walham,www.whitehorsesw6.com,E09000013,12/27/2020
Hammersmith and Fulham,Music venues (all),Broadway House,474-476 Fulham Road,Hammersmith And Fulham,,E09000013,Hammersmith And Fulham,51.48015556766705,-0.1956539499634482,525392.966030457,177231.92477588158,34069886,E05000254,Fulham Broadway,,E09000013,12/27/2020
Hammersmith and Fulham,Music venues (all),Under The Bridge,Stanford Bridge Fulham Road,Fulham,London,E09000013,Hammersmith And Fulham,51.48166546030265,-0.1909280789741254,525716.9659421326,177407.92472691124,0,E05000260,Parsons Green And Walham,www.underthebridge.co.uk,E09000013,12/27/2020
Hammersmith and Fulham,Music venues (all),Distillers,64 Fulham Palace Road,Hammersmith And Fulham,,E09000013,Hammersmith And Fulham,51.48935410622951,-0.22327907150779766,523449.9665586195,178207.92450940493,34030273,E05000256,Hammersmith Broadway,www.distillershammersmith.co.uk,E09000013,12/27/2020
Hammersmith and Fulham,Music venues (all),The Hammersmith Club,11 Rutland Grove,Hammersmith And Fulham,,E09000013,Hammersmith And Fulham,51.48975493636872,-0.23016334055133336,522970.96668820357,178240.9245013176,34149712,E05000256,Hammersmith Broadway,,E09000013,12/27/2020
Hammersmith and Fulham,Music venues (all),Eventim Apollo,Queen Caroline Street Hammersmith And Fulham,,,E09000013,Hammersmith And Fulham,51.49069333971465,-0.22442261409223874,523366.9665806902,178354.9244696073,34030384,E05000256,Hammersmith Broadway,www.eventimapollo.com,E09000013,12/27/2020
Hammersmith and Fulham,Music venues (all),Hammersmith Ram,81 King Street,Hammersmith And Fulham,,E09000013,Hammersmith And Fulham,51.49230845228841,-0.22835017675797917,523089.96665522445,178527.924423373,34029868,E05000256,Hammersmith Broadway,www.thehammersmithram.co.uk,E09000013,12/27/2020
Hammersmith and Fulham,Music venues (all),Nell's Jazz & Blues,3 North End Crescent,Hammersmith And Fulham,,E09000013,Hammersmith And Fulham,51.49223961795832,-0.20724878795659293,524554.966257881,178555.92441639403,34151679,E05000252,Avonmore And Brook Green,www.nellsjazzandblues.com,E09000013,12/27/2020
Hammersmith and Fulham,Music venues (all),Albion,121 Hammersmith Road,Hammersmith And Fulham,,E09000013,Hammersmith And Fulham,51.494318951811486,-0.2126847271393783,524171.96636195533,178777.9243554332,34056955,E05000252,Avonmore And Brook Green,www.thealbionpub.com,E09000013,12/27/2020
Hammersmith and Fulham,Music venues (all),Crown & Sceptre,57 Melina Road,Hammersmith And Fulham,,E09000013,Hammersmith And Fulham,51.50341859885055,-0.2363916173984222,522501.96681488364,179749.92408877122,34010558,E05000251,Askew,www.crownandsceptreshepherdsbush.co.uk,E09000013,12/27/2020
Hammersmith and Fulham,Music venues (all),O2 Shepherd's Bush Empire,Shepherds Bush Green Hammersmith And Fulham,,,E09000013,Hammersmith And Fulham,51.50342769767966,-0.22447498111986014,523328.96659061324,179770.924084695,34030760,E05000263,Shepherd's Bush Green,www.academymusicgroup.com/o2shepherdsbushempire,E09000013,12/27/2020
Hammersmith and Fulham,Music venues (all),Belushi's Shepherd's Bush,13-15 Shepherds Bush Green,Hammersmith And Fulham,,E09000013,Hammersmith And Fulham,51.50409576788128,-0.2181233275291079,523767.96647132834,179855.92406253744,34032634,E05000250,Addison,,E09000013,12/27/2020
Hammersmith and Fulham,Music venues (all),The Bush Theatre,7 Uxbridge Road,Hammersmith And Fulham,,E09000013,Hammersmith And Fulham,51.505041549709794,-0.22593963124688368,523222.96661893267,179947.92403616133,34032421,E05000263,Shepherd's Bush Green,www.bushtheatre.co.uk,E09000013,12/27/2020
Hammersmith and Fulham,Music venues (all),Bush Hall,Bush Hall 310,Uxbridge Road,Hammersmith And Fulham,E09000013,Hammersmith And Fulham,51.506494814580016,-0.23166157751291352,522821.96672738215,180099.92399390507,34016974,E05000263,Shepherd's Bush Green,www.bushhallmusic.co.uk,E09000013,12/27/2020
Hammersmith and Fulham,Music venues (grassroots),Under the Bridge,Fulham Road,,,,,51.482013407952564,-0.18998411058717557,525781.5533077489,177448.23708703718,,,,www.underthebridge.co.uk,E09000013,12/27/2020
Hammersmith and Fulham,Music venues (grassroots),Nell's Jazz & Blues,3 North End Crescent,Hammersmith And Fulham,,E09000013,Hammersmith And Fulham,51.49223961795832,-0.20724878795659293,524554.966257881,178555.92441639403,34151679,E05000252,Avonmore And Brook Green,www.nellsjazzandblues.com,E09000013,12/27/2020
Hammersmith and Fulham,Prop and costume making,Beat about the Bush,Unit 23  Enterprise Way,,,E09000013,Hammersmith and Fulham,51.52896729804458,-0.2418340022496176,522055.96693610714,182581.92332067888,34021541,E05000253,College Park and Old Oak,https://www.beataboutthebush.com,E09000013,12/27/2020
Hammersmith and Fulham,Prop and costume making,Maggie Cooke Limited,77 Jeddo Road,,,E09000013,Hammersmith and Fulham,51.50400519560655,-0.25034590685260977,521531.9670776033,179791.92407951737,34000432,E05000251,Askew,http://www.maggiecooke.com,E09000013,12/27/2020
Hammersmith and Fulham,Pubs,McGettigan's,1 The Broadway,Fulham,London,E09000013,Hammersmith and Fulham,51.48004280958558,-0.19650809816838585,525333.966046373,177217.92478038254,,E05000264,Town,,E09000013,12/27/2020
Hammersmith and Fulham,Pubs,Oyster Rooms,"Unit 3, First Floor, Fulham Broadway Shopping Centre",Fulham,London,E09000013,Hammersmith and Fulham,51.48004280958558,-0.19650809816838585,525333.966046373,177217.92478038254,,E05000264,Town,,E09000013,12/27/2020
Hammersmith and Fulham,Pubs,Whole Foods Market,2-6 Fulham Broadway,Fulham,,E09000013,Hammersmith and Fulham,51.48004280958558,-0.19650809816838585,525333.966046373,177217.92478038254,,E05000264,Town,,E09000013,12/27/2020
Hammersmith and Fulham,Pubs,Malt House,17 Vanston Place,Fulham,London,E09000013,Hammersmith and Fulham,51.481606605139675,-0.19820352262880234,525211.9660782041,177388.9247340258,,E05000254,Fulham Broadway,,E09000013,12/27/2020
Hammersmith and Fulham,Pubs,Market Hall Fulham,Fulham Broadway,Fulham,,E09000013,Hammersmith and Fulham,51.48059429363832,-0.19494535693365342,525440.9660171152,177281.92476259556,,E05000254,Fulham Broadway,,E09000013,12/27/2020
Hammersmith and Fulham,Pubs,Maddisons,474-476 Fulham Road,Fulham,London,E09000013,Hammersmith and Fulham,51.48059429363832,-0.19494535693365342,525440.9660171152,177281.92476259556,,E05000254,Fulham Broadway,,E09000013,12/27/2020
Hammersmith and Fulham,Pubs,Kona Kai,515 Fulham Road,Fulham,London,E09000013,Hammersmith and Fulham,51.480120674374575,-0.1928037802979977,525590.965976899,177232.92477553856,,E05000260,Parsons Green and Walham,,E09000013,12/27/2020
Hammersmith and Fulham,Pubs,Butcher's Hook,477 Fulham Road,Fulham,London,E09000013,Hammersmith and Fulham,51.48030115498771,-0.18876414504295091,525870.9659011796,177259.92476735747,,E05000260,Parsons Green and Walham,,E09000013,12/27/2020
Hammersmith and Fulham,Pubs,Frankie's Sports Bar & Diner,Stamford Bridge,Fulham,London,E09000013,Hammersmith and Fulham,51.481124783143855,-0.19027256080650248,525763.965929648,177348.92474338372,,E05000260,Parsons Green and Walham,,E09000013,12/27/2020
Hammersmith and Fulham,Pubs,Simmons,374 North End Road,Fulham,,E09000013,Hammersmith and Fulham,51.48125647948551,-0.19941268542654375,525128.9661008419,177347.92474546167,,E05000254,Fulham Broadway,,E09000013,12/27/2020
Hammersmith and Fulham,Pubs,Cock Tavern,360 North End Road,Fulham,London,E09000013,Hammersmith and Fulham,51.48125647948551,-0.19941268542654375,525128.9661008419,177347.92474546167,,E05000254,Fulham Broadway,,E09000013,12/27/2020
Hammersmith and Fulham,Pubs,Goose,248 North End Road,Fulham,London,E09000013,Hammersmith and Fulham,51.4851910540755,-0.20265695695855288,524892.9661634245,177779.92462809122,,E05000254,Fulham Broadway,,E09000013,12/27/2020
Hammersmith and Fulham,Pubs,Harwood Arms,Walham Grove,Fulham,London,E09000013,Hammersmith and Fulham,51.48242811619229,-0.19782550882090655,525235.9660711519,177480.9247088302,,E05000254,Fulham Broadway,,E09000013,12/27/2020
Hammersmith and Fulham,Pubs,Atlas,16 Seagrave Road,Fulham,London,E09000013,Hammersmith and Fulham,51.486224873989286,-0.19619227358041325,525338.9660429759,177905.9245929693,,E05000254,Fulham Broadway,,E09000013,12/27/2020
Hammersmith and Fulham,Pubs,Prince,14 Lillie Road,Fulham,London,E09000013,Hammersmith and Fulham,51.48709312949107,-0.19768482231524054,525232.966071829,177999.92456780316,,E05000258,North End,,E09000013,12/27/2020
Hammersmith and Fulham,Pubs,George & Dragon,47 Lillie Road,Fulham,,E09000013,Hammersmith and Fulham,51.485504886267904,-0.20201086530763226,524936.9661514043,177815.92461841978,,E05000254,Fulham Broadway,,E09000013,12/27/2020
Hammersmith and Fulham,Pubs,Lillie Langtry,19 Lillie Road,Fulham,London,E09000013,Hammersmith and Fulham,51.48626572531455,-0.1982647895374533,525194.9660818718,177906.92459313583,,E05000254,Fulham Broadway,,E09000013,12/27/2020
Hammersmith and Fulham,Pubs,Rose,1 Harwood Terrace,Fulham,London,E09000013,Hammersmith and Fulham,51.4767117668211,-0.18984226756753106,525805.9659205588,176858.92487695283,,E05000260,Parsons Green and Walham,,E09000013,12/27/2020
Hammersmith and Fulham,Pubs,Queen Elizabeth,58 Bagley Lane,Fulham,London,E09000013,Hammersmith and Fulham,51.47454517853484,-0.18871837138737121,525889.965898243,176619.92494167306,,E05000260,Parsons Green and Walham,,E09000013,12/27/2020
Hammersmith and Fulham,Pubs,Tommy Tucker,22 Waterford Road,Fulham,London,E09000013,Hammersmith and Fulham,51.478169471808705,-0.19223279481330033,525635.9659658548,177016.9248343595,,E05000260,Parsons Green and Walham,,E09000013,12/27/2020
Hammersmith and Fulham,Pubs,Chelsea Lodge,562 Kings Road,Fulham,London,E09000013,Hammersmith and Fulham,51.47949904175707,-0.1874853552552076,525961.9658769651,177172.92479082127,,E05000260,Parsons Green and Walham,,E09000013,12/27/2020
Hammersmith and Fulham,Pubs,Jam Tree,541 Kings Road,Fulham,London,E09000013,Hammersmith and Fulham,51.47897890214634,-0.18757796649624708,525956.9658785518,177114.9248066559,,E05000260,Parsons Green and Walham,,E09000013,12/27/2020
Hammersmith and Fulham,Pubs,Imperial Arms,577 Kings Road,Fulham,London,E09000013,Hammersmith and Fulham,51.47845457443653,-0.18856361797422308,525889.9658969276,177054.9248232232,,E05000260,Parsons Green and Walham,,E09000013,12/27/2020
Hammersmith and Fulham,Pubs,Sands End,135-137 Stephendale Road,Fulham,London,E09000013,Hammersmith and Fulham,51.47237012753088,-0.18704773972316616,526011.9658648357,176380.92500613688,,E05000262,Sands End,,E09000013,12/27/2020
Hammersmith and Fulham,Pubs,Waterside Inn,"The Boulevard, Imperial Wharf",Fulham,London,E09000013,Hammersmith and Fulham,51.473239494024206,-0.18105186124569142,526425.9657510447,176487.92497706704,,E05000262,Sands End,,E09000013,12/27/2020
Hammersmith and Fulham,Pubs,Callow Ruscoe,152 Wandsworth Bridge Road,Fulham,,E09000013,Hammersmith and Fulham,51.471624050707526,-0.1917282146194437,525688.9659526316,176289.92503138894,,E05000262,Sands End,,E09000013,12/27/2020
Hammersmith and Fulham,Pubs,Joe's Brasserie,130 Wandsworth Bridge Rd,Fulham,London,E09000013,Hammersmith and Fulham,51.47245242365402,-0.19179627580905526,525681.9659546076,176381.92500655615,,E05000260,Parsons Green and Walham,,E09000013,12/27/2020
Hammersmith and Fulham,Pubs,Golden Lion,57 Fulham High Street,Fulham,London,E09000013,Hammersmith and Fulham,51.470034780789774,-0.21006288615749702,524419.9662957909,176081.92508934747,,E05000264,Town,,E09000013,12/27/2020
Hammersmith and Fulham,Pubs,Eight Bells,89 Fulham High Street,Fulham,London,E09000013,Hammersmith and Fulham,51.46804769932935,-0.2100830316416831,524423.966294243,175860.92514906055,,E05000259,Palace Riverside,,E09000013,12/27/2020
Hammersmith and Fulham,Pubs,Temperance,90 Fulham High Street,Fulham,London,E09000013,Hammersmith and Fulham,51.46985614445731,-0.21073220974535842,524373.966308103,176060.92509510007,,E05000259,Palace Riverside,,E09000013,12/27/2020
Hammersmith and Fulham,Pubs,King's Head,4 Fulham High Street,Fulham,London,E09000013,Hammersmith and Fulham,51.47090548019495,-0.21113753595748402,524342.9663167016,176176.92506377056,,E05000259,Palace Riverside,,E09000013,12/27/2020
Hammersmith and Fulham,Pubs,Amuse Bouche,51 Parsons Green Lane,Fulham,London,E09000013,Hammersmith and Fulham,51.47488949237474,-0.2005704361047857,525065.9661222749,176637.92493928142,,E05000260,Parsons Green and Walham,,E09000013,12/27/2020
Hammersmith and Fulham,Pubs,Boma Green (Bar & Restaurant),271 New Kings Rd,Fulham,London,E09000013,Hammersmith and Fulham,51.47222458852514,-0.20212957834393963,524964.9661495282,176338.92501957488,,E05000260,Parsons Green and Walham,,E09000013,12/27/2020
Hammersmith and Fulham,Pubs,King's Arms,425 New Kings Road,Fulham,London,E09000013,Hammersmith and Fulham,51.46917725046902,-0.20985166277591355,524436.966291024,175986.92511498474,,E05000259,Palace Riverside,,E09000013,12/27/2020
Hammersmith and Fulham,Pubs,Pilango Cider,"Railway Arch 10, Munster Road",Fulham,,E09000013,Hammersmith and Fulham,51.473312291363825,-0.20503876389819428,524759.9662048717,176454.92498853186,,E05000264,Town,,E09000013,12/27/2020
Hammersmith and Fulham,Pubs,White Horse,1-3 Parsons Green,Fulham,London,E09000013,Hammersmith and Fulham,51.47377029588922,-0.19913128095955482,525168.9660942177,176515.92497170728,,E05000260,Parsons Green and Walham,,E09000013,12/27/2020
Hammersmith and Fulham,Pubs,Duke On The Green,235 New Kings Road,Fulham,London,E09000013,Hammersmith and Fulham,51.47255929675561,-0.19991331643484353,525117.9661080284,176379.92500831606,,E05000260,Parsons Green and Walham,,E09000013,12/27/2020
Hammersmith and Fulham,Pubs,Fulham Wine Rooms,871-873 Fulham Road,Fulham,London,E09000013,Hammersmith and Fulham,51.47400640400015,-0.20691231194991086,524627.9662405825,176528.92496862338,,E05000264,Town,,E09000013,12/27/2020
Hammersmith and Fulham,Pubs,Slug @ Fulham,490 Fulham Road,Fulham,London,E09000013,Hammersmith and Fulham,51.480280484529345,-0.1985149800672936,525193.9660840192,177240.92477450514,,E05000264,Town,,E09000013,12/27/2020
Hammersmith and Fulham,Pubs,Brown Cow,676 Fulham Rd,Fulham,London,E09000013,Hammersmith and Fulham,51.47470609433088,-0.20679848527426384,524633.9662390754,176606.9249476231,,E05000264,Town,,E09000013,12/27/2020
Hammersmith and Fulham,Pubs,Octoberfest Pub,678-680 Fulham Road,Fulham,London,E09000013,Hammersmith and Fulham,51.47470609433088,-0.20679848527426384,524633.9662390754,176606.9249476231,,E05000264,Town,,E09000013,12/27/2020
Hammersmith and Fulham,Pubs,Durell Arms,704 Fulham Road,Fulham,London,E09000013,Hammersmith and Fulham,51.47387690179769,-0.2078533767755565,524562.9662581017,176512.9249729216,,E05000264,Town,,E09000013,12/27/2020
Hammersmith and Fulham,Pubs,Mitre,81 Dawes Road,Fulham,London,E09000013,Hammersmith and Fulham,51.48021528193557,-0.20364457879033765,524837.9661807698,177224.92477930314,,E05000254,Fulham Broadway,,E09000013,12/27/2020
Hammersmith and Fulham,Pubs,Wellington,56 Haldane Road,Fulham,London,E09000013,Hammersmith and Fulham,51.48275502114127,-0.20213339957222565,524935.9661519283,177509.92470156832,,E05000254,Fulham Broadway,,E09000013,12/27/2020
Hammersmith and Fulham,Pubs,Rylston,197 Lillie Road,Fulham,London,E09000013,Hammersmith and Fulham,51.48368639606733,-0.20775711485278275,524542.9662598728,177603.9246752814,,E05000254,Fulham Broadway,,E09000013,12/27/2020
Hammersmith and Fulham,Pubs,Captain Cook,205 Dawes Road,Fulham,London,E09000013,Hammersmith and Fulham,51.481068767942915,-0.20947269715683886,524430.9662919154,177309.92475552135,,E05000257,Munster,,E09000013,12/27/2020
Hammersmith and Fulham,Pubs,Bedford Arms,204 Dawes Rd,Fulham,London,E09000013,Hammersmith and Fulham,51.4812557424311,-0.20935016201466655,524438.9662896418,177330.92474978918,,E05000254,Fulham Broadway,,E09000013,12/27/2020
Hammersmith and Fulham,Pubs,Pavilion,"Pavilion Parade, Wood Lane",Shepherds Bush,London,E09000013,Hammersmith and Fulham,51.51857492495646,-0.22769089165480516,523064.9666630175,181449.92362945236,,E05000253,College Park and Old Oak,,E09000013,12/27/2020
Hammersmith and Fulham,Pubs,Queen Adelaide,412 Uxbridge Road,Shepherds Bush,London,E09000013,Hammersmith and Fulham,51.50659762186409,-0.23789715018795787,522388.96684493497,180100.92399420036,,E05000265,Wormholt and White City,,E09000013,12/27/2020
Hammersmith and Fulham,Pubs,Pocket Watch,434 Uxbridge Road,Shepherds Bush,London,E09000013,Hammersmith and Fulham,51.50663354105356,-0.2390917996244588,522305.96686751983,180102.92399388744,,E05000265,Wormholt and White City,,E09000013,12/27/2020
Hammersmith and Fulham,Pubs,All Star Lanes,"Westfield Shopping Centre, Ariel Way",Shepherds Bush,,E09000013,Hammersmith and Fulham,51.51039170291583,-0.2223450436267331,523457.96655433084,180548.92387320072,,E05000263,Shepherd's Bush Green,,E09000013,12/27/2020
Hammersmith and Fulham,Pubs,Real Greek,"Southern Terrace, Westfield Shopping Centre",Shepherds Bush,,E09000013,Hammersmith and Fulham,51.50756932389804,-0.22124448574677666,523541.9665315546,180236.923958086,,E05000263,Shepherd's Bush Green,,E09000013,12/27/2020
Hammersmith and Fulham,Pubs,Caffe Concerto,"Unit K2004, The Balcony, Westfield Shopping Centre",Shepherds Bush,,E09000013,Hammersmith and Fulham,51.50805534925154,-0.22364651685200818,523373.9665770279,180286.92394414794,,E05000263,Shepherd's Bush Green,,E09000013,12/27/2020
Hammersmith and Fulham,Pubs,Puttshack,"Westfield London, Ariel Way",Shepherds Bush,,E09000013,Hammersmith and Fulham,51.510103055678925,-0.22169337116284224,523503.9665417665,180517.92388161615,,E05000263,Shepherd's Bush Green,,E09000013,12/27/2020
Hammersmith and Fulham,Pubs,Ichiba,"Unit 0220, Relay Square, Westfield London",Shepherds Bush,,E09000013,Hammersmith and Fulham,51.510103055678925,-0.22169337116284224,523503.9665417665,180517.92388161615,,E05000263,Shepherd's Bush Green,,E09000013,12/27/2020
Hammersmith and Fulham,Pubs,Maple,Westfield Square,Shepherds Bush,,E09000013,Hammersmith and Fulham,51.510103055678925,-0.22169337116284224,523503.9665417665,180517.92388161615,,E05000263,Shepherd's Bush Green,,E09000013,12/27/2020
Hammersmith and Fulham,Pubs,Green,172-174 Uxbridge Road,Shepherds Bush,London,E09000013,Hammersmith and Fulham,51.50545763833666,-0.2255055807968494,523251.9666108558,179994.9240237844,,E05000263,Shepherd's Bush Green,,E09000013,12/27/2020
Hammersmith and Fulham,Pubs,Queens Tavern,121 South Africa Road,Shepherds Bush,London,E09000013,Hammersmith and Fulham,51.51023168752567,-0.23079624963992273,522871.9667135829,180516.92388122104,,E05000263,Shepherd's Bush Green,,E09000013,12/27/2020
Hammersmith and Fulham,Pubs,Bull,"Unit 1033, Southern Terrace, Westfield Shopping Centre",Shepherds Bush,London,E09000013,Hammersmith and Fulham,51.509555094628425,-0.22410694808668324,523337.9665867554,180452.92389898165,,E05000263,Shepherd's Bush Green,,E09000013,12/27/2020
Hammersmith and Fulham,Pubs,Feast Bar & Kitchen,201 Wood Lane,Shepherds Bush,London,E09000013,Hammersmith and Fulham,51.513379590647624,-0.2278494256881931,523067.9666612048,180871.92378564825,,E05000253,College Park and Old Oak,,E09000013,12/27/2020
Hammersmith and Fulham,Pubs,W12 Studios,195 Wood Lane,Shepherds Bush,,E09000013,Hammersmith and Fulham,51.513379590647624,-0.2278494256881931,523067.9666612048,180871.92378564825,,E05000253,College Park and Old Oak,,E09000013,12/27/2020
Hammersmith and Fulham,Pubs,Defector's Weld,170 Uxbridge Road,Shepherds Bush,London,E09000013,Hammersmith and Fulham,51.505070512441606,-0.2230998180994096,523419.9665653759,179955.92403481342,,E05000263,Shepherd's Bush Green,,E09000013,12/27/2020
Hammersmith and Fulham,Pubs,Oak,243 Goldhawk Road,Shepherds Bush,London,E09000013,Hammersmith and Fulham,51.49907193046186,-0.2409682336917435,522195.9668977782,179258.92422325606,,E05000261,Ravenscourt Park,,E09000013,12/27/2020
Hammersmith and Fulham,Pubs,Shepherd & Flock,84 Goldhawk Road,Shepherds Bush,London,E09000013,Hammersmith and Fulham,51.50233703847153,-0.22787462390691635,523095.9666539976,179643.92411923956,,E05000263,Shepherd's Bush Green,,E09000013,12/27/2020
Hammersmith and Fulham,Pubs,Loading,174 Goldhawk Road,Shepherds Bush,London,E09000013,Hammersmith and Fulham,51.50139380449954,-0.23270922999964397,522762.96674452384,179530.9241490026,,E05000251,Askew,,E09000013,12/27/2020
Hammersmith and Fulham,Pubs,White Horse,31 Uxbridge Road,Shepherds Bush,London,E09000013,Hammersmith and Fulham,51.505569873484774,-0.2275762204919581,523107.96664990205,180003.92402102472,,E05000263,Shepherd's Bush Green,,E09000013,12/27/2020
Hammersmith and Fulham,Pubs,Bush Theatre Library Bar,7 Uxbridge Rd,Shepherds Bush,London,E09000013,Hammersmith and Fulham,51.50502515702163,-0.2254503430222903,523256.96660961455,179946.92403691425,,E05000263,Shepherd's Bush Green,,E09000013,12/27/2020
Hammersmith and Fulham,Pubs,Belushi's,15 Shepherds Bush Green,Shepherds Bush,London,E09000013,Hammersmith and Fulham,51.50387431945114,-0.21952966375527763,523670.9664976224,179828.924070212,,E05000250,Addison,,E09000013,12/27/2020
Hammersmith and Fulham,Pubs,Central Bar,"West 12 Centre, Shepherds Bush Green",Shepherds Bush,London,E09000013,Hammersmith and Fulham,51.50387431945114,-0.21952966375527763,523670.9664976224,179828.924070212,,E05000250,Addison,,E09000013,12/27/2020
Hammersmith and Fulham,Pubs,Sindercombe Social,2 Goldhawk Road,Shepherds Bush,London,E09000013,Hammersmith and Fulham,51.503250399062615,-0.2240496060068151,523358.96658242785,179751.92409047973,,E05000263,Shepherd's Bush Green,,E09000013,12/27/2020
Hammersmith and Fulham,Pubs,BrewDog,15-19 Goldhawk Road,Shepherds Bush,London,E09000013,Hammersmith and Fulham,51.50271660844932,-0.22443059012657646,523333.9665893556,179691.92410681932,,E05000263,Shepherd's Bush Green,,E09000013,12/27/2020
Hammersmith and Fulham,Pubs,Eagle,215 Askew Road,Shepherds Bush,London,E09000013,Hammersmith and Fulham,51.500858314714016,-0.23955945665776135,522288.9668727117,179459.9241680224,,E05000251,Askew,,E09000013,12/27/2020
Hammersmith and Fulham,Pubs,Orchard Tavern,136 Askew Road,Shepherds Bush,London,E09000013,Hammersmith and Fulham,51.50185286246292,-0.24231637077781196,522094.9669250308,179565.9241395293,,E05000261,Ravenscourt Park,,E09000013,12/27/2020
Hammersmith and Fulham,Pubs,Princess Victoria,217 Uxbridge Road,Shepherds Bush,London,E09000013,Hammersmith and Fulham,51.506308872082066,-0.24022829945995952,522227.9668887729,180064.92400438682,,E05000251,Askew,,E09000013,12/27/2020
Hammersmith and Fulham,Pubs,Askew Pub & Kitchen,269 Uxbridge Road,Shepherds Bush,London,E09000013,Hammersmith and Fulham,51.50656376898576,-0.2440371353647604,521962.96696086595,180086.92399916035,,E05000251,Askew,,E09000013,12/27/2020
Hammersmith and Fulham,Pubs,Crown & Sceptre,57 Melina Road,Shepherds Bush,London,E09000013,Hammersmith and Fulham,51.50313630988785,-0.23615756866750107,522518.96681023703,179718.9240975632,,E05000251,Askew,,E09000013,12/27/2020
Hammersmith and Fulham,Pubs,Coningham Arms,191 Uxbridge Road,Shepherds Bush,London,E09000013,Hammersmith and Fulham,51.506296375546185,-0.23819697658355385,522368.9668504209,180066.9240034719,,E05000251,Askew,,E09000013,12/27/2020
Hammersmith and Fulham,Pubs,Beaconsfield,24 Blythe Road,West Kensington,London,E09000013,Hammersmith and Fulham,51.4971668326424,-0.21309191905456032,524135.9663716615,179093.92427075875,,E05000252,Avonmore and Brook Green,,E09000013,12/27/2020
Hammersmith and Fulham,Pubs,Jameson,43 Blythe Road,West Kensington,London,E09000013,Hammersmith and Fulham,51.49711531369159,-0.21620585410921508,523919.9664305884,179082.92427330674,,E05000252,Avonmore and Brook Green,,E09000013,12/27/2020
Hammersmith and Fulham,Pubs,Bird in Hand,88 Masbro Road,West Kensington,London,E09000013,Hammersmith and Fulham,51.49993053598327,-0.215649230364546,523950.96642223943,179396.92418892798,,E05000250,Addison,,E09000013,12/27/2020
Hammersmith and Fulham,Pubs,Havelock Tavern,57 Masbro Road,West Kensington,London,E09000013,Hammersmith and Fulham,51.49953903768383,-0.21592386963858226,523932.966427146,179352.92420073517,,E05000250,Addison,,E09000013,12/27/2020
Hammersmith and Fulham,Pubs,Albion,121 Hammersmith Road,West Kensington,London,E09000013,Hammersmith and Fulham,51.49399388497625,-0.21377790268863042,524096.96638226934,178739.92436597677,,E05000252,Avonmore and Brook Green,,E09000013,12/27/2020
Hammersmith and Fulham,Pubs,Cumberland Arms,29 North End Road,West Kensington,London,E09000013,Hammersmith and Fulham,51.49411348440232,-0.20982595518050082,524370.9663076985,178759.9243613105,,E05000252,Avonmore and Brook Green,,E09000013,12/27/2020
Hammersmith and Fulham,Pubs,Hand & Flower,1 Hammersmith Road,West Kensington,London,E09000013,Hammersmith and Fulham,51.495827142160465,-0.20839015027467936,524465.9662817238,178952.92430946167,,E05000252,Avonmore and Brook Green,,E09000013,12/27/2020
Hammersmith and Fulham,Pubs,Curtains Up,28a Comeragh Road,West Kensington,London,E09000013,Hammersmith and Fulham,51.48948518540609,-0.2082499368824267,524492.9662742867,178247.92450031318,,E05000258,North End,,E09000013,12/27/2020
Hammersmith and Fulham,Pubs,Famous 3 Kings,173 North End Road,West Kensington,London,E09000013,Hammersmith and Fulham,51.490029121242515,-0.20618312468381028,524634.9662355877,178311.92448332155,,E05000258,North End,,E09000013,12/27/2020
Hammersmith and Fulham,Pubs,Elm,206 North End Road,West Kensington,London,E09000013,Hammersmith and Fulham,51.4868585978659,-0.20349882150799936,524829.9661813297,177963.92457812704,,E05000258,North End,,E09000013,12/27/2020
Hammersmith and Fulham,Pubs,Old Oak,180 North End Road,West Kensington,London,E09000013,Hammersmith and Fulham,51.4868585978659,-0.20349882150799936,524829.9661813297,177963.92457812704,,E05000258,North End,,E09000013,12/27/2020
Hammersmith and Fulham,Pubs,Clarence,148 North End Road,West Kensington,London,E09000013,Hammersmith and Fulham,51.48860270835696,-0.20523080849556025,524704.966216119,178154.92452607816,,E05000258,North End,,E09000013,12/27/2020
Hammersmith and Fulham,Pubs,Colton Arms,187 Greyhound Road,West Kensington,London,E09000013,Hammersmith and Fulham,51.486642009037794,-0.2105075653811654,524343.9663149185,177927.9245868884,,E05000258,North End,,E09000013,12/27/2020
Hammersmith and Fulham,Pubs,Andover Arms,57 Aldensley Road,Hammersmith,London,E09000013,Hammersmith and Fulham,51.49682669927619,-0.23278512383764444,522769.9667423431,179022.92428837105,,E05000261,Ravenscourt Park,,E09000013,12/27/2020
Hammersmith and Fulham,Pubs,Swan,46 Hammersmith Broadway,Hammersmith,London,E09000013,Hammersmith and Fulham,51.493095087485756,-0.22506396151275823,523315.96659404726,178620.9243979911,,E05000256,Hammersmith Broadway,,E09000013,12/27/2020
Hammersmith and Fulham,Pubs,Thatched House,115 Dalling Road,Hammersmith,London,E09000013,Hammersmith and Fulham,51.49785573308058,-0.2348343570722457,522624.9667817662,179133.92425762105,,E05000261,Ravenscourt Park,,E09000013,12/27/2020
Hammersmith and Fulham,Pubs,Rook's Nest,73 Dalling Road,Hammersmith,London,E09000013,Hammersmith and Fulham,51.49395455630868,-0.23494191067230175,522627.9667804015,178699.924377334,,E05000261,Ravenscourt Park,,E09000013,12/27/2020
Hammersmith and Fulham,Pubs,Stonemasons Arms,54 Cambridge Grove,Hammersmith,London,E09000013,Hammersmith and Fulham,51.49353028832511,-0.230060302413618,522967.9666882989,178660.92438763665,,E05000256,Hammersmith Broadway,,E09000013,12/27/2020
Hammersmith and Fulham,Pubs,Dartmouth Castle,26 Glenthorne Road,Hammersmith,London,E09000013,Hammersmith and Fulham,51.4946144360127,-0.2286064766842631,523065.966661901,178783.9243538989,,E05000256,Hammersmith Broadway,,E09000013,12/27/2020
Hammersmith and Fulham,Pubs,Grove,83 Hammersmith Grove,Hammersmith,London,E09000013,Hammersmith and Fulham,51.49768426845666,-0.22763737535967715,523124.96664628305,179126.92426032329,,E05000256,Hammersmith Broadway,,E09000013,12/27/2020
Hammersmith and Fulham,Pubs,William Morris,"Swan Island, 2-4 King Street",Hammersmith,London,E09000013,Hammersmith and Fulham,51.49302051832449,-0.22548462592556426,523286.96660188824,178611.92440048954,,E05000256,Hammersmith Broadway,,E09000013,12/27/2020
Hammersmith and Fulham,Pubs,Lyric Hammersmith Bar & Grill,"Lyric Theatre, Lyric Square, King Street",Hammersmith,London,E09000013,Hammersmith and Fulham,51.49324840896767,-0.22628249744298848,523230.9666170719,178635.9243940584,,E05000256,Hammersmith Broadway,,E09000013,12/27/2020
Hammersmith and Fulham,Pubs,Salutation,154 King Street,Hammersmith,London,E09000013,Hammersmith and Fulham,51.49291827276051,-0.2330083756185976,522764.9667431696,178587.92440799496,,E05000256,Hammersmith Broadway,,E09000013,12/27/2020
Hammersmith and Fulham,Pubs,Plough & Harrow,120-124 King Street,Hammersmith,London,E09000013,Hammersmith and Fulham,51.49291827276051,-0.2330083756185976,522764.9667431696,178587.92440799496,,E05000256,Hammersmith Broadway,,E09000013,12/27/2020
Hammersmith and Fulham,Pubs,Raven,375 Goldhawk Road,Hammersmith,London,E09000013,Hammersmith and Fulham,51.494191098204006,-0.24471451314184772,521948.96696470404,178709.92437448172,,E05000261,Ravenscourt Park,,E09000013,12/27/2020
Hammersmith and Fulham,Pubs,Anglesea Arms,35 Wingate Road,Hammersmith,London,E09000013,Hammersmith and Fulham,51.49919377120606,-0.2359064379319176,522546.9668030203,179280.924217085,,E05000261,Ravenscourt Park,,E09000013,12/27/2020
Hammersmith and Fulham,Pubs,Duchess,320 Goldhawk Road,Hammersmith,London,E09000013,Hammersmith and Fulham,51.49726904800461,-0.24427926634504815,521970.96695859963,179052.92428004823,,E05000261,Ravenscourt Park,,E09000013,12/27/2020
Hammersmith and Fulham,Pubs,Belushi's,28 Hammersmith Broadway,Hammersmith,London,E09000013,Hammersmith and Fulham,51.4934702126128,-0.2243002772754927,523367.9665800116,178663.924386235,,E05000256,Hammersmith Broadway,,E09000013,12/27/2020
Hammersmith and Fulham,Pubs,Queens Head,13 Brook Green,Hammersmith,London,E09000013,Hammersmith and Fulham,51.495291942239405,-0.21812110195238002,523791.9664653709,178876.92432838219,,E05000252,Avonmore and Brook Green,,E09000013,12/27/2020
Hammersmith and Fulham,Pubs,Richmond,55 Shepherds Bush Road,Hammersmith,London,E09000013,Hammersmith and Fulham,51.500822685111075,-0.22169463402821035,523528.96653701365,179485.9241638073,,E05000250,Addison,,E09000013,12/27/2020
Hammersmith and Fulham,Pubs,Draft House,238 Shepherds Bush Road,Hammersmith,London,E09000013,Hammersmith and Fulham,51.49561862379728,-0.2242455572054342,523365.96658077795,178902.92432141147,,E05000252,Avonmore and Brook Green,,E09000013,12/27/2020
Hammersmith and Fulham,Pubs,Brook Green Hotel,170 Shepherds Bush Road,Hammersmith,London,E09000013,Hammersmith and Fulham,51.49781843574693,-0.22283454676565315,523457.96655608213,179149.92425457254,,E05000250,Addison,,E09000013,12/27/2020
Hammersmith and Fulham,Pubs,Latymers,157 Hammersmith Road,Hammersmith,London,E09000013,Hammersmith and Fulham,51.493024530878024,-0.21744606189702992,523844.9664507826,178625.9243959341,,E05000252,Avonmore and Brook Green,,E09000013,12/27/2020
Hammersmith and Fulham,Pubs,Pear Tree,14 Margravine Road,Hammersmith,London,E09000013,Hammersmith and Fulham,51.48663701737671,-0.21490090593792774,524038.9663987986,177919.92458843498,,E05000255,Fulham Reach,,E09000013,12/27/2020
Hammersmith and Fulham,Pubs,Cross Keys,57 Black Lion Lane,Hammersmith,London,E09000013,Hammersmith and Fulham,51.49230821989029,-0.24268366272533076,522094.966925103,178503.92443123728,,E05000261,Ravenscourt Park,,E09000013,12/27/2020
Hammersmith and Fulham,Pubs,Carpenter's Arms,91 Black Lion Lane,Hammersmith,London,E09000013,Hammersmith and Fulham,51.49230821989029,-0.24268366272533076,522094.966925103,178503.92443123728,,E05000261,Ravenscourt Park,,E09000013,12/27/2020
Hammersmith and Fulham,Pubs,Old City Arms,107 Hammersmith Bridge Road,Hammersmith,London,E09000013,Hammersmith and Fulham,51.489277675675986,-0.2289286290428179,523057.9666647008,178189.92451538163,,E05000256,Hammersmith Broadway,,E09000013,12/27/2020
Hammersmith and Fulham,Pubs,Rutland Arms,15 Lower Mall,Hammersmith,London,E09000013,Hammersmith and Fulham,51.489933124021434,-0.2318417954929875,522853.9667197269,178257.92449732433,,E05000256,Hammersmith Broadway,,E09000013,12/27/2020
Hammersmith and Fulham,Pubs,Blue Anchor,13 Lower Mall,Hammersmith,London,E09000013,Hammersmith and Fulham,51.489933124021434,-0.2318417954929875,522853.9667197269,178257.92449732433,,E05000256,Hammersmith Broadway,,E09000013,12/27/2020
Hammersmith and Fulham,Pubs,Brasserie Blanc,"Goldhurst House, Parr's Way",Hammersmith,,E09000013,Hammersmith and Fulham,51.48727818732696,-0.22634139343694973,523242.9666152226,177971.92457422358,,E05000255,Fulham Reach,,E09000013,12/27/2020
Hammersmith and Fulham,Pubs,Crabtree,Rainville Road,Hammersmith,London,E09000013,Hammersmith and Fulham,51.48289813375338,-0.223328380744951,523463.9665561956,177489.9247053237,,E05000255,Fulham Reach,,E09000013,12/27/2020
Hammersmith and Fulham,Pubs,Hop Poles,17-19 King Street,Hammersmith,London,E09000013,Hammersmith and Fulham,51.49273466539599,-0.22561097704041327,523278.96660402184,178579.92440920242,,E05000256,Hammersmith Broadway,,E09000013,12/27/2020
Hammersmith and Fulham,Pubs,Hammersmith Ram,81 King Street,Hammersmith,London,E09000013,Hammersmith and Fulham,51.49245427822365,-0.2278835426267229,523121.9666464831,178544.9244190649,,E05000256,Hammersmith Broadway,,E09000013,12/27/2020
Hammersmith and Fulham,Pubs,Hampshire Hog,227 King Street,Hammersmith,London,E09000013,Hammersmith and Fulham,51.49253593549473,-0.23329687232682172,522745.9667482593,178544.9244198631,,E05000256,Hammersmith Broadway,,E09000013,12/27/2020
Hammersmith and Fulham,Pubs,Duke of Cornwall,48 Fulham Palace Road,Hammersmith,London,E09000013,Hammersmith and Fulham,51.490404051611556,-0.22372801428602132,523415.96656741505,178323.9244784431,,E05000256,Hammersmith Broadway,,E09000013,12/27/2020
Hammersmith and Fulham,Pubs,Distillers,64 Fulham Palace Road,Hammersmith,London,E09000013,Hammersmith and Fulham,51.490404051611556,-0.22372801428602132,523415.96656741505,178323.9244784431,,E05000256,Hammersmith Broadway,,E09000013,12/27/2020
Hammersmith and Fulham,Pubs,Old Suffolk Punch,80 Fulham Palace Road,Hammersmith,London,E09000013,Hammersmith and Fulham,51.48837758476314,-0.22292812330979367,523476.9665515014,178099.92453923187,,E05000255,Fulham Reach,,E09000013,12/27/2020
Hammersmith and Fulham,Pubs,Chancellors,25 Crisp Road,Hammersmith,London,E09000013,Hammersmith and Fulham,51.48863760965346,-0.22703765708309823,523190.9666288841,178121.9245336139,,E05000256,Hammersmith Broadway,,E09000013,12/27/2020
Hammersmith and Fulham,Pubs,Blue Boat,"Distillery Wharf, Parr's Way",Hammersmith,,E09000013,Hammersmith and Fulham,51.48599289647572,-0.22519578311544905,523325.9665931292,177830.92461242102,,E05000255,Fulham Reach,,E09000013,12/27/2020
Hammersmith and Fulham,Pubs,Dove,19 Upper Mall,Hammersmith,London,E09000013,Hammersmith and Fulham,51.49060636072856,-0.2365405729730742,522525.9668084362,178324.92447962938,,E05000261,Ravenscourt Park,,E09000013,12/27/2020
Hammersmith and Fulham,Pubs,Old Ship,25 Upper Mall,Hammersmith,London,E09000013,Hammersmith and Fulham,51.49037042999527,-0.23999244527684993,522286.96687350154,178292.92448822793,,E05000261,Ravenscourt Park,,E09000013,12/27/2020
Hammersmith and Fulham,Pubs,Black Lion,2 South Black Lion Lane,Hammersmith,London,E09000013,Hammersmith and Fulham,51.49038741888994,-0.24232538239927232,522124.9669175427,178290.92448875017,,E05000261,Ravenscourt Park,,E09000013,12/27/2020
Hammersmith and Fulham,Set and exhibition building,Francesca Zagari,32C  Aynhoe Road,,,E09000013,Hammersmith and Fulham,51.496295912605014,-0.21731836901665605,523844.9664509988,178989.92429814802,34026245,E05000252,Avonmore and Brook Green,http://www.coroflot.com/francescazagari,E09000013,12/27/2020
Hammersmith and Fulham,Skate Parks,Fulham,,,,E09000013,Hammersmith and Fulham,51.47197255086022,-0.2186983535855532,523814.9834269736,176282.7906361064,0,E05000259,Palace Riverside,,E09000013,12/27/2020
Hammersmith and Fulham,Textile design,Bysshe Partnership,Durham Wharf,Hammersmith Terrace,,E09000013,Hammersmith and Fulham,51.48924765341254,-0.24368003019563975,522033.9669426624,178161.92452352308,34133903,E05000261,Ravenscourt Park,http://www.bysshe.co/,E09000013,12/27/2020
Hammersmith and Fulham,Textile design,Decors Barbares Ltd,421 Chelsea Harbour,,,E09000013,Hammersmith and Fulham,51.476504070811416,-0.1828085783365699,526294.9657870849,176847.92487911345,34151035,E05000262,Sands End,https://www.decorsbarbares.com,E09000013,12/27/2020
Hammersmith and Fulham,Theatre rehearsal studio,Holy Innocents Church,Paddenswick Road,,,E09000013,Hammersmith and Fulham,51.49856204473071,-0.2369537756610985,522475.96670002275,179208.9241148595,34118167,E05000261,Ravenscourt Park,http://www.hisj.co.uk/venue-hire/,E09000013,12/27/2020
Hammersmith and Fulham,Theatre rehearsal studio,Jet Studios ,18 Lettice Street,,,E09000013,Hammersmith and Fulham,51.474652802022625,-0.20331575893696086,524875.9660516046,176606.92482564162,34041920,E05000264,Town,http://jetstudios.co.uk/,E09000013,12/27/2020
Hammersmith and Fulham,Theatre rehearsal studio,Bush Theatre,7 Uxbridge Road,,,E09000013,Hammersmith and Fulham,51.50502515595086,-0.2254503448233205,523256.9664875142,179946.9239148129,34032421,E05000263,Shepherd's Bush Green,https://www.bushtheatre.co.uk/,E09000013,12/27/2020
Hammersmith and Fulham,Theatre rehearsal studio,Holy Trinity W6,Brook Green,,,E09000013,Hammersmith and Fulham,51.495291941168766,-0.2181211037531841,523791.96634327073,178876.92420628265,34134012,E05000252,Avonmore and Brook Green,www.trinityfocus.org,E09000013,12/27/2020
Hammersmith and Fulham,Theatres,Lyric Hammersmith,Lyric Square, King St,NA,E09000013,Hammersmith and Fulham,51.49375939028386,-0.22787712260406484,523118.897225369,178690.06645736843,34027053,E05000256,Hammersmith Broadway,https://lyric.co.uk/,E09000013,12/27/2020
Hammersmith and Fulham,Theatres,Eventim Apollo,45 Queen Caroline Street, Hammersmith,NA,E09000013,Hammersmith and Fulham,51.49099868707071,-0.22701032963284373,523186.50410725496,178384.52704034082,34030384,E05000256,Hammersmith Broadway,NA,E09000013,12/27/2020
Hammersmith and Fulham,Theatres,Shepherds Bush Empire,Shepherd's Bush Green,NA,NA,E09000013,Hammersmith and Fulham,51.503937464738584,-0.22607049220849804,523216.8622986879,179824.92724805162,34030760,E05000263,Shepherd's Bush Green,https://academymusicgroup.com/o2shepherdsbushempire/,E09000013,12/27/2020
Hammersmith and Fulham,Theatres,Bush Theatre,7 Uxbridge Rd, Shepherd's Bush,NA,E09000013,Hammersmith and Fulham,51.5055342950238,-0.22704543078226302,523144.8980177881,180000.8594998382,34032421,E05000263,Shepherd's Bush Green,https://www.bushtheatre.co.uk/,E09000013,12/27/2020
Hammersmith and Fulham,Theatres,Barons Court Theatre,28a Comeragh Rd,NA,NA,E09000013,Hammersmith and Fulham,51.48963907053891,-0.2123375178896296,524208.7802298567,178258.10067470098,34128758,E05000258,North End,http://www.offwestend.com/index.php/theatres/view/42,E09000013,12/27/2020
Hammersmith and Fulham,Theatres,The Bhavan Centre,4A Castletown Rd, Hammersmith,NA,E09000013,Hammersmith and Fulham,51.48990811744111,-0.2081939313937273,524495.7030514921,178295.050565426,34140084,E05000258,North End,http://www.bhavan.net/,E09000013,12/27/2020
Hammersmith and Fulham,Theatres,Riverside Studios,101 Queen Caroline Street, Hammersmith,NA,E09000013,Hammersmith and Fulham,51.48990811744111,-0.2081939313937273,524495.7030514921,178295.050565426,34153945,E05000258,North End,http://www.riversidestudios.co.uk/,E09000013,12/27/2020
Hammersmith and Fulham,Theatres,Sainsbury Theatre,155 Talgarth Rd,NA,NA,E09000013,Hammersmith and Fulham,51.49106287784542,-0.21552325487419968,523983.7605910959,178411.03613244818,34160370,E05000252,Avonmore and Brook Green,https://www.lamda.ac.uk/hire-our-spaces,E09000013,12/27/2020
Hammersmith and Fulham,Theatres,Teatr Polski,Polish Centre, 238-46 King Street,NA,E09000013,Hammersmith and Fulham,51.49403513904844,-0.23901505573817486,522345.0123351129,178702.0789545966,34160956,E05000261,Ravenscourt Park,http://www.posk.org/c5/en/home/,E09000013,12/27/2020
Hammersmith and Fulham,Theatres,The Playground Theatre,8 Latimer Industrial Estate, Latimer Rd,NA,E09000013,Hammersmith and Fulham,51.518314118404724,-0.22600174803065223,523182.85910877417,181423.7601145871,217052352,E05000253,College Park and Old Oak,http://theplaygroundtheatre.london/,E09000013,12/27/2020
