BOROUGH,Cultural Venue Type,site_name,address1,address2,address3,borough_code,borough_name,latitude,longitude,easting,northing,os_addressbase_uprn,ward_2018_code,ward_2018_name,website,gss_code,runtime
Hillingdon,Archives,EMI Group Archive Trust,Dawley Road,Hayes,,E09000017,Hillingdon,51.50816040485232,-0.430243685474117,509036.9703519687,179970.92391128867,10022797517,E05000325,Botwell,https://www.emiarchivetrust.org/,E09000017,12/27/2020
Hillingdon,Archives,London School of Theology,Green Lane,Northwood,,E09000017,Hillingdon,51.612949593008516,-0.4317289762313752,508683.9704507013,191621.92074254452,100023000000,E05000335,Northwood,https://home.lst.ac.uk/,E09000017,12/27/2020
Hillingdon,Archives,Brunel University Archives,The Old School House ,1 Hillingdon Road ,Uxbridge,E09000017,Hillingdon,51.53662880782201,-0.47100701865696964,506141.9711422209,183076.92306381796,100023000000,E05000326,Brunel,https://www.brunel.ac.uk/about/Archives,E09000017,12/27/2020
Hillingdon,Archives,British Airways Heritage Collection,Waterside Speedbird Way,Harmondsworth,,E09000017,Hillingdon,51.48549094062882,-0.48702090583765206,505148.97141100315,177366.92461901723,100023000000,E05000331,Heathrow Villages,https://www.britishairways.com/en-gb/information/about-ba/history-and-heritage/heritage-collection,E09000017,12/27/2020
Hillingdon,Archives,"Hillingdon Local Studies, Archives and Museums Service",Local Studies Archives and Museum Service Central Library,Uxbridge,,E09000017,Hillingdon,51.54518515142137,-0.4782767159862182,505617.9712842847,184017.92281085113,100023000000,E05000341,Uxbridge South,https://www.hillingdon.gov.uk/history,E09000017,12/27/2020
Hillingdon,Archives,SADAA (South Asian Diaspora Arts Archive),Special Collections Brunel University Library,Uxbridge,,E09000017,Hillingdon,51.532839919971025,-0.4728353362006622,506023.9711745961,182652.92317899427,100023000000,E05000326,Brunel,https://sadaa.co.uk/,E09000017,12/27/2020
Hillingdon,Archives,Brunel University Library,Kingston Lane,Uxbridge,,E09000017,Hillingdon,51.532839919971025,-0.4728353362006622,506023.9711745961,182652.92317899427,100023000000,E05000326,Brunel,https://www.brunel.ac.uk/life/library,E09000017,12/27/2020
Hillingdon,Artists workspaces,,"75, The Green",West Drayton,,E09000017,Hillingdon,51.50155041968725,-0.47585549475384303,505886.9712130519,179168.92412941443,100000000000,E05000342,West Drayton,www.southlandsarts.co.uk,E09000017,12/27/2020
Hillingdon,Cinemas,Odeon Uxbridge,,302 The Chimes Shopping Centre,,E09000017,Hillingdon,51.54514957062954,-0.4755378286628746,505807.9713546083,184017.92293241987,010003003209,E05000340,Uxbridge North,,E09000017,12/27/2020
Hillingdon,Cinemas,Cineworld South Ruislip,,The Old Dairy,Victoria Rd,E09000017,Hillingdon,51.55907316584616,-0.4000597046058027,511007.78994990536,185678.14244910842,010092984334,E05000338,South Ruislip,,E09000017,12/27/2020
Hillingdon,Community centres,The Honeywell Centre,26 Wraysbury Drive,NA,NA,E09000017,Hillingdon,51.513489153487264,-0.4777049491865546,505730.97137569427,180493.92388932075,10090330845,E05000345,Yiewsley,https://www.a2dominion.co.uk/locations/The-Honeywell-Centre-West-Drayton,E09000017,12/27/2020
Hillingdon,Community centres,Meadows Community Centre,90 Wise Lane, West Drayton,NA,E09000017,Hillingdon,51.49793950953183,-0.4782379728666888,505729.9713775007,178763.9243617144,200002815540,E05000342,West Drayton,https://www.chg.org.uk/residents/supporting-communities/our-community-centres/,E09000017,12/27/2020
Hillingdon,Community centres,Haydon Hall  ,Southill Lane,Hillingdon,NA,E09000017,Hillingdon,51.58853626998868,-0.40626058825307465,510506.52006618894,188945.1715915997,100023034945,E05000329,Eastcote and East Ruislip,,E09000017,12/27/2020
Hillingdon,Community centres,Cowley Meeting Hall,High Street,Hillingdon,NA,E09000017,Hillingdon,51.52679234643069,-0.48275101822654065,505350.1514722775,181966.0634431971,100023422241,E05000341,Uxbridge South,,E09000017,12/27/2020
Hillingdon,Community centres,Community Centre Stockley Park ,Chestnut Avenue, West Drayton,NA,E09000017,Hillingdon,51.51510480048398,-0.4595783092636255,506984.9710341675,180699.9238340102,10022805197,E05000345,Yiewsley,,E09000017,12/27/2020
Hillingdon,Community centres,Brookside Community Centre,70 Brookside Road,Hillingdon,NA,E09000017,Hillingdon,51.518681774181545,-0.3924500245589976,511633.969769966,181197.9236977026,10091851878,E05000344,Yeading,http://www.brooksidecommunitycentre.org/Default.aspx,E09000017,12/27/2020
Hillingdon,Community centres,Hillingdon Community Centre,Royal Lane,Hillingdon,NA,E09000017,Hillingdon,51.52312567769904,-0.4660803408510043,506515.1411444681,181582.43354219059,10022796415,E05000345,Yiewsley,,E09000017,12/27/2020
Hillingdon,Community centres,South Ruislip Community Centre,Long Drive,Hillingdon,NA,E09000017,Hillingdon,51.560565399839916,-0.3882826779077675,511820.4896783194,185862.01239468262,100023033597,E05000338,South Ruislip,http://www.southruislip.org/,E09000017,12/27/2020
Hillingdon,Community centres,Yeading Community Centre,2 Ditchfield Road,Hillingdon,NA,E09000017,Hillingdon,51.525980844751345,-0.38505689135022897,512128.96963422134,182020.92347697413,100023417573,E05000344,Yeading,,E09000017,12/27/2020
Hillingdon,Community centres,Sipson Community Centre,Sipson Way,Hillingdon,NA,E09000017,Hillingdon,51.48317541793148,-0.4556430836203282,507332.9709392858,177154.92479737935,100023420270,E05000331,Heathrow Villages,,E09000017,12/27/2020
Hillingdon,Community centres,Harefield Community Centre,Priory Avenue,Hillingdon,NA,E09000017,Hillingdon,51.5905740940144,-0.48423830649918986,505099.9715498934,189056.9215610152,100023564763,E05000330,Harefield,,E09000017,12/27/2020
Hillingdon,Community centres,Harmondsworth & Longford Community Centre,School Road,Hillingdon,NA,E09000017,Hillingdon,51.486876056586816,-0.480090197001945,505626.97140313225,177530.92469679494,10003001017,E05000331,Heathrow Villages,,E09000017,12/27/2020
Hillingdon,Community centres,Uxbridge Community Centre,32 The Greenway,Hillingdon,NA,E09000017,Hillingdon,51.53663813329107,-0.47932614505422627,505564.971419536,183065.9231894125,10003001516,E05000341,Uxbridge South,,E09000017,12/27/2020
Hillingdon,Community centres,Hayes & Harlington Community Centre,Albert Road,Hillingdon,NA,E09000017,Hillingdon,51.50186178089578,-0.4239189443831735,509490.9703535723,179279.9242180435,10003002586,E05000325,Botwell,,E09000017,12/27/2020
Hillingdon,Community centres,Crane Youth & Community Centre,Fuller Way,Hillingdon,NA,E09000017,Hillingdon,51.49356998654774,-0.42319646586543186,509560.97033499193,178358.9244698892,10022796414,E05000337,Pinkwell,,E09000017,12/27/2020
Hillingdon,Community centres,Manor Farm Community Centre,Bury Street,Hillingdon,NA,E09000017,Hillingdon,51.57839470823052,-0.4285893168186981,508983.97049281566,187783.921909392,10022796801,E05000329,Eastcote and East Ruislip,eye-community-association.org.uk,E09000017,12/27/2020
Hillingdon,Community centres,Hayes End Community Centre,Kingsway,Hillingdon,NA,E09000017,Hillingdon,51.52369573288159,-0.43943977198519873,508361.9706600687,181684.9235650652,10022797808,E05000325,Botwell,,E09000017,12/27/2020
Hillingdon,Community centres,Skylark Community Centre,Pine Place,Hillingdon,NA,E09000017,Hillingdon,51.52725733045787,-0.4153713452630353,510023.0601733549,182116.89342099888,10022805224,E05000328,Charville,,E09000017,12/27/2020
Hillingdon,Community centres,Eastcote Community Centre,Southbourne Gardens,Hillingdon,NA,E09000017,Hillingdon,51.57332620210649,-0.40151913407076867,510871.9699807852,187260.92204912048,100023034607,E05000327,Cavendish,,E09000017,12/27/2020
Hillingdon,Community centres,Kate Fassnidge Community Hall,76 High Street,Hillingdon,NA,E09000017,Hillingdon,51.60744164578713,-0.4157339276230303,509804.69024031714,191033.2609926323,100023037553,E05000335,Northwood,https://modgov.hillingdon.gov.uk/mgLocationDetails.aspx?RID=24,E09000017,12/27/2020
Hillingdon,Community centres,Townfield Community Centre,Townfield Road,Hillingdon,NA,E09000017,Hillingdon,51.51248846800758,-0.41840740781665897,509847.9702537286,180469.92389664927,100023416187,E05000339,Townfield,,E09000017,12/27/2020
Hillingdon,Community centres,Charville Community Centre0,Bury Avenue,Hillingdon,NA,E09000017,Hillingdon,51.53717432082059,-0.42861130849254075,509080.97046577337,183199.923155065,100023417390,E05000328,Charville,,E09000017,12/27/2020
Hillingdon,Community centres,Barnhill Community Centre,Ayles Road,Hillingdon,NA,E09000017,Hillingdon,51.532188357634055,-0.40497913038595174,510731.970018118,182680.9232956739,100023417474,E05000324,Barnhill,,E09000017,12/27/2020
Hillingdon,Community centres,Brookside Community Centre,70 Brookside Road,Hillingdon,NA,E09000017,Hillingdon,51.518681774181545,-0.3924500245589976,511633.969769966,181197.9236977026,100023563393,E05000344,Yeading,,E09000017,12/27/2020
Hillingdon,Community centres,Yiewsley & West Drayton Commmunity Centre,Harmondsworth Road,Hillingdon,NA,E09000017,Hillingdon,51.5023682813912,-0.4675433977328755,506461.9711791865,179271.9242232666,100023660962,E05000342,West Drayton,,E09000017,12/27/2020
Hillingdon,Community centres,Ickenham Village Hall,33 Swakeleys Road,Hillingdon,NA,E09000017,Hillingdon,51.564596115922896,-0.4458012469720335,507823.97080550884,186223.9223329805,100023413373,E05000333,Ickenham,https://www.ickenhamvillagehall.co.uk/,E09000017,12/27/2020
Hillingdon,Community centres,Willow Tree Community House,12 Mandarin Way,Hayes,Middlesex,E09000017,Hillingdon,51.520571542634684,-0.3886212687904092,511894.969698975,181413.92364010145,10003001848,E05000344,Yeading,,E09000017,12/27/2020
Hillingdon,Dance performance venues,Winston Churchill Theatre,Manor Farm,,,E09000017,Hillingdon,51.57894530296579,-0.4287435141039275,508971.97037391935,187844.92177062976,100023034034,E05000329,Eastcote and East Ruislip,http://www.hillingdontheatres.uk,E09000017,12/27/2020
Hillingdon,Dance performance venues,Uxbridge College,34 College Way,,,E09000017,Hillingdon,51.51627879992962,-0.41143005716239356,510322.9700033896,180901.92365599202,10003002623,E05000339,Townfield,https://www.uxbridge.ac.uk,E09000017,12/27/2020
Hillingdon,Dance performance venues,"Compass Theatre, Hillingdon",45 Glebe Ave,,,E09000017,Hillingdon,51.56218624220662,-0.4403867392342893,508204.97058056697,185963.9222800412,100023413466,E05000333,Ickenham,http://www.hillingdontheatres.uk,E09000017,12/27/2020
Hillingdon,Dance performance venues,Beck Theatre,89 Grange Road,,,E09000017,Hillingdon,51.521049798480966,-0.421800756123298,509591.970202248,181416.9235174968,10003001360,E05000339,Townfield,https://becktheatre.org.uk/Online/,E09000017,12/27/2020
Hillingdon,Dance rehearsal studios,Windmill Studio,106 - 106A Pembroke Road,,,E09000017,Hillingdon,51.57342523402948,-0.4141280842201244,509997.97009512776,187252.92193028162,100023034352,E05000334,Manor,http://www.thewindmillstudio.com,E09000017,12/27/2020
Hillingdon,Dance rehearsal studios,Futinity UK,1 Harefield Road,,,E09000017,Hillingdon,51.54855228454608,-0.48275072181707684,505299.9713724681,184385.92271184677,100023421949,E05000341,Uxbridge South,http://futunityuk.com,E09000017,12/27/2020
Hillingdon,Dance rehearsal studios,Uxbridge College,34 College Way,,,E09000017,Hillingdon,51.51627879992962,-0.41143005716239356,510322.9700033896,180901.92365599202,10003002623,E05000339,Townfield,https://www.uxbridge.ac.uk,E09000017,12/27/2020
Hillingdon,Dance rehearsal studios,"Compass Theatre, Hillingdon",45 Glebe Ave,,,E09000017,Hillingdon,51.56218624220662,-0.4403867392342893,508204.97058056697,185963.9222800412,100023413466,E05000333,Ickenham,http://www.hillingdontheatres.uk,E09000017,12/27/2020
Hillingdon,Dance rehearsal studios,Beck Theatre,89 Grange Road,,,E09000017,Hillingdon,51.521049798480966,-0.421800756123298,509591.970202248,181416.9235174968,10003001360,E05000339,Townfield,https://becktheatre.org.uk/Online/,E09000017,12/27/2020
Hillingdon,Fashion and design,Threads London Limited,130 Manor Way,,,E09000017,Hillingdon,51.57447039166648,-0.41427930695776427,509984.9700984402,187368.92189851915,1.00023E+11,E05000334,Manor,http://www.threads-london.com/,E09000017,12/27/2020
Hillingdon,Jewellery design,Amadoria Limited,Suite 510 Hyde Park Hayes 3,11 Millington Road,,E09000017,Hillingdon,51.502194007654964,-0.42923848482555316,509120.97045445535,179308.92421020172,10091852912,E05000337,Pinkwell,http://www.amadoria.com,E09000017,12/27/2020
Hillingdon,Jewellery design,Desirable Lifestyles Limited,Hartfield House,40-44 High Street,,E09000017,Hillingdon,51.606450567766615,-0.41648646242679344,509754.9702830395,190921.92105712707,10003002549,E05000335,Northwood,,E09000017,12/27/2020
Hillingdon,Jewellery design,Kalvaspa UK Limited,Wisteria Grange Barn Pikes End,Pinner,,E09000017,Hillingdon,51.58898923099396,-0.4020374319983471,510797.9699992439,189001.92157625308,100023563931,E05000336,Northwood Hills,,E09000017,12/27/2020
Hillingdon,Large media production studios,West London Film Studios,"Springfield Road,Â Hayes, London ",,Hayes,E09000017,Hillingdon,51.50977875358361,-0.39801260464615557,511269.729819127,180199.38393011136,010092983512,E05000339,Townfield,http://filmlondon.org.uk/wlf-studios#,E09000017,12/27/2020
Hillingdon,Libraries,Harlington Library,Pinkwell Lane,Hayes,,E09000017,Hillingdon,51.49759691189694,-0.43648461998772836,508628.970589222,178786.9243525926,10003001185,E05000337,Pinkwell,,E09000017,12/27/2020
Hillingdon,Libraries,West Drayton Library,Station Road,West Drayton,,E09000017,Hillingdon,51.505712650848515,-0.470240902738304,506266.97123141895,179639.92412247462,100023420922,E05000342,West Drayton,,E09000017,12/27/2020
Hillingdon,Libraries,Botwell Green Library,East Avenue,Hayes,,E09000017,Hillingdon,51.5084792406569,-0.4178401526100187,509896.970239931,180024.9240176137,10022805611,E05000339,Townfield,,E09000017,12/27/2020
Hillingdon,Libraries,Yiewsley Library,High Street,West Drayton,,E09000017,Hillingdon,51.515150115969135,-0.4740464924475635,505980.9713071002,180683.92383833945,100023420805,E05000345,Yiewsley,,E09000017,12/27/2020
Hillingdon,Libraries,Yeading Library,Yeading Lane,Hayes,,E09000017,Hillingdon,51.52087366045075,-0.40413499746411224,510817.96999228466,181423.92363692028,100023417063,E05000324,Barnhill,,E09000017,12/27/2020
Hillingdon,Libraries,Hayes End Library,Uxbridge Road,Hayes,,E09000017,Hillingdon,51.52598024425166,-0.4361038237153604,508587.9705978525,181943.92349437682,100023417260,E05000328,Charville,,E09000017,12/27/2020
Hillingdon,Libraries,Charville Library,Bury Avenue,Hayes,,E09000017,Hillingdon,51.53509140849695,-0.42751514818379893,509161.97044337785,182969.92321804503,100023417465,E05000328,Charville,,E09000017,12/27/2020
Hillingdon,Libraries,Oak Farm Library,Sutton Court Road,Uxbridge,,E09000017,Hillingdon,51.541560702241505,-0.4500906968658077,507580.9708753232,183655.92303214548,100023414220,E05000332,Hillingdon East,,E09000017,12/27/2020
Hillingdon,Libraries,Uxbridge Library,High Street,Uxbridge,,E09000017,Hillingdon,51.54518515249601,-0.4782767141894988,505617.97140638385,184017.92293295206,100023421562,E05000341,Uxbridge South,,E09000017,12/27/2020
Hillingdon,Libraries,South Ruislip Library,Victoria Road,Ruislip,,E09000017,Hillingdon,51.55733573379721,-0.3951208686310998,511354.3798202437,185492.43247787916,10003002133,E05000338,South Ruislip,,E09000017,12/27/2020
Hillingdon,Libraries,Ickenham Library,Community Close,Ickenham,,E09000017,Hillingdon,51.563522500776344,-0.4435006165134365,507985.9707617552,186107.92236380302,100023413527,E05000333,Ickenham,,E09000017,12/27/2020
Hillingdon,Libraries,Ruislip Manor Library,Linden Avenue,Ruislip,,E09000017,Hillingdon,51.57232895267138,-0.4115254907019274,510180.97016787063,187134.92208450055,10022800920,E05000334,Manor,,E09000017,12/27/2020
Hillingdon,Libraries,Manor Farm Library,Bury Street,Ruislip,,E09000017,Hillingdon,51.577996910779014,-0.42842985394792304,508995.97048959025,187739.92192139907,100023034184,E05000329,Eastcote and East Ruislip,,E09000017,12/27/2020
Hillingdon,Libraries,Eastcote Library,Field End Road,Ruislip,,E09000017,Hillingdon,51.58037027563353,-0.40057316703111717,510920.3799408578,188045.68178487167,100023034643,E05000329,Eastcote and East Ruislip,,E09000017,12/27/2020
Hillingdon,Libraries,Northwood Hills Library,Potter Street,Northwood,,E09000017,Hillingdon,51.60279660003646,-0.4082816628084901,510331.9701250236,190527.9211628979,100023037608,E05000336,Northwood Hills,,E09000017,12/27/2020
Hillingdon,Libraries,Harefield Library,Park Lane,Harefield,,E09000017,Hillingdon,51.604396061932064,-0.48292610938937086,505158.97153295967,190595.92114358128,100023564754,E05000330,Harefield,,E09000017,12/27/2020
Hillingdon,Libraries,Northwood Library,Green Lane,Northwood,,E09000017,Hillingdon,51.61233586097772,-0.4248318998403248,509162.9704437541,191563.9208808549,100023564110,E05000335,Northwood,,E09000017,12/27/2020
Hillingdon,Making and manufacturing,Mistral Models,Long Lane Farm,Long Lane,,E09000017,Hillingdon,51.55609460783916,-0.4428021721904786,508051.9707448103,185282.92258755094,1.00023E+11,E05000333,Ickenham,http://mistralmodels.com,E09000017,12/27/2020
Hillingdon,Making and manufacturing,James Mansfield Timber,Unit F Uxbridge Depot,Eskdale Road Ind. Estate,,E09000017,Hillingdon,51.53835753407679,-0.4941063840338104,504535.97169849306,183235.92314380698,1.00023E+11,E05000341,Uxbridge South,http://www.jamesmansfieldtimber.co.uk,E09000017,12/27/2020
Hillingdon,Museums and public galleries,"Hillingdon Local Studies, Archives and Museum",Central Library,14-16 High Street,Uxbridge,E09000017,Hillingdon,51.54518515249601,-0.4782767141894988,505617.97140638385,184017.92293295206,100023421562,E05000341,Uxbridge South,https://www.hillingdon.gov.uk/history,E09000017,12/27/2020
Hillingdon,Music (office based businesses),Detriment Records Ltd,17 Tanglewood Close,Hillingdon,,E09000017,Hillingdon,51.53100777631035,-0.45243924276123965,507442.9709104059,182478.9233481103,100000000000,E05000326,Brunel,,E09000017,12/27/2020
Hillingdon,Music (office based businesses),Abc Digital Publishing Ltd,225 Harefield Road,Hillingdon,,E09000017,Hillingdon,51.55737159765952,-0.4728932206673543,505962.971314676,185380.92256239906,100000000000,E05000340,Uxbridge North,,E09000017,12/27/2020
Hillingdon,Music (office based businesses),Fusion Records Ltd,24 Wieland Road,Hillingdon,,E09000017,Hillingdon,51.610477250221976,-0.4083595272850748,510307.9701317356,191381.92093128222,100000000000,E05000336,Northwood Hills,,E09000017,12/27/2020
Hillingdon,Music recording studios,Rnr Studios,Chiltern Business Village Arundel Rd,Uxbridge,,E09000017,Hillingdon,51.53661418333195,-0.49279411795116523,504630.9716724645,183043.92319516966,0,E05000341,Uxbridge South,,E09000017,12/27/2020
Hillingdon,Music venues (all),The White Horse,530 Bath Road,Hillingdon,,E09000017,Hillingdon,51.48094685163452,-0.49028200392352544,504932.9715918374,176856.92487874394,100000000000,E05000331,Heathrow Villages,www.oldenglishpub.com,E09000017,12/27/2020
Hillingdon,Music venues (all),Hut,2 Old Orchard Close,Hillingdon,,E09000017,Hillingdon,51.52042904305323,-0.45418117636640876,507346.9709367148,181299.92366939888,100000000000,E05000345,Yiewsley,www.thehutpub.com,E09000017,12/27/2020
Hillingdon,Music venues (all),Crown,1090 Uxbridge Road,Hillingdon,,E09000017,Hillingdon,51.52304279012994,-0.42155886149718946,509603.97032077494,181638.92357901135,100000000000,E05000324,Barnhill,www.yeoldecrowne.co.uk,E09000017,12/27/2020
Hillingdon,Music venues (all),Angel,697 Uxbridge Road,Hillingdon,,E09000017,Hillingdon,51.52493358201957,-0.43314124393951486,508795.9705410866,181831.92352478666,100000000000,E05000325,Botwell,www.angel-hayes.co.uk,E09000017,12/27/2020
Hillingdon,Music venues (all),Load Of Hay,33 Villier Street,Hillingdon,,E09000017,Hillingdon,51.53636531630506,-0.47701389206381245,505725.9713762555,183038.9231961305,100000000000,E05000341,Uxbridge South,,E09000017,12/27/2020
Hillingdon,Music venues (all),Crown & Treaty House,90 Oxford Road,Hillingdon,,E09000017,Hillingdon,51.549847841266626,-0.4841931830060336,505196.97152323433,184527.9227951095,100000000000,E05000341,Uxbridge South,,E09000017,12/27/2020
Hillingdon,Music venues (all),Soldiers Return,65 High Road,Hillingdon,,E09000017,Hillingdon,51.56819304919954,-0.44106135196927637,508143.97071825544,186630.9222218839,100000000000,E05000343,West Ruislip,www.johnbarras.com/pub/soldiers-return-ickenham-uxbridge,E09000017,12/27/2020
Hillingdon,Music venues (all),Kings Arms,6 Park Lane,Hillingdon,,E09000017,Hillingdon,51.60458372447333,-0.4821400742752364,505212.97151818086,190617.92113740748,100000000000,E05000330,Harefield,,E09000017,12/27/2020
Hillingdon,Prop and costume making,Mistral Models,Long Lane Farm,Long Lane,,E09000017,Hillingdon,51.55609460783916,-0.4428021721904786,508051.9707448103,185282.92258755094,1.00023E+11,E05000333,Ickenham,http://mistralmodels.com,E09000017,12/27/2020
Hillingdon,Pubs,J J Moons,12 Victoria Road,Ruislip Manor,,E09000017,Hillingdon,51.573462577142436,-0.41356398561168756,510036.9702066707,187257.92205096432,,E05000334,Manor,,E09000017,12/27/2020
Hillingdon,Pubs,Hennessys,36 Victoria Road,Ruislip Manor,Ruislip,E09000017,Hillingdon,51.57243599955906,-0.4127916302394159,510092.97019168944,187144.9220818609,,E05000334,Manor,,E09000017,12/27/2020
Hillingdon,Pubs,Manor Bar,68 Victoria Road,Ruislip Manor,Ruislip,E09000017,Hillingdon,51.571738060903364,-0.4123830395260659,510122.9701836725,187067.92210292735,,E05000334,Manor,,E09000017,12/27/2020
Hillingdon,Pubs,Black Bull,Victoria Road,South Ruislip,Ruislip,E09000017,Hillingdon,51.56153225761641,-0.40116822416404285,510924.9699654349,185949.922405375,,E05000338,South Ruislip,,E09000017,12/27/2020
Hillingdon,Pubs,Chiquito,1 The Old Dairy,South Ruislip,,E09000017,Hillingdon,51.55907115331028,-0.40005717862792495,511007.9699425632,185677.9224784702,,E05000338,South Ruislip,,E09000017,12/27/2020
Hillingdon,Pubs,Middlesex Arms,Long Drive,South Ruislip,,E09000017,Hillingdon,51.55752921000327,-0.3971107323089604,511215.96988505457,185510.9225241377,,E05000338,South Ruislip,,E09000017,12/27/2020
Hillingdon,Pubs,Ruislip Social Club,Grosvenor Vale,Ruislip,,E09000017,Hillingdon,51.56901956513557,-0.4195047913943606,509635.97031626914,186754.92218894965,,E05000334,Manor,,E09000017,12/27/2020
Hillingdon,Pubs,Hop & Vine,18 High Street,Ruislip,,E09000017,Hillingdon,51.57589396296101,-0.4265108690884241,509133.97045210947,187508.9219842099,,E05000343,West Ruislip,,E09000017,12/27/2020
Hillingdon,Pubs,Cafe Rouge at the Swan,10 High Street,Ruislip,,E09000017,Hillingdon,51.576539473818386,-0.42703697366172666,509095.9704624378,187579.92196491087,,E05000343,West Ruislip,,E09000017,12/27/2020
Hillingdon,Pubs,White Bear,Ickenham Road,Ruislip,,E09000017,Hillingdon,51.57183806027403,-0.43118195834491685,508819.970536773,187050.922108471,,E05000343,West Ruislip,,E09000017,12/27/2020
Hillingdon,Pubs,Fairway,"Ruislip Golf Centre, Ickenham Rd",Ruislip,,E09000017,Hillingdon,51.57205091142623,-0.4329783942680082,508694.97057074215,187071.9221029139,,E05000343,West Ruislip,,E09000017,12/27/2020
Hillingdon,Pubs,Orchard,Ickenham Road,Ruislip,,E09000017,Hillingdon,51.57285738426717,-0.431421042286694,508800.9705422987,187163.92207809526,,E05000343,West Ruislip,,E09000017,12/27/2020
Hillingdon,Pubs,Woodman,Breakspear Road,Ruislip,,E09000017,Hillingdon,51.58611562467353,-0.4404624220785722,508142.9707200575,188624.921679247,,E05000343,West Ruislip,,E09000017,12/27/2020
Hillingdon,Pubs,Plough,154 Bury Street,Ruislip,,E09000017,Hillingdon,51.58333608719022,-0.43162313471119157,508761.97055248765,188328.9217604599,,E05000329,Eastcote and East Ruislip,,E09000017,12/27/2020
Hillingdon,Pubs,George,2 High Street,Ruislip,,E09000017,Hillingdon,51.585177317678,-0.4334794952652498,508628.97058813705,188530.92170552857,,E05000329,Eastcote and East Ruislip,,E09000017,12/27/2020
Hillingdon,Pubs,Arens Bar & Grill (at the Six Bells),Duck Hills Road,Ruislip,,E09000017,Hillingdon,51.589512004971844,-0.43688155904204057,508382.9706541486,189007.92157597793,,E05000343,West Ruislip,,E09000017,12/27/2020
Hillingdon,Pubs,Waters Edge,Reservoir Road,Ruislip,,E09000017,Hillingdon,51.591030690662706,-0.4327584264605887,508664.9705768386,189182.9215284579,,E05000343,West Ruislip,,E09000017,12/27/2020
Hillingdon,Pubs,Lounge 101,101-3 High Street,Ruislip,,E09000017,Hillingdon,51.5735304784215,-0.42327345075649886,509363.9703892954,187250.9220538023,,E05000343,West Ruislip,,E09000017,12/27/2020
Hillingdon,Pubs,Crock of Gold,153 High Street,Ruislip,,E09000017,Hillingdon,51.57270189267637,-0.42250845372466844,509418.9703743869,187159.92207848886,,E05000343,West Ruislip,,E09000017,12/27/2020
Hillingdon,Pubs,Venue 5,446 Field End Road,Ruislip,,E09000017,Hillingdon,51.56893064363537,-0.3898123555729419,511693.96975492977,186789.92217762565,,E05000327,Cavendish,,E09000017,12/27/2020
Hillingdon,Pubs,Geo Bar,163 Field End Road,Eastcote,Pinner,E09000017,Hillingdon,51.57846275841692,-0.399015211089325,511032.9699369649,187835.92189265764,,E05000329,Eastcote and East Ruislip,,E09000017,12/27/2020
Hillingdon,Pubs,Captain Morgans,210 Field End Road,Eastcote,Pinner,E09000017,Hillingdon,51.57680551324521,-0.39816425887156714,511095.9699199319,187652.92194202967,,E05000327,Cavendish,,E09000017,12/27/2020
Hillingdon,Pubs,Champers,184 Field End Road,Eastcote,Pinner,E09000017,Hillingdon,51.57748789835152,-0.39874640784006377,511053.96993131575,187727.921921806,,E05000327,Cavendish,,E09000017,12/27/2020
Hillingdon,Pubs,Ascott,144 Field End Road,Eastcote,Pinner,E09000017,Hillingdon,51.57865826368288,-0.4001629419596976,510952.9699588609,187855.9218873508,,E05000329,Eastcote and East Ruislip,,E09000017,12/27/2020
Hillingdon,Pubs,Black Horse,"Black Horse Parade, Eastcote High Road",Eastcote,Pinner,E09000017,Hillingdon,51.584712552317924,-0.4062869025042245,510513.9700776957,188519.92170800595,,E05000329,Eastcote and East Ruislip,,E09000017,12/27/2020
Hillingdon,Pubs,Case Is Altered,Eastcote High Road,Eastcote,Pinner,E09000017,Hillingdon,51.58954760991708,-0.4047462204182941,510608.9700502668,189059.9215602628,,E05000329,Eastcote and East Ruislip,,E09000017,12/27/2020
Hillingdon,Pubs,Arens (Bar & Restaurant at the Woodman),Joel Street,Eastcote,,E09000017,Hillingdon,51.58927725376458,-0.4080181934899006,510382.9701116336,189024.9215696861,,E05000336,Northwood Hills,,E09000017,12/27/2020
Hillingdon,Pubs,Namaste Lounge,66 Joel Street,Northwood Hills,Northwood,E09000017,Hillingdon,51.59953132935704,-0.41020077184217335,510206.970158899,190161.92126205773,,E05000336,Northwood Hills,,E09000017,12/27/2020
Hillingdon,Pubs,Locker Room,"The Broadway, 29-31 Joel Street",Northwood Hills,Northwood,E09000017,Hillingdon,51.60110095561318,-0.4092362361373535,510269.9701418604,190337.92121441674,,E05000336,Northwood Hills,,E09000017,12/27/2020
Hillingdon,Pubs,Misty Moon,27 Green Lane,Northwood,,E09000017,Hillingdon,51.612107670323724,-0.42592302790846365,509087.9704639863,191536.9208881125,,E05000335,Northwood,,E09000017,12/27/2020
Hillingdon,Pubs,Gate,Rickmansworth Road,Northwood,,E09000017,Hillingdon,51.61415477688,-0.4371471117598337,508305.97067519976,191747.92083064723,,E05000335,Northwood,,E09000017,12/27/2020
Hillingdon,Pubs,London's Pride,Terminal 2 Airside,Heathrow Airport,Hounslow,E09000017,Hillingdon,51.46977708247814,-0.4495584934011519,507786.97081783554,175673.92519967817,,E05000331,Heathrow Villages,,E09000017,12/27/2020
Hillingdon,Pubs,Flying Chariot,Terminal 2 Landside,Heathrow Airport,Hounslow,E09000017,Hillingdon,51.46977708247814,-0.4495584934011519,507786.97081783554,175673.92519967817,,E05000331,Heathrow Villages,,E09000017,12/27/2020
Hillingdon,Pubs,Pilots,Terminal 3 Airside Level 1,Heathrow Airport,Hounslow,E09000017,Hillingdon,51.470836209689374,-0.45826246933162823,507179.97098288266,175778.92517114163,,E05000331,Heathrow Villages,,E09000017,12/27/2020
Hillingdon,Pubs,Three Magpies,Bath Road,Heathrow,,E09000017,Hillingdon,51.48107079437416,-0.45084641160812433,507670.970847477,176927.92485856148,,E05000331,Heathrow Villages,,E09000017,12/27/2020
Hillingdon,Pubs,Crown Rivers,Terminal 5 Airside Level 1,Heathrow Airport,Hounslow,E09000017,Hillingdon,51.47149256514529,-0.48723913897736953,505165.97152917733,175809.92516375857,,E05000331,Heathrow Villages,,E09000017,12/27/2020
Hillingdon,Pubs,Wetherspoon Express,Terminal 5B Airside,Heathrow Airport,Hounslow,E09000017,Hillingdon,51.47149256514529,-0.48723913897736953,505165.97152917733,175809.92516375857,,E05000331,Heathrow Villages,,E09000017,12/27/2020
Hillingdon,Pubs,George,Terminal 5 Landside Level 3 (Departures),Heathrow Airport,Hounslow,E09000017,Hillingdon,51.47149256514529,-0.48723913897736953,505165.97152917733,175809.92516375857,,E05000331,Heathrow Villages,,E09000017,12/27/2020
Hillingdon,Pubs,Huxleys,Terminal 5 Airside Level 2,Heathrow Airport,Hounslow,E09000017,Hillingdon,51.47149256514529,-0.48723913897736953,505165.97152917733,175809.92516375857,,E05000331,Heathrow Villages,,E09000017,12/27/2020
Hillingdon,Pubs,V Bar,Terminal 5 Airside,Heathrow Airport,,E09000017,Hillingdon,51.47149256514529,-0.48723913897736953,505165.97152917733,175809.92516375857,,E05000331,Heathrow Villages,,E09000017,12/27/2020
Hillingdon,Pubs,Prince of Wales,Terminal 4 Airside,Heathrow Airport,,E09000017,Hillingdon,51.45966718122641,-0.4473528536947876,507963.9707691287,174552.92550622282,,E05000331,Heathrow Villages,,E09000017,12/27/2020
Hillingdon,Pubs,Commission,Terminal 4 (Airside),Heathrow Airport,Hounslow,E09000017,Hillingdon,51.45966718122641,-0.4473528536947876,507963.9707691287,174552.92550622282,,E05000331,Heathrow Villages,,E09000017,12/27/2020
Hillingdon,Pubs,Vine Inn,121 Hillingdon Hill,Hillingdon,Uxbridge,E09000017,Hillingdon,51.5354212054702,-0.4611855081189033,506825.9710789658,182956.92321884277,,E05000340,Uxbridge North,,E09000017,12/27/2020
Hillingdon,Pubs,Tamara Lounge,"Byron Parade, Uxbridge Road",Hillingdon,Uxbridge,E09000017,Hillingdon,51.5288805862273,-0.4439047124857901,508039.9707478981,182254.92341004673,,E05000332,Hillingdon East,,E09000017,12/27/2020
Hillingdon,Pubs,Tichenham Inn,11 Swakeleys Road,Ickenham,Hillingdon,E09000017,Hillingdon,51.564458810431084,-0.44494026779390144,507883.9707892415,186209.922336585,,E05000333,Ickenham,,E09000017,12/27/2020
Hillingdon,Pubs,Soldiers Return,65 High Road,Ickenham,,E09000017,Hillingdon,51.56790926186628,-0.4413596344925487,508123.9707235934,186598.92223097093,,E05000343,West Ruislip,,E09000017,12/27/2020
Hillingdon,Pubs,Home (Bar & Kitchen),16 High Road,Ickenham,,E09000017,Hillingdon,51.564578320398425,-0.44310387000261,508010.97075471486,186225.92233192682,,E05000333,Ickenham,,E09000017,12/27/2020
Hillingdon,Pubs,Coach & Horses,High Road,Ickenham,,E09000017,Hillingdon,51.564578320398425,-0.44310387000261,508010.97075471486,186225.92233192682,,E05000333,Ickenham,,E09000017,12/27/2020
Hillingdon,Pubs,Swallow,Long Lane,Hillingdon,Uxbridge,E09000017,Hillingdon,51.55371841664343,-0.4487395801602663,507645.9708542791,185009.9226630588,,E05000340,Uxbridge North,,E09000017,12/27/2020
Hillingdon,Pubs,Stockley Pines,The Clubhouse,Stockley Park,Uxbridge,E09000017,Hillingdon,51.51324632611263,-0.444134372013497,508060.970741463,180515.92388434266,,E05000325,Botwell,,E09000017,12/27/2020
Hillingdon,Pubs,Captain Morgans,9 Clayton Road,Hayes,,E09000017,Hillingdon,51.50456654928422,-0.42110235901729237,509679.97030068625,179584.9241361564,,E05000325,Botwell,,E09000017,12/27/2020
Hillingdon,Pubs,Great Western,Dawley Road,Hayes,,E09000017,Hillingdon,51.49728387677739,-0.43055981651795316,509040.9704767778,178760.92435975024,,E05000337,Pinkwell,,E09000017,12/27/2020
Hillingdon,Pubs,Music Box,Bourne Avenue,Hayes,,E09000017,Hillingdon,51.50299479860476,-0.440045953801353,508368.9706591447,179381.92419049464,,E05000337,Pinkwell,,E09000017,12/27/2020
Hillingdon,Pubs,Botwell Inn,25-29 Coldharbour Lane,Hayes,,E09000017,Hillingdon,51.508308547449644,-0.41652032100528497,509988.9702153699,180007.92402214144,,E05000339,Townfield,,E09000017,12/27/2020
Hillingdon,Pubs,Beefeater,Millington Road,Hayes,,E09000017,Hillingdon,51.501975496516486,-0.4283671089350352,509181.9704379131,179285.9242163592,,E05000337,Pinkwell,,E09000017,12/27/2020
Hillingdon,Pubs,Old Crown,81 Station Road,Hayes,,E09000017,Hillingdon,51.50500714233059,-0.4190986975291001,509817.970262851,179636.9241221021,,E05000339,Townfield,,E09000017,12/27/2020
Hillingdon,Pubs,White Hart,158 High Street,Harlington,,E09000017,Hillingdon,51.48921568453039,-0.4357918518927221,508696.97056851233,177855.92460811703,,E05000331,Heathrow Villages,,E09000017,12/27/2020
Hillingdon,Pubs,Wheatsheaf,286 High Street,Harlington,,E09000017,Hillingdon,51.485453847708115,-0.434897923621036,508767.9705477507,177438.9247206773,,E05000331,Heathrow Villages,,E09000017,12/27/2020
Hillingdon,Pubs,Pheasant Inn,98 West End Lane,Harlington,Hayes,E09000017,Hillingdon,51.48519079520356,-0.4394438221315497,508452.970634053,177402.92473022308,,E05000331,Heathrow Villages,,E09000017,12/27/2020
Hillingdon,Pubs,Aroma,171 Yeading Lane,Yeading,,E09000017,Hillingdon,51.52414420553251,-0.3999842235766773,511097.96991777787,181793.9235381335,,E05000324,Barnhill,,E09000017,12/27/2020
Hillingdon,Pubs,Grapes,362 Uxbridge Road,Hayes,,E09000017,Hillingdon,51.517921376745804,-0.4052472313142946,510747.9700100904,181093.92372521432,,E05000324,Barnhill,,E09000017,12/27/2020
Hillingdon,Pubs,Olde Crowne,1090 Uxbridge Road,Hayes,,E09000017,Hillingdon,51.522803285727456,-0.4211347012075939,509633.970312607,181612.92358650523,,E05000324,Barnhill,,E09000017,12/27/2020
Hillingdon,Pubs,Adam & Eve,830 Uxbridge Rd,Hayes,,E09000017,Hillingdon,51.52160370039337,-0.41752936443029176,509886.97024372494,181484.92362132668,,E05000324,Barnhill,,E09000017,12/27/2020
Hillingdon,Pubs,Brook House,240 Kingshill Ave,Hayes,,E09000017,Hillingdon,51.532221993487276,-0.4200879119497866,509683.97030065453,182661.92330197553,,E05000328,Charville,,E09000017,12/27/2020
Hillingdon,Pubs,Wishing Well,1250-1256 Uxbridge Road,Hayes End,Hayes,E09000017,Hillingdon,51.525454748975974,-0.4337864985487717,508749.9705534822,181888.9235094231,,E05000328,Charville,,E09000017,12/27/2020
Hillingdon,Pubs,Carpenters,1370 Uxbridge Rd,Hayes End,,E09000017,Hillingdon,51.52601143551093,-0.43641989971838596,508565.9706038791,181946.92349355924,,E05000328,Charville,,E09000017,12/27/2020
Hillingdon,Pubs,Lock & Quay,"Willowtree Marina, West Quay Drive",Yeading,Hayes,E09000017,Hillingdon,51.522240981322305,-0.3838198062179975,512223.96960899996,181606.92358840816,,E05000344,Yeading,,E09000017,12/27/2020
Hillingdon,Pubs,Crown,High Street,Harmondsworth,West Drayton,E09000017,Hillingdon,51.48863205112107,-0.4782024645002712,505753.9713691649,177728.92464287096,,E05000331,Heathrow Villages,,E09000017,12/27/2020
Hillingdon,Pubs,Five Bells,High Street,Harmondsworth,West Drayton,E09000017,Hillingdon,51.48917154362936,-0.47819889601050547,505752.9713696237,177788.92462653242,,E05000331,Heathrow Villages,,E09000017,12/27/2020
Hillingdon,Pubs,White Horse,530 Bath Road,Longford Village,,E09000017,Hillingdon,51.480771712201246,-0.49064782168197874,504907.97159864334,176836.92488452577,,E05000331,Heathrow Villages,,E09000017,12/27/2020
Hillingdon,Pubs,Kings Arms,593 Bath Road,Longford Village,,E09000017,Hillingdon,51.480771712201246,-0.49064782168197874,504907.97159864334,176836.92488452577,,E05000331,Heathrow Villages,,E09000017,12/27/2020
Hillingdon,Pubs,King William,392 Sipson Road,Sipson,West Drayton,E09000017,Hillingdon,51.489935005718436,-0.45748883595477163,507188.9709811926,177903.92459466268,,E05000331,Heathrow Villages,,E09000017,12/27/2020
Hillingdon,Pubs,Plough,Sipson Road,Sipson,,E09000017,Hillingdon,51.49348265431056,-0.4578444017916614,507155.97099121555,178297.9244874132,,E05000331,Heathrow Villages,,E09000017,12/27/2020
Hillingdon,Pubs,George & Dragon,176 High Street,Yiewsley,,E09000017,Hillingdon,51.514786271079906,-0.47372717734263614,506003.9713009098,180643.92384922685,,E05000345,Yiewsley,,E09000017,12/27/2020
Hillingdon,Pubs,Railway Arms,1 Station Road,West Drayton,,E09000017,Hillingdon,51.50877627249253,-0.47348138332351997,506034.97129392857,179975.92403018603,,E05000342,West Drayton,,E09000017,12/27/2020
Hillingdon,Pubs,De Burgh Arms,High Street,Yiewsley,West Drayton,E09000017,Hillingdon,51.51017245995927,-0.47366526979727863,506018.97129794816,180130.9239881746,,E05000345,Yiewsley,,E09000017,12/27/2020
Hillingdon,Pubs,Six Bells,125 Station Road,West Drayton,,E09000017,Hillingdon,51.50639012420375,-0.469785903111351,506296.97122313327,179715.9241016545,,E05000342,West Drayton,,E09000017,12/27/2020
Hillingdon,Pubs,Cat & Fiddle,162 Rowan Road,West Drayton,,E09000017,Hillingdon,51.497016730499205,-0.4736586045467498,506049.97129085823,178667.9243876931,,E05000342,West Drayton,,E09000017,12/27/2020
Hillingdon,Pubs,Horton Lounge,191-193 Horton Road,Yiewsley,West Drayton,E09000017,Hillingdon,51.5112314127738,-0.462490250293329,506791.97108678985,180264.92395209265,,E05000345,Yiewsley,,E09000017,12/27/2020
Hillingdon,Pubs,Crowne Plaza Heathrow,Stockley Road,West Drayton,,E09000017,Hillingdon,51.499495986333116,-0.4542411960599176,507391.97092684486,178971.92430178344,,E05000342,West Drayton,,E09000017,12/27/2020
Hillingdon,Pubs,Fig Tree,49 Windsor Street,Uxbridge,,E09000017,Hillingdon,51.54540382245,-0.4805768600596172,505457.9714500717,184038.92292770615,,E05000341,Uxbridge South,,E09000017,12/27/2020
Hillingdon,Pubs,Metropolitan,8-9 Windsor Street,Uxbridge,,E09000017,Hillingdon,51.54540382245,-0.4805768600596172,505457.9714500717,184038.92292770615,,E05000341,Uxbridge South,,E09000017,12/27/2020
Hillingdon,Pubs,Queen's Head,54 Windsor Street,Uxbridge,,E09000017,Hillingdon,51.54540382245,-0.4805768600596172,505457.9714500717,184038.92292770615,,E05000341,Uxbridge South,,E09000017,12/27/2020
Hillingdon,Pubs,Chiquito,"INTU Uxbridge, High Street",Uxbridge,,E09000017,Hillingdon,51.53732623458814,-0.48733450868599104,505007.9715700295,183130.92317237932,,E05000341,Uxbridge South,,E09000017,12/27/2020
Hillingdon,Pubs,Three Tuns,24 High Street,Uxbridge,,E09000017,Hillingdon,51.5454317672897,-0.4785713369633045,505596.97141221794,184044.922925709,,E05000341,Uxbridge South,,E09000017,12/27/2020
Hillingdon,Pubs,Bar Italia,120 High Street,Uxbridge,,E09000017,Hillingdon,51.54838737959474,-0.48112646343438037,505412.97146369965,184369.92283811915,,E05000340,Uxbridge North,,E09000017,12/27/2020
Hillingdon,Pubs,Good Yarn,132 High Street,Uxbridge,,E09000017,Hillingdon,51.54774135997982,-0.48054224384098987,505454.97145196015,184298.92285728338,,E05000340,Uxbridge North,,E09000017,12/27/2020
Hillingdon,Pubs,Whelan's,135 High Street,Uxbridge,,E09000017,Hillingdon,51.54774135997982,-0.48054224384098987,505454.97145196015,184298.92285728338,,E05000340,Uxbridge North,,E09000017,12/27/2020
Hillingdon,Pubs,Frankie & Benny's,"intu Uxbridge, High Street",Uxbridge,,E09000017,Hillingdon,51.545466979169554,-0.4778202421550915,505648.97139806714,184049.9229242184,,E05000340,Uxbridge North,,E09000017,12/27/2020
Hillingdon,Pubs,Miller's Tap,219-221 High Street,Uxbridge,,E09000017,Hillingdon,51.54505576336413,-0.476622570266401,505732.97137499694,184005.92293586972,,E05000340,Uxbridge North,,E09000017,12/27/2020
Hillingdon,Pubs,Swan & Bottle,98 Oxford Road,Uxbridge,,E09000017,Hillingdon,51.550749142859964,-0.4836584101125941,505231.9715139527,184628.92276796576,,E05000340,Uxbridge North,,E09000017,12/27/2020
Hillingdon,Pubs,Uxbridge Sports Club,Park Road,Uxbridge,,E09000017,Hillingdon,51.551371069174834,-0.4713056487719993,506086.971280995,184715.92274378333,,E05000340,Uxbridge North,,E09000017,12/27/2020
Hillingdon,Pubs,Gardeners Arms,119 Park Road,Uxbridge,,E09000017,Hillingdon,51.54690333116371,-0.47210444061428175,506041.97129164514,184217.92287798697,,E05000340,Uxbridge North,,E09000017,12/27/2020
Hillingdon,Pubs,Three Steps,High Street,Cowley,,E09000017,Hillingdon,51.52979866721832,-0.482379726980353,505368.97147335624,182300.92339753057,,E05000341,Uxbridge South,,E09000017,12/27/2020
Hillingdon,Pubs,Runway,High Street,Cowley,Uxbridge,E09000017,Hillingdon,51.52716194251702,-0.4815304248173594,505433.97145660385,182008.92347773747,,E05000341,Uxbridge South,,E09000017,12/27/2020
Hillingdon,Pubs,Malt Shovel,63 Iver Lane,Cowley,Uxbridge,E09000017,Hillingdon,51.52913839898902,-0.4855588370863908,505149.971533014,182222.92341907864,,E05000341,Uxbridge South,,E09000017,12/27/2020
Hillingdon,Pubs,Waters Edge,Packet Boat Lane,Cowley Peachey,Uxbridge,E09000017,Hillingdon,51.51996991619411,-0.4830524723395748,505344.9714807786,181206.92369517306,,E05000345,Yiewsley,,E09000017,12/27/2020
Hillingdon,Pubs,Crown,High Street,Cowley,,E09000017,Hillingdon,51.53101809306797,-0.48210849709599407,505384.9714686118,182436.9233601485,,E05000341,Uxbridge South,,E09000017,12/27/2020
Hillingdon,Pubs,Dolphin,1 Rockingham Road,Uxbridge,,E09000017,Hillingdon,51.54414890210994,-0.4878437235037331,504956.9715857217,183888.92296870687,,E05000341,Uxbridge South,,E09000017,12/27/2020
Hillingdon,Pubs,General Eliott,St Johns Road,Uxbridge,,E09000017,Hillingdon,51.54096066840238,-0.4909488801292593,504748.9716409835,183529.92306511197,,E05000341,Uxbridge South,,E09000017,12/27/2020
Hillingdon,Pubs,Pipemakers Arms,58 St Johns Road,Uxbridge,,E09000017,Hillingdon,51.54096066840238,-0.4909488801292593,504748.9716409835,183529.92306511197,,E05000341,Uxbridge South,,E09000017,12/27/2020
Hillingdon,Pubs,Beefeater,3 Riverside Way,Uxbridge,,E09000017,Hillingdon,51.54452413884426,-0.4897493613202216,504823.971621973,183927.92295775493,,E05000341,Uxbridge South,,E09000017,12/27/2020
Hillingdon,Pubs,Hut,2 Old Orchard Close,Colham Green,Uxbridge,E09000017,Hillingdon,51.52051770599959,-0.4527224096752743,507447.97090944415,181311.92366637243,,E05000345,Yiewsley,,E09000017,12/27/2020
Hillingdon,Pubs,Red Lion Hotel,Royal Lane,Hillingdon,,E09000017,Hillingdon,51.53454384730771,-0.4607970340634582,506854.9710711413,182859.92324506264,,E05000326,Brunel,,E09000017,12/27/2020
Hillingdon,Pubs,Kings Arms,6 Park Lane,Harefield,Uxbridge,E09000017,Hillingdon,51.60455707166017,-0.483556119532083,505114.9715449923,190612.92113892315,,E05000330,Harefield,,E09000017,12/27/2020
Hillingdon,Pubs,Harefield,41 High Street,Harefield,Uxbridge,E09000017,Hillingdon,51.602007233011115,-0.48316455477470666,505147.9715360482,190329.9212148224,,E05000330,Harefield,,E09000017,12/27/2020
Hillingdon,Pubs,Old Orchard,"Jacks Lane, off Park Lane",Harefield,Uxbridge,E09000017,Hillingdon,51.603471282954324,-0.49071128057920577,504621.97167740786,190481.92117383948,,E05000330,Harefield,,E09000017,12/27/2020
Hillingdon,Pubs,Breakspear Arms,Breakspear Road,Ruislip Common,,E09000017,Hillingdon,51.57933267305352,-0.4483870940129467,507609.9708641617,187858.92188819515,,E05000330,Harefield,,E09000017,12/27/2020
Hillingdon,Set and exhibition building,Trinity Set Limited,Unit A Barton Buildings, Arundel Road,,E09000017,Hillingdon,51.5364156855967,-0.4915247368252291,504719.4616385604,183023.6631912304,10009948118,E05000341,Uxbridge South,https://trinityset.co.uk,E09000017,12/27/2020
Hillingdon,Skate Parks,Fassnidge-Park,,,,E09000017,Hillingdon,51.548413889043886,-0.4845599929855463,505174.8429274961,184367.93004111678,0,E05000341,Uxbridge South,www.hillingdon.gov.uk/skateparks,E09000017,12/27/2020
Hillingdon,Skate Parks,Ruislip,,,,E09000017,Hillingdon,51.58160194254856,-0.419839013431287,509582.5674975086,188153.64959098847,0,E05000329,Eastcote and East Ruislip,www.hillingdon.gov.uk/skateparks,E09000017,12/27/2020
Hillingdon,Skate Parks,Hayes,,,,E09000017,Hillingdon,51.500255172522984,-0.44047084662179764,508345.97524447023,179076.63142561947,0,E05000337,Pinkwell,www.hillingdon.gov.uk/skateparks,E09000017,12/27/2020
Hillingdon,Skate Parks,Pole-Hill,,,,E09000017,Hillingdon,51.539291253601036,-0.43937975613160646,508329.1314381436,183419.34808222146,0,E05000332,Hillingdon East,www.hillingdon.gov.uk/skateparks,E09000017,12/27/2020
Hillingdon,Theatre rehearsal studio,Winston Churchill Theatre,Manor Farm,Pinn Way,,E09000017,Hillingdon,51.57894530296579,-0.4287435141039275,508971.97037391935,187844.92177062976,100023034034,E05000329,Eastcote and East Ruislip,http://www.hillingdontheatres.uk/,E09000017,12/27/2020
Hillingdon,Theatre rehearsal studio,Compass Theatre,Glebe Avenue,Ickenham,,E09000017,Hillingdon,51.56084851181403,-0.4398698701078988,508243.97057035874,185815.9223199287,100023413466,E05000333,Ickenham,http://www.hillingdontheatres.uk/,E09000017,12/27/2020
Hillingdon,Theatres,The Beck Theatre,Grange Rd, Hayes,NA,E09000017,Hillingdon,51.52155420583695,-0.4233741268697176,509481.6069323767,181470.66440283752,10003001360,E05000339,Townfield,https://becktheatre.org.uk/,E09000017,12/27/2020
Hillingdon,Theatres,Winston Churchill Theatre,Manor Farm, Pinn Way, Ruislip,E09000017,Hillingdon,51.5794431637199,-0.43031895496640676,508861.6212039321,187897.94235629507,100023000000,E05000329,Eastcote and East Ruislip,http://www.hillingdontheatres.uk/index.php/hire/our-spaces/wct/,E09000017,12/27/2020
Hillingdon,Theatres,Compass Theatre,Glebe Ave, Ickenham,NA,E09000017,Hillingdon,51.5613488710283,-0.44144299583230084,508133.7410001039,185869.2393057444,100023000000,E05000333,Ickenham,http://www.hillingdontheatres.uk/,E09000017,12/27/2020
