BOROUGH,Cultural Venue Type,site_name,address1,address2,address3,borough_code,borough_name,latitude,longitude,easting,northing,os_addressbase_uprn,ward_2018_code,ward_2018_name,website,gss_code,runtime
Hounslow,Archives,National Air Traffic Services Ltd,Heathrow House Bath Road,,,E09000018,Hounslow,51.480449821417466,-0.4123305878836583,510346.8700001461,176916.22473955562,10091691519,E05000350,Cranford,https://www.nats.aero/,E09000018,12/27/2020
Hounslow,Archives,Hounslow and Feltham Local Studies Service,Feltham Library The Centre High Street,Feltham,,E09000018,Hounslow,51.4463633119518,-0.4110704173208177,510516.56995345914,173127.52576949197,100023000000,E05000352,Feltham West,https://www.hounslow.gov.uk/info/20136/other_library_services/1692/local_history_and_archives,E09000018,12/27/2020
Hounslow,Archives,London Museum of Water & Steam,Green Dragon Lane, Brentford,,E09000018,Hounslow,51.489055494314385,-0.29051757292184877,518782.8677068693,178063.62442901504,100023000000,E05000347,Brentford,https://www.waterandsteam.org.uk/,E09000018,12/27/2020
Hounslow,Archives,Leprosy Mission International,80 Windmill Road,Brentford,,E09000018,Hounslow,51.489612635736634,-0.30904398921805387,517495.2680558525,178095.7244201069,100023000000,E05000364,Syon,https://www.leprosymission.org/,E09000018,12/27/2020
Hounslow,Archives,Chiswick Library Local Studies Service,Chiswick Library, Duke's Avenue,NA,E09000018,Hounslow,51.491695739533334,-0.2610854659698276,520819.1671510435,178405.32433549804,200003000000,E05000365,Turnham Green,https://www.hounslow.gov.uk/info/20136/other_library_services/1692/local_history_and_archives,E09000018,12/27/2020
Hounslow,Archives,GlaxoSmithKline Heritage Archives,GSK House 980 Great West Road,Brentford,,E09000018,Hounslow,51.488699050526805,-0.315612974041108,517041.56817859074,177983.6244505266,200004000000,E05000347,Brentford,https://www.gsk.com/en-gb/about-us/our-history/gsk-heritage-archives/,E09000018,12/27/2020
Hounslow,Archives,Gunnersbury Park Museum,Gunnersbury Park Popes Lane,,,E09000018,Hounslow,51.499543486568186,-0.2863214492514708,519046.8676347975,179236.72410712816,200004000000,E05000347,Brentford,http://www.visitgunnersbury.org/,E09000018,12/27/2020
Hounslow,Artists workspaces,ART AND CRAFT STUDIOS,"Reddlees Park, Worton Road",,,E09000018,Hounslow,51.46693811950627,-0.332369119175883,515933.37848230696,175537.12511467107,10091692695,E05000362,Isleworth,www.redlees.org,E09000018,12/27/2020
Hounslow,Artists workspaces,Pavilion Studios,Pavilion Studios,Market Drive (off Alexandra Gardens),,E09000018,Hounslow,51.48079098216848,-0.25610240138303814,521193.9670490471,177200.92466147692,10001273971,E05000348,Chiswick Homefields,http://dukesmeadowstrust.org/studios/,E09000018,12/27/2020
Hounslow,Artists workspaces,,Johnsons Island,Catherine Wheel Rd,,E09000018,Hounslow,51.482249750980586,-0.3053888340585829,517767.96798071644,177282.8246396457,10001273963,E05000364,Syon,www.brentfordgallery.co.uk,E09000018,12/27/2020
Hounslow,Artists workspaces,The Forge / Diesel House Studios,London Museum of Water and Steam,Green Dragon Lane,,E09000018,Hounslow,51.489055494314385,-0.29051757292184877,518782.8677068693,178063.62442901504,100023407522,E05000347,Brentford,http://www.madeatkewbridge.co.uk,E09000018,12/27/2020
Hounslow,Arts centres,The Arts Centre Houndslow , First Floor, Treaty Centre,High Street,E09000018,Hounslow,51.4681335261444,-0.3630253474275807,513801.10906005075,175622.01509234414,10091692850,E05000358,Hounslow Central,http://www.hounslowartscentre.co.uk/,E09000018,12/27/2020
Hounslow,Arts centres,Watermans Arts Centre,40 High St,Brentford ,,E09000018,Hounslow,51.485768357508256,-0.29804237060391664,518268.9678445704,177685.9245303647,100023407377,E05000347,Brentford,https://www.watermans.org.uk/,E09000018,12/27/2020
Hounslow,Cinemas,Cineworld Felham,Leisure west,Air Park Way,,E09000018,Hounslow,51.44390484979243,-0.40457378259497034,510973.9699517116,172863.9259624165,100023517705,E05000354,Hanworth Park,www.cineworld.co.uk,E09000018,12/27/2020
Hounslow,Cinemas,Watermans Art Centre,,40 High St,,E09000018,Hounslow,51.485768358580174,-0.29804236880536034,518268.9679666694,177685.9246524641,100023407377,E05000347,Brentford,,E09000018,12/27/2020
Hounslow,Community centres,Sparrow Farm Community Centre,Sparrow Farm Drive,Hounslow,NA,E09000018,Hounslow,51.45210337408691,-0.3970228239100697,511478.76980130514,173787.12566256302,10090800595,E05000351,Feltham North,,E09000018,12/27/2020
Hounslow,Community centres,Mission Hall Community Centre,Mission Square,Hounslow,NA,E09000018,Hounslow,51.48767335002994,-0.29868587286247195,518219.36794455035,177896.72458350944,100023407847,E05000347,Brentford,,E09000018,12/27/2020
Hounslow,Community centres,Oriel Community Centre,16 Chamberlain Walk,Hounslow,NA,E09000018,Hounslow,51.434608957884016,-0.3885382305680619,512111.0696189715,171854.5362224739,10001263362,E05000353,Hanworth,,E09000018,12/27/2020
Hounslow,Community centres,Rose Community Hall & MUGA,Hawthorn Road,Hounslow,NA,E09000018,Hounslow,51.480624742511175,-0.3191363879562541,516817.5683391302,177080.12476784614,10023861919,E05000364,Syon,,E09000018,12/27/2020
Hounslow,Community centres,Moulton Avenue Community Centre,14-16 Moulton Avenue,Hounslow,NA,E09000018,Hounslow,51.47592042267702,-0.3821439806643801,512454.06952257134,176458.42498666234,10090800372,E05000355,Heston Central,,E09000018,12/27/2020
Hounslow,Community centres,Dukes Meadow Community Centre,Alexandra Gardens,Hounslow,NA,E09000018,Hounslow,51.48068919712334,-0.2570170490765613,521130.7271370241,177188.0947700382,10090800597,E05000348,Chiswick Homefields,,E09000018,12/27/2020
Hounslow,Community centres,Alf Chandler Centre,Benson Close,Hounslow,NA,E09000018,Hounslow,51.465635088263205,-0.37284335933782375,513125.3593193259,175328.97528275766,10090800598,E05000359,Hounslow Heath,,E09000018,12/27/2020
Hounslow,Community centres,Clayponds Community Centre,Clayponds Gardens,Hounslow,NA,E09000018,Hounslow,51.495267772612394,-0.3044738971459588,517797.96809682884,178731.92436865682,10001273919,E05000347,Brentford,,E09000018,12/27/2020
Hounslow,Community centres,Brickfield Community Centre,Brickfield Close,Hounslow,NA,E09000018,Hounslow,51.48245924771841,-0.3147245343432277,517119.2182809706,177291.16475011525,10091692313,E05000364,Syon,,E09000018,12/27/2020
Hounslow,Community centres,Gunnersbury Close,Chiswick High Road,Hounslow,NA,E09000018,Hounslow,51.492221338131,-0.2731688816935405,519978.9675033746,178443.92444730928,10091693280,E05000365,Turnham Green,,E09000018,12/27/2020
Hounslow,Community centres,Heston Farm,15 Biscoe Close ,Hounslow,NA,E09000018,Hounslow,51.488310637590004,-0.3688054047860142,513349.66925639816,177856.82456898387,10093256965,E05000356,Heston East,,E09000018,12/27/2020
Hounslow,Community centres,ROWE Community Centre,Unwin Road,Hounslow,NA,E09000018,Hounslow,51.47016838689068,-0.33917199297529527,515452.7286837352,175885.60513469722,10093259960,E05000362,Isleworth,,E09000018,12/27/2020
Hounslow,Community centres,Brabazon Community Centre,106 Brabazon Road,Hounslow,NA,E09000018,Hounslow,51.481500313601224,-0.39588894341303693,511485.9698110499,177057.92482344573,100021541439,E05000357,Heston West,,E09000018,12/27/2020
Hounslow,Community centres,Hogarth Meeting room ,Devonshire Street,Hounslow,NA,E09000018,Hounslow,51.48806708185498,-0.2569570264182978,521115.3671559298,178008.62451616058,100023490874,E05000365,Turnham Green,,E09000018,12/27/2020
Hounslow,Community centres,Bedfont Lane Community Centre,9 Proctors Close,Hounslow,NA,E09000018,Hounslow,51.44871636520089,-0.4142276952391658,510291.51011463336,173384.4557907915,100023517978,E05000352,Feltham West,,E09000018,12/27/2020
Hounslow,Community centres,The Bridgelink Centre,373 Summerwood Road,Hounslow,NA,E09000018,Hounslow,51.45876034861701,-0.33173731378780097,515997.9685853764,174628.72547058947,200003977680,E05000362,Isleworth,,E09000018,12/27/2020
Hounslow,Community centres,The Hub Community Centre,103 Salisbury Road,Hounslow,NA,E09000018,Hounslow,51.47013034738783,-0.3963595952336592,511480.96981309715,175792.8251298534,100023405001,E05000350,Cranford,https://fsd.hounslow.gov.uk/kb5/hounslow/fsd/service.page?id=O3TyhTLjDLY,E09000018,12/27/2020
Hounslow,Community centres,Convent Way Community Centre,Convent Way,Hounslow,NA,E09000018,Hounslow,51.495418652933395,-0.39469184836942,511535.16974862,178607.52437855484,10090800594,E05000357,Heston West,https://cig.hounslow.gov.uk/kb5/hounslow/community/service.page?id=tDACEAJwjPI#,E09000018,12/27/2020
Hounslow,Community centres,Belvedere House,Lemon Grove,Hounslow,NA,E09000018,Hounslow,51.44571804506175,-0.4134226114926062,510354.6700703819,173052.22589983977,200003966233,E05000352,Feltham West,http://fcda.org.uk/,E09000018,12/27/2020
Hounslow,Community centres,Hartlands Community Centre,Water Church Road, Heston,NA,E09000018,Hounslow,51.49075194195091,-0.40846075795742354,510590.6900255333,178067.6945071469,100023405671,E05000357,Heston West,,E09000018,12/27/2020
Hounslow,Community centres,Hunter House,Highfields Estate - Hazel Grove,NA,NA,E09000018,Hounslow,51.446437675339766,-0.4141139039250533,510304.900125506,173131.21586880746,200003966196,E05000352,Feltham West,,E09000018,12/27/2020
Hounslow,Dance performance venues,Watermans Arts Centre,40 High Stree,,,E09000018,Hounslow,51.485768357508256,-0.29804237060391664,518268.9678445704,177685.9245303647,100023407377,E05000347,Brentford,https://www.watermans.org.uk,E09000018,12/27/2020
Hounslow,Dance performance venues,The Tabard Theatre,2 Bath Road,,,E09000018,Hounslow,51.49569248973641,-0.2546414211946523,521255.9070308822,178860.41421115585,200002818754,E05000348,Chiswick Homefields,http://www.tabardtheatre.co.uk,E09000018,12/27/2020
Hounslow,Dance rehearsal studios,Frances Lundy School of Dance,3 Bond Street,,,E09000018,Hounslow,51.492996912130096,-0.25847461671210853,520996.96710226126,178554.32429500198,200002818991,E05000365,Turnham Green,http://www.franceslundyschoolofdance.co.uk,E09000018,12/27/2020
Hounslow,Dance rehearsal studios,The Arts Educational London Schools Theatre,14 Bath Road,,,E09000018,Hounslow,51.4959606390589,-0.2524116936930793,521409.96698867955,178893.92420180276,200002818756,E05000348,Chiswick Homefields,https://artsed.co.uk,E09000018,12/27/2020
Hounslow,Dance rehearsal studios,Watermans Arts Centre,40 High Stree,,,E09000018,Hounslow,51.485768357508256,-0.29804237060391664,518268.9678445704,177685.9245303647,100023407377,E05000347,Brentford,https://www.watermans.org.uk,E09000018,12/27/2020
Hounslow,Dance rehearsal studios,The Tabard Theatre,2 Bath Road,,,E09000018,Hounslow,51.49569248973641,-0.2546414211946523,521255.9070308822,178860.41421115585,200002818754,E05000348,Chiswick Homefields,http://www.tabardtheatre.co.uk,E09000018,12/27/2020
Hounslow,Jewellery design,Art Vivid Ltd,168 Thornbury Road,Thornbury Road,,E09000018,Hounslow,51.4832490393228,-0.34827112849473135,514787.9689112152,177325.92474824795,100021575869,E05000363,Osterley and Spring Grove,,E09000018,12/27/2020
Hounslow,Jewellery design,Black Astrum Limited,Prospect House,67 Boston Manor Road,,E09000018,Hounslow,51.48949610183176,-0.31456952372760644,517111.9682814359,178073.9245481579,10091851872,E05000347,Brentford,,E09000018,12/27/2020
Hounslow,Jewellery design,Demec Limited,4a Cavendish Terrace,High Street,,E09000018,Hounslow,51.442287066019325,-0.41258743911775636,510420.9701010587,172671.92601450742,100023399028,E05000354,Hanworth Park,http://www.demecjewellers.com,E09000018,12/27/2020
Hounslow,Libraries,Hanworth Library,Hampton Road West,Feltham,,E09000018,Hounslow,51.440345467176584,-0.3888989790557881,512071.9696514228,172491.92606236966,100023517802,E05000353,Hanworth,,E09000018,12/27/2020
Hounslow,Libraries,Feltham Library,High Street,Feltham,,E09000018,Hounslow,51.446363312810824,-0.41107041588513893,510516.57005115296,173127.52586718474,100023399114,E05000352,Feltham West,,E09000018,12/27/2020
Hounslow,Libraries,Bedfont Library,Staines Road,Feltham,,E09000018,Hounslow,51.45205186179584,-0.43421019079699963,508895.07049041585,173725.52570352075,100023400018,E05000346,Bedfont,,E09000018,12/27/2020
Hounslow,Libraries,Isleworth Library,Twickenham Road,Isleworth,,E09000018,Hounslow,51.46690964969812,-0.3301156693406273,516089.9685614265,175537.52521190554,100023407264,E05000362,Isleworth,,E09000018,12/27/2020
Hounslow,Libraries,Hounslow Library,High Street,Hounslow,,E09000018,Hounslow,51.468133526919225,-0.36302534630997413,513801.1091357505,175622.0151802436,100023402396,E05000358,Hounslow Central,,E09000018,12/27/2020
Hounslow,Libraries,Beavers Library,Salisbury Road,Hounslow,,E09000018,Hounslow,51.470237543091585,-0.39640594401295276,511477.4897725192,175804.6751632457,10093260482,E05000350,Cranford,,E09000018,12/27/2020
Hounslow,Libraries,Cranford Library,Bath Road,Hounslow,,E09000018,Hounslow,51.47815067032317,-0.4064455416865627,510761.06998417294,176669.42492911842,100023405818,E05000350,Cranford,,E09000018,12/27/2020
Hounslow,Libraries,Osterley Library,St Marys Crescent,Isleworth,,E09000018,Hounslow,51.4823315350001,-0.34589192088611076,514955.46886653034,177227.62472664565,100023406343,E05000363,Osterley and Spring Grove,,E09000018,12/27/2020
Hounslow,Libraries,Heston Library,New Heston Road,Hounslow,,E09000018,Hounslow,51.485872150493414,-0.37542855114030926,512895.86939250183,177575.42468321114,100023405372,E05000355,Heston Central,,E09000018,12/27/2020
Hounslow,Libraries,Brentford Library ,Boston Manor Road,Brentford,,E09000018,Hounslow,51.48661122411974,-0.3075706338514477,517605.26813550416,177764.32459491026,100023408161,E05000347,Brentford,,E09000018,12/27/2020
Hounslow,Libraries,Chiswick Library,Dukes Avenue,,,E09000018,Hounslow,51.4916957402861,-0.26108546488676,520819.1672242407,178405.3244209914,200002819006,E05000365,Turnham Green,,E09000018,12/27/2020
Hounslow,Making and manufacturing,FBFX Limited,Unit 4 Vector Park,Forest Road,,E09000018,Hounslow,51.440814725477765,-0.40203530060463377,511157.8698651846,172524.1160570227,10091689757,E05000354,Hanworth Park,https://www.fbfx.co.uk,E09000018,12/27/2020
Hounslow,Museums and public galleries,Musical Museum,399 High St,Brentford,NA,E09000018,Hounslow,51.48790923874873,-0.2931329955899753,518604.26786463335,177931.9245865402,10001271544,E05000347,Brentford,https://www.musicalmuseum.co.uk/,E09000018,12/27/2020
Hounslow,Museums and public galleries,The London Museum of Water and Steam,Green Dragon Lane,Brentford,NA,E09000018,Hounslow,51.489055494954336,-0.2905175716664339,518782.86779236386,178063.62450221286,100023407522,E05000347,Brentford,www.​waterandsteam.​org.​uk,E09000018,12/27/2020
Hounslow,Museums and public galleries,Hogarthâs House,Greater London,NA,NA,E09000018,Hounslow,51.48701875327443,-0.25498738895549555,521254.887137769,177895.30460051697,100023518941,E05000348,Chiswick Homefields,http://www.hounslow.info/arts-culture/historic-houses-museums/hogarth-house/#,E09000018,12/27/2020
Hounslow,Museums and public galleries,Osterley Park House,Jersey Road,Isleworth,NA,E09000018,Hounslow,51.48949015572655,-0.35174173112339957,514531.3689475135,178014.52453660412,200003968705,E05000363,Osterley and Spring Grove,https://www.nationaltrust.org.uk/osterley-park-and-house?p=1356312744250,E09000018,12/27/2020
Hounslow,Museums and public galleries,Gunnersbury Park Museum,Gunnersbury Park,Popes Ln,NA,E09000018,Hounslow,51.49954348753787,-0.2863214479833223,519046.86772029125,179236.7242170201,200003970213,E05000347,Brentford,www.hounslow.info âº Arts & Culture âº Historic Houses & Museums,E09000018,12/27/2020
Hounslow,Music (office based businesses),Undo Records Ltd,67 Hounslow Road,Hounslow,,E09000018,Hounslow,51.43613272487042,-0.3918526962320033,511876.9697062122,172018.92619177216,100000000000,E05000353,Hanworth,,E09000018,12/27/2020
Hounslow,Music (office based businesses),Elysian Records Ltd,52 Exeter Road,Hounslow,,E09000018,Hounslow,51.43947789141528,-0.376857632917816,512910.96942241193,172413.926083337,100000000000,E05000353,Hanworth,,E09000018,12/27/2020
Hounslow,Music (office based businesses),Asian Music Publishing Ltd,54 Bell Road,Hounslow,,E09000018,Hounslow,51.46608139056893,-0.3642381492212742,513721.9692036622,175391.9252766908,100000000000,E05000358,Hounslow Central,,E09000018,12/27/2020
Hounslow,Music (office based businesses),Vaguely Strange Records Ltd,34 Smallberry Avenue,Hounslow,,E09000018,Hounslow,51.473126575826655,-0.33134313764859485,515988.96858876984,176226.92504818144,100000000000,E05000364,Syon,,E09000018,12/27/2020
Hounslow,Music (office based businesses),Republic Artists Ltd,91 College Road,Hounslow,,E09000018,Hounslow,51.479265998064804,-0.3362316177661279,515633.9686841612,176901.9248646723,100000000000,E05000363,Osterley And Spring Grove,,E09000018,12/27/2020
Hounslow,Music (office based businesses),Incentive Music,Reverb House Bennett Street,Hounslow,,E09000018,Hounslow,51.4875162740177,-0.25541376399586757,521223.96716326126,177949.9245804713,10091855780,E05000365,Turnham Green,,E09000018,12/27/2020
Hounslow,Music (office based businesses),Jumbuck Ltd,25 Pyrmont Road,Hounslow,,E09000018,Hounslow,51.48798007185687,-0.2831958921195102,519293.96768950793,177955.9245800221,100000000000,E05000349,Chiswick Riverside,www.jumbuck.co.uk,E09000018,12/27/2020
Hounslow,Music (office based businesses),Mr Records Ltd,10 Raleigh Road,Hounslow,,E09000018,Hounslow,51.49443612271959,-0.38705081479413184,512067.9696537595,178509.9244295286,100000000000,E05000356,Heston East,,E09000018,12/27/2020
Hounslow,Music (office based businesses),Spilt Milk Records Ltd,49 Windmill Road,Hounslow,,E09000018,Hounslow,51.49399030736574,-0.2565783714382618,521125.96718896413,178667.924385646,100000000000,E05000365,Turnham Green,,E09000018,12/27/2020
Hounslow,Music (office based businesses),Breakin Bread Records Ltd,15 Lionel Road North,Hounslow,,E09000018,Hounslow,51.49676102393299,-0.29767610381392146,518265.96796977223,178908.92431922577,100000000000,E05000347,Brentford,,E09000018,12/27/2020
Hounslow,Music recording studios,Cool Music Ltd,1a Fishers Lane,Hounslow,,E09000018,Hounslow,51.492733292602246,-0.2597379499716308,520909.96724831685,178522.9244252494,100000000000,E05000365,Turnham Green,http://www.coolmusicltd.com,E09000018,12/27/2020
Hounslow,Music recording studios,Metropolis Studios,Flat 9 The Power House,70,Chiswick High Road,E09000018,Hounslow,51.49388482754721,-0.2494946659459165,521617.9670546729,178667.92438559188,100000000000,E05000348,Chiswick Homefields,,E09000018,12/27/2020
Hounslow,Music rehearsal studios,The Boogie Trap,111 Power Road,Hounslow,,E09000018,Hounslow,51.49455729703535,-0.2791455527473355,519557.9676184383,178693.92437883676,10091857586,E05000365,Turnham Green,www.theboogietrap.com,E09000018,12/27/2020
Hounslow,Music rehearsal studios,Arch Studios,Arch 196 Prebend Gardens,Stamford Brook,,E09000018,Hounslow,51.494898953550546,-0.24694910276368218,521791.9670073398,178784.92435342184,0,E05000348,Chiswick Homefields,www.archstudios.co.uk,E09000018,12/27/2020
Hounslow,Music venues (all),Swan,Saracen House Swan Street,Hounslow,,E09000018,HOUNSLOW,51.4692819734679,-0.32281276861211994,516591.16830210824,175812.92503809946,100023407007,E05000362,Isleworth,www.swaninnisleworth.co.uk,E09000018,12/27/2020
Hounslow,Music venues (all),Royal Oak,128 Worton Road,Hounslow,,E09000018,Hounslow,51.46709872787926,-0.3406476955357204,515357.96876095806,175541.92523474206,100000000000,E05000362,Isleworth,www.royaloakisleworth.co.uk,E09000018,12/27/2020
Hounslow,Music venues (all),Club K Hounslow,236a High Street,Hounslow,,E09000018,Hounslow,51.4683648209,-0.36548108796906076,513629.96922835114,175643.92520855065,100000000000,E05000358,Hounslow Central,,E09000018,12/27/2020
Hounslow,Music venues (all),Castle,18 Upper Square,Hounslow,,E09000018,Hounslow,51.46837237637158,-0.324605516401502,516468.9684575855,175708.92518839508,100000000000,E05000362,Isleworth,,E09000018,12/27/2020
Hounslow,Music venues (all),Red Lion,92-94 Linkfield Road,Hounslow,,E09000018,Hounslow,51.47353231967196,-0.33394904139377,515806.96863831015,176267.92503734294,100000000000,E05000364,Syon,www.red-lion.info,E09000018,12/27/2020
Hounslow,Music venues (all),O'briens,11 London Road,Hounslow,,E09000018,Hounslow,51.482212670056,-0.3127353179940559,517257.9682428778,177266.92476596794,100000000000,E05000364,Syon,,E09000018,12/27/2020
Hounslow,Music venues (all),Brewery Tap,Catherine Wheel Road Hounslow,,,E09000018,Hounslow,51.482433478976816,-0.30621735636612524,517709.96811870986,177301.9247561586,100000000000,E05000364,Syon,www.brewery-tap-brentford.co.uk,E09000018,12/27/2020
Hounslow,Music venues (all),Queens Head,123 High Street,Hounslow,,E09000018,Hounslow,51.48500985121144,-0.4053006255682642,510823.96999127656,177433.92471980205,200000000000,E05000357,Heston West,www.queens-head-cranford.co.uk,E09000018,12/27/2020
Hounslow,Music venues (all),Watermans Arms,1 Ferry Lane,Hounslow,,E09000018,Hounslow,51.48398492923208,-0.30094610790972653,518071.96801913093,177482.92470634793,100000000000,E05000364,Syon,www.watermans-arms.co.uk,E09000018,12/27/2020
Hounslow,Music venues (all),One Over The Ait,Unit 4 8,Kew Bridge Road,Hounslow,E09000018,Hounslow,51.488045968603224,-0.28832125980213424,518937.9677864558,177954.92458018294,10093259940,E05000347,Brentford,www.oneovertheait.co.uk,E09000018,12/27/2020
Hounslow,Music venues (all),The Globe,104 Windmill Road,Hounslow,,E09000018,Hounslow,51.49052407011647,-0.30976363475014124,517442.9681921133,178195.92451476876,100000000000,E05000347,Brentford,www.theglobebrentford.com,E09000018,12/27/2020
Hounslow,Music venues (all),Pilot,56 Wellesley Road,Hounslow,,E09000018,Hounslow,51.49025614904671,-0.2777374217634052,519666.96758829436,178217.9245086605,200000000000,E05000365,Turnham Green,www.pilot-chiswick.co.uk,E09000018,12/27/2020
Hounslow,Music venues (all),George Iv,185 Chiswick High Road,Hounslow,,E09000018,Hounslow,51.49222618897827,-0.25707786082956813,521095.9671975189,178470.9244395226,100000000000,E05000365,Turnham Green,www.georgeiv.co.uk,E09000018,12/27/2020
Hounslow,Music venues (all),Old Pack Horse,434 Chiswick High Road,Hounslow,,E09000018,Hounslow,51.492917126855204,-0.26668886366972944,520426.96738044627,178531.92442269932,100000000000,E05000365,Turnham Green,www.oldpackhorsechiswick.co.uk,E09000018,12/27/2020
Hounslow,Outdoor spaces for cultural use,Gunnersbury Park,Popes Lane,Acton,,E09000018,Hounslow,51.498509539729554,-0.29356484052540993,518546.80346432765,179110.00623430312,,E05000347,Brentford,http://www.visitgunnersbury.org/visit/,E09000018,12/27/2020
Hounslow,Prop and costume making,FBFX Limited,Unit 4 Vector Park, Forest Road,,E09000018,Hounslow,51.440814725477765,-0.40203530060463377,511157.8698651846,172524.1160570227,10091689757,E05000354,Hanworth Park,https://www.fbfx.co.uk,E09000018,12/27/2020
Hounslow,Pubs,KTM ROX,49 High Street,Feltham,,E09000018,Hounslow,51.443553250153954,-0.41113336330408146,510518.9700746792,172814.925975907,,E05000354,Hanworth Park,,E09000018,12/27/2020
Hounslow,Pubs,Moon on the Square,"30 The Centre, High Street",Feltham,,E09000018,Hounslow,51.446544443616965,-0.41090007764281283,510527.9700724919,173147.92588607676,,E05000352,Feltham West,,E09000018,12/27/2020
Hounslow,Pubs,Three Horseshoes,1 Sunbury Road,Feltham,,E09000018,Hounslow,51.43629687202822,-0.41980168038084176,509933.97023523273,171994.92620029155,,E05000354,Hanworth Park,,E09000018,12/27/2020
Hounslow,Pubs,General Roy,7 Poplar Way,Feltham,,E09000018,Hounslow,51.438007974328144,-0.4113400895512215,510517.97007579054,172197.9261443487,,E05000354,Hanworth Park,,E09000018,12/27/2020
Hounslow,Pubs,Frankie & Benny's,"Leisure West, Browells Lane",Feltham,,E09000018,Hounslow,51.44260807999597,-0.40641763237006445,510848.969985411,172716.92600220913,,E05000354,Hanworth Park,,E09000018,12/27/2020
Hounslow,Pubs,Green Man,Green Man Lane,Hatton,Feltham,E09000018,Hounslow,51.465409561367665,-0.41616217783774473,510116.97018422344,175237.92531923053,,E05000351,Feltham North,,E09000018,12/27/2020
Hounslow,Pubs,Bell on the Green,"661 Staines Road, Feltham",Bedfont,Feltham,E09000018,Hounslow,51.45109183852324,-0.438821126940957,508576.97060238954,173611.92575862934,,E05000346,Bedfont,,E09000018,12/27/2020
Hounslow,Pubs,Load of Hay - Galicja Restaurant,"330 Staines Road, Feltham",Bedfont (East),Feltham,E09000018,Hounslow,51.45471551703438,-0.4253551471097413,509503.9703486443,174034.92564570898,,E05000346,Bedfont,,E09000018,12/27/2020
Hounslow,Pubs,Beehive,"333 Staines Road, Feltham",Bedfont,Feltham,E09000018,Hounslow,51.455439973391414,-0.4197168120078964,509893.9702421514,174123.92562223284,,E05000351,Feltham North,,E09000018,12/27/2020
Hounslow,Pubs,Duke of Wellington,331 Hatton Road,Bedfont (East),Feltham,E09000018,Hounslow,51.46236461037172,-0.4271074782420615,509363.9703874688,174882.92541570106,,E05000346,Bedfont,,E09000018,12/27/2020
Hounslow,Pubs,Bulstrode,55 Lampton Road,Hounslow,,E09000018,Hounslow,51.47040357381947,-0.36658890012832684,513547.9692504176,175868.92514810216,,E05000358,Hounslow Central,,E09000018,12/27/2020
Hounslow,Pubs,Coach & Horses,684 London Road,Hounslow,,E09000018,Hounslow,51.471693526009254,-0.35081943093994733,514639.96895586915,176036.9251010415,,E05000358,Hounslow Central,,E09000018,12/27/2020
Hounslow,Pubs,Gio's Bar,113 High Street,Hounslow,,E09000018,Hounslow,51.46962024825887,-0.35815080592802184,514135.969091792,175794.92516694323,,E05000358,Hounslow Central,,E09000018,12/27/2020
Hounslow,Pubs,Sun,148 Hanworth Road,Hounslow,,E09000018,Hounslow,51.46715514900258,-0.3619249819889668,513879.96916086087,175514.92524319777,,E05000358,Hounslow Central,,E09000018,12/27/2020
Hounslow,Pubs,Lord Clyde,77 Inwood Road,Hounslow,,E09000018,Hounslow,51.465915759531924,-0.35946429523367435,514053.9691137817,175380.92527910642,,E05000358,Hounslow Central,,E09000018,12/27/2020
Hounslow,Pubs,Bell,2 Staines Road,Hounslow,,E09000018,Hounslow,51.46759590190023,-0.3664443943272817,513564.9692459238,175556.9252327244,,E05000359,Hounslow Heath,,E09000018,12/27/2020
Hounslow,Pubs,Moon Under Water,84-88 Staines Road,Hounslow,,E09000018,Hounslow,51.46698843883485,-0.36931673240067714,513366.9692996645,175484.92525262362,,E05000359,Hounslow Heath,,E09000018,12/27/2020
Hounslow,Pubs,Lamplighter,66 Staines Road,Hounslow,,E09000018,Hounslow,51.46698843883485,-0.36931673240067714,513366.9692996645,175484.92525262362,,E05000359,Hounslow Heath,,E09000018,12/27/2020
Hounslow,Pubs,Royal Albion,58 Hibernia Road,Hounslow,,E09000018,Hounslow,51.46430344044175,-0.36893735100624225,513399.9692913496,175186.92533361493,,E05000359,Hounslow Heath,,E09000018,12/27/2020
Hounslow,Pubs,Cross Lances,236 Hanworth Road,Hounslow,,E09000018,Hounslow,51.46482389130583,-0.36434069516872525,513717.9692049006,175251.92531516205,,E05000359,Hounslow Heath,,E09000018,12/27/2020
Hounslow,Pubs,White Bear,198 Kingsley Road,Hounslow,,E09000018,Hounslow,51.47609311308311,-0.36059686941402647,513949.9691419335,176510.92497361108,,E05000358,Hounslow Central,,E09000018,12/27/2020
Hounslow,Pubs,Black Horse,203 Lampton Road,Hounslow,,E09000018,Hounslow,51.477146971187416,-0.3632951674441391,513759.9691930959,176623.92494258523,,E05000358,Hounslow Central,,E09000018,12/27/2020
Hounslow,Pubs,Hussar,495-497 Staines Road,Hounslow,,E09000018,Hounslow,51.463361075456376,-0.38726823816828726,512128.969636241,175053.92536892463,,E05000361,Hounslow West,,E09000018,12/27/2020
Hounslow,Pubs,Honeycombe,417 Staines Road,Hounslow,,E09000018,Hounslow,51.463361075456376,-0.38726823816828726,512128.969636241,175053.92536892463,,E05000361,Hounslow West,,E09000018,12/27/2020
Hounslow,Pubs,African Queen,315 Wellington Road South,Hounslow,,E09000018,Hounslow,51.46157712160117,-0.3759443363490604,512919.96942172764,174872.92541877337,,E05000359,Hounslow Heath,,E09000018,12/27/2020
Hounslow,Pubs,Keg & Cask,286 Bath Road,Hounslow,,E09000018,Hounslow,51.47279326316678,-0.3865469289477894,512155.96962855564,176103.92508303927,,E05000361,Hounslow West,,E09000018,12/27/2020
Hounslow,Pubs,Rose & Crown,220 Heston Road,Heston,Hounslow,E09000018,Hounslow,51.48631224908612,-0.3731213542230718,513054.96938573674,177627.92466858547,,E05000356,Heston East,,E09000018,12/27/2020
Hounslow,Pubs,Queen's Head,123 High Street,Cranford,,E09000018,Hounslow,51.485009851215054,-0.40530062556813756,510823.96999127674,177433.9247202042,,E05000357,Heston West,,E09000018,12/27/2020
Hounslow,Pubs,Airlinks Golf Course Bar,Southall Lane,Southall,,E09000018,Hounslow,51.49350367074271,-0.40038019255888313,511144.9699036174,178385.92446262587,,E05000357,Heston West,,E09000018,12/27/2020
Hounslow,Pubs,Jolly Waggoner,618 Bath Road,Cranford,,E09000018,Hounslow,51.47800120088602,-0.40570334553138904,510812.9699943644,176653.92493329145,,E05000350,Cranford,,E09000018,12/27/2020
Hounslow,Pubs,Bar Kahva,734 Bath Road,Cranford,,E09000018,Hounslow,51.47959694928293,-0.41196990967605357,510373.97011473554,176821.92488762276,,E05000350,Cranford,,E09000018,12/27/2020
Hounslow,Pubs,Milford Arms,574 London Road,Isleworth,,E09000018,Hounslow,51.47355579384798,-0.34577010289375465,514985.96886180487,176251.9250429718,,E05000358,Hounslow Central,,E09000018,12/27/2020
Hounslow,Pubs,Bridge Inn,457 London Road,Isleworth,,E09000018,Hounslow,51.4750970399201,-0.3358504557303757,515670.9686751353,176438.92499133392,,E05000364,Syon,,E09000018,12/27/2020
Hounslow,Pubs,Rising Sun,407 London Road,Isleworth,,E09000018,Hounslow,51.47549144741044,-0.3325961006252121,515895.96861388953,176487.9249775738,,E05000364,Syon,,E09000018,12/27/2020
Hounslow,Pubs,Coach & Horses,183 London Road,Isleworth,,E09000018,Hounslow,51.47946804510013,-0.3201236176466018,516751.9683812877,176949.92485174286,,E05000364,Syon,,E09000018,12/27/2020
Hounslow,Pubs,Osterley Park Hotel,764 Great West Road,Osterley,,E09000018,Hounslow,51.483066229239384,-0.33344332320431774,515817.9686335143,177328.92474881368,,E05000363,Osterley and Spring Grove,,E09000018,12/27/2020
Hounslow,Pubs,Hare & Hounds,Windmill Lane,Osterley,Wyke Green,E09000018,Hounslow,51.49164662953377,-0.3392525623981009,515392.9687504183,178273.92449122708,,E05000363,Osterley and Spring Grove,,E09000018,12/27/2020
Hounslow,Pubs,Cinnamon Lounge,181 Twickenham Road,Isleworth,,E09000018,Hounslow,51.47224991898619,-0.3285096935912778,516187.9685345505,176133.92507355387,,E05000364,Syon,,E09000018,12/27/2020
Hounslow,Pubs,London Apprentice,62 Church Street,Isleworth,,E09000018,Hounslow,51.47096197854579,-0.32144379932845724,516681.9683996132,176001.92510853248,,E05000362,Isleworth,,E09000018,12/27/2020
Hounslow,Pubs,Royal Oak,128 Worton Road,Isleworth,,E09000018,Hounslow,51.46722911044003,-0.33905924444934926,515467.96873115975,175558.92523073568,,E05000362,Isleworth,,E09000018,12/27/2020
Hounslow,Pubs,Woodlands,29 St Johns Road,Isleworth,,E09000018,Hounslow,51.47270910876298,-0.33740601468268466,515568.96870319615,176170.9250644325,,E05000362,Isleworth,,E09000018,12/27/2020
Hounslow,Pubs,Red Lion,92/94 Linkfield Road,Isleworth,,E09000018,Hounslow,51.47320445029917,-0.3330250214866906,515871.9686206416,176232.92504717084,,E05000364,Syon,,E09000018,12/27/2020
Hounslow,Pubs,Swan Inn,1 Swan Street,Isleworth,,E09000018,Hounslow,51.469282015703456,-0.3228156449330485,516590.96842426696,175812.9251602004,,E05000362,Isleworth,,E09000018,12/27/2020
Hounslow,Pubs,Town Wharf,"Town Wharf, Swan Street",Old Isleworth,,E09000018,Hounslow,51.46925580597988,-0.32224068037446296,516630.968413315,175810.92516066052,,E05000362,Isleworth,,E09000018,12/27/2020
Hounslow,Pubs,Castle,18 Upper Square,Isleworth,,E09000018,Hounslow,51.46837237637519,-0.3246055164013698,516468.9684575852,175708.9251887966,,E05000362,Isleworth,,E09000018,12/27/2020
Hounslow,Pubs,Victoria Tavern,56 Worple Road,Isleworth,,E09000018,Hounslow,51.46359540500722,-0.3282499013523929,516227.9685228126,175171.92533520493,,E05000362,Isleworth,,E09000018,12/27/2020
Hounslow,Pubs,Caspari Lounge & Restaurant,55 High Street,Brentford,,E09000018,Hounslow,51.48444846474778,-0.30252760084654634,517960.9680497072,177531.92469362722,,E05000364,Syon,,E09000018,12/27/2020
Hounslow,Pubs,Watermans Arms,1 Ferry Lane,Brentford,,E09000018,Hounslow,51.483984929235696,-0.30094610790959225,518071.9680191304,177482.92470675148,,E05000364,Syon,,E09000018,12/27/2020
Hounslow,Pubs,O'Riordans Tavern,3 High Street,Brentford,,E09000018,Hounslow,51.487812488846124,-0.292046227885188,518679.9678562478,177922.924589027,,E05000347,Brentford,,E09000018,12/27/2020
Hounslow,Pubs,Express Tavern,56 Kew Bridge Road,Brentford,,E09000018,Hounslow,51.48905154848771,-0.2882115800451741,518942.9677855164,178066.92455031007,,E05000347,Brentford,,E09000018,12/27/2020
Hounslow,Pubs,Stable,"Unit 12, 8 Kew Bridge Road",Brentford,,E09000018,Hounslow,51.48804596860686,-0.2883212598033931,518937.96778635983,177954.92458058568,,E05000347,Brentford,,E09000018,12/27/2020
Hounslow,Pubs,One Over The Ait,8 Kew Bridge Road,Brentford,,E09000018,Hounslow,51.48804596860686,-0.2883212598033931,518937.96778635983,177954.92458058568,,E05000347,Brentford,,E09000018,12/27/2020
Hounslow,Pubs,Beehive,227 High Street,Brentford,,E09000018,Hounslow,51.483738385500054,-0.30628425542715326,517701.9681206644,177446.9247169593,,E05000364,Syon,,E09000018,12/27/2020
Hounslow,Pubs,Royal Horse Guardsman,23 Ealing Road,Brentford,,E09000018,Hounslow,51.4863725906441,-0.30002195861818426,518129.96800470544,177749.924635095,,E05000364,Syon,,E09000018,12/27/2020
Hounslow,Pubs,Princess Royal,107 Ealing Road,Brentford,,E09000018,Hounslow,51.488477788462006,-0.30132646232263444,518033.96803190495,177981.9245726838,,E05000347,Brentford,,E09000018,12/27/2020
Hounslow,Pubs,Black Dog Beer House,17 Albany Road,Brentford,,E09000018,Hounslow,51.48563173726396,-0.3022676127837949,517975.9680461801,177663.92465813423,,E05000364,Syon,,E09000018,12/27/2020
Hounslow,Pubs,Griffin,Brook Road South,Brentford,,E09000018,Hounslow,51.48721898264777,-0.3032025194686094,517906.96806575067,177838.92461117095,,E05000347,Brentford,,E09000018,12/27/2020
Hounslow,Pubs,Royal Oak,38 New Road,Brentford,,E09000018,Hounslow,51.48865912149454,-0.30329309926621245,517896.9680691083,177998.92456816084,,E05000347,Brentford,,E09000018,12/27/2020
Hounslow,Pubs,New Inn,1 New Rd,Brentford,,E09000018,Hounslow,51.48881503777472,-0.3035033751512215,517881.9680732363,178015.92456359597,,E05000347,Brentford,,E09000018,12/27/2020
Hounslow,Pubs,Brewery Tap,47 Catherine Wheel Road,Brentford,,E09000018,Hounslow,51.482250650841465,-0.30538879896243204,517767.96810281626,177282.924761719,,E05000364,Syon,,E09000018,12/27/2020
Hounslow,Pubs,Kings Arms Bar & Hotel,19 Boston Manor Road,Brentford,,E09000018,Hounslow,51.48785141848375,-0.3108851515177457,517371.968211267,177896.92459591775,,E05000364,Syon,,E09000018,12/27/2020
Hounslow,Pubs,Weir Bar & Dining Room,22-24 Market Place,Brentford,,E09000018,Hounslow,51.48353302833383,-0.30950363850665463,517478.96818201453,177418.92472491815,,E05000364,Syon,,E09000018,12/27/2020
Hounslow,Pubs,Six Bells at Brentford Lock,148 High Street,Brentford,,E09000018,Hounslow,51.482486837950205,-0.30991676328350337,517452.9681892927,177301.92475674814,,E05000364,Syon,,E09000018,12/27/2020
Hounslow,Pubs,Magpie & Crown,128 High Street,Brentford,,E09000018,Hounslow,51.482486837950205,-0.30991676328350337,517452.9681892927,177301.92475674814,,E05000364,Syon,,E09000018,12/27/2020
Hounslow,Pubs,Northumberland Arms,11 London Road,Brentford,,E09000018,Hounslow,51.482212670059624,-0.31273531799392235,517257.96824287734,177266.9247663716,,E05000364,Syon,,E09000018,12/27/2020
Hounslow,Pubs,Globe,104 Windmill Road,Brentford,,E09000018,Hounslow,51.490662828357664,-0.31003219439650703,517423.9681972321,178210.9245111181,,E05000347,Brentford,,E09000018,12/27/2020
Hounslow,Pubs,Lord Nelson,9 Enfield Road,Brentford,,E09000018,Hounslow,51.491772892912294,-0.3084353874901901,517531.96816833114,178336.92447715247,,E05000347,Brentford,,E09000018,12/27/2020
Hounslow,Pubs,Lamb,9 Barley Mow Passage,Chiswick,London,E09000018,Hounslow,51.49184580442432,-0.261745278610057,520772.96728578676,178420.92445334746,,E05000365,Turnham Green,,E09000018,12/27/2020
Hounslow,Pubs,Tabard,2 Bath Road,Chiswick,London,E09000018,Hounslow,51.49592236727413,-0.2534648373600031,521336.96713076043,178887.92432562896,,E05000348,Chiswick Homefields,,E09000018,12/27/2020
Hounslow,Pubs,Crown,210 Chiswick High Road,Chiswick,,E09000018,Hounslow,51.49280009215258,-0.25817960087450853,521017.9672186542,178532.92442295223,,E05000365,Turnham Green,,E09000018,12/27/2020
Hounslow,Pubs,Roebuck,122 Chiswick High Road,Chiswick,London,E09000018,Hounslow,51.49301853956277,-0.25291320179370996,521382.9671187345,178565.9244139968,,E05000348,Chiswick Homefields,,E09000018,12/27/2020
Hounslow,Pubs,George IV,185 Chiswick High Road,Chiswick,London,E09000018,Hounslow,51.492290598649305,-0.2571762414590895,521088.9671993244,178477.92443800683,,E05000365,Turnham Green,,E09000018,12/27/2020
Hounslow,Pubs,No 197 Chiswick Fire Station,197 Chiswick High Road,Chiswick,London,E09000018,Hounslow,51.492290598649305,-0.2571762414590895,521088.9671993244,178477.92443800683,,E05000365,Turnham Green,,E09000018,12/27/2020
Hounslow,Pubs,Packhorse & Talbot,145 Chiswick High Road,Chiswick,London,E09000018,Hounslow,51.492410218810015,-0.2555438588963054,521201.96716837946,178493.92443368118,,E05000348,Chiswick Homefields,,E09000018,12/27/2020
Hounslow,Pubs,Italian Job,13 Devonshire Road,Chiswick,London,E09000018,Hounslow,51.49199658095146,-0.2561502709415346,521160.9671796693,178446.9244464633,,E05000365,Turnham Green,,E09000018,12/27/2020
Hounslow,Pubs,Duke of York,107 Devonshire Road,Chiswick,London,E09000018,Hounslow,51.490111112280196,-0.25514185776151616,521235.9671594813,178238.9245027271,,E05000365,Turnham Green,,E09000018,12/27/2020
Hounslow,Pubs,Mawson Arms / Fox & Hounds,110 Chiswick Lane South,Chiswick,London,E09000018,Hounslow,51.48763997934708,-0.24922973438425736,521652.967046754,177973.9245742099,,E05000348,Chiswick Homefields,,E09000018,12/27/2020
Hounslow,Pubs,George & Devonshire,8 Burlington Lane,Chiswick,London,E09000018,Hounslow,51.48636088015382,-0.25210183042841994,521456.9671003738,177826.92461390683,,E05000348,Chiswick Homefields,,E09000018,12/27/2020
Hounslow,Pubs,Dukes Meadows Cafe & Bar,"Dan Mason Drive, Dukes Meadows",Chiswick,London,E09000018,Hounslow,51.47357351358908,-0.2563486939333666,521195.96716963744,176397.92500144942,,E05000348,Chiswick Homefields,,E09000018,12/27/2020
Hounslow,Pubs,Copper Cow,2 Fauconberg Road,Chiswick,,E09000018,Hounslow,51.486557017008494,-0.2714095843205448,520115.96746363887,177816.9246177654,,E05000349,Chiswick Riverside,,E09000018,12/27/2020
Hounslow,Pubs,Bell & Crown,11-13 Thames Road. (rear entrance 72 Strand-on-the-Green),Chiswick,Strand On The Green,E09000018,Hounslow,51.4867476254197,-0.2825508061894216,519341.9676756733,177819.92461725854,,E05000349,Chiswick Riverside,,E09000018,12/27/2020
Hounslow,Pubs,City Barge,27 Strand On The Green,Chiswick,London,E09000018,Hounslow,51.485032578026804,-0.2790432708264991,519589.9676069935,177634.9246673609,,E05000349,Chiswick Riverside,,E09000018,12/27/2020
Hounslow,Pubs,Bulls Head,15 Strand On The Green,Chiswick,London,E09000018,Hounslow,51.48417749671163,-0.2777648027638392,519680.96758172056,177541.9246925976,,E05000349,Chiswick Riverside,,E09000018,12/27/2020
Hounslow,Pubs,Station House,2 Grove Park Road,Chiswick,London,E09000018,Hounslow,51.481615559834026,-0.269277650921323,520276.9674199786,177270.9247659034,,E05000349,Chiswick Riverside,,E09000018,12/27/2020
Hounslow,Pubs,Pilot,56 Wellesley Road,Chiswick,London,E09000018,Hounslow,51.490302254182104,-0.27720270757958987,519703.9675780688,178223.9245073999,,E05000365,Turnham Green,,E09000018,12/27/2020
Hounslow,Pubs,Queen's Head,12 Sutton Lane North,Chiswick,London,E09000018,Hounslow,51.489029415384984,-0.2701493243378604,520196.96744237794,178093.92454232794,,E05000365,Turnham Green,,E09000018,12/27/2020
Hounslow,Pubs,Gunnersbury,590 Chiswick High Road,Chiswick,London,E09000018,Hounslow,51.49259347575521,-0.2758486443048996,519791.9675546151,178480.92443742498,,E05000365,Turnham Green,,E09000018,12/27/2020
Hounslow,Pubs,Globe Bar at Clayton Hotel,626 Chiswick High Road,Chiswick,London,E09000018,Hounslow,51.49245156938584,-0.27843257720369524,519612.9676037824,178460.92444307578,,E05000365,Turnham Green,,E09000018,12/27/2020
Hounslow,Pubs,Crown & Anchor,374 Chiswick High Road,Chiswick,London,E09000018,Hounslow,51.492629398266295,-0.2624357435089247,520722.96729941026,178506.92442995345,,E05000365,Turnham Green,,E09000018,12/27/2020
Hounslow,Pubs,Old Pack Horse,434 Chiswick High Road,Chiswick,London,E09000018,Hounslow,51.49275975630679,-0.26516784432434953,520532.9673513748,178516.92442718783,,E05000365,Turnham Green,,E09000018,12/27/2020
Hounslow,Pubs,Connolly's,450 Chiswick High Road,Chiswick,London,E09000018,Hounslow,51.492974977162085,-0.26817044916428184,520323.96740852046,178535.9244220042,,E05000365,Turnham Green,,E09000018,12/27/2020
Hounslow,Pubs,Union Bar,"Unit 5, Chiswick Business Park, 566 Chiswick High Road",Chiswick,,E09000018,Hounslow,51.49466421677854,-0.27601538907521567,519774.96755878255,178710.92437462078,,E05000365,Turnham Green,,E09000018,12/27/2020
Hounslow,Pubs,Moot Bar,"Unit 3, Chiswick Business Park, 566 Chiswick High Road",Chiswick,,E09000018,Hounslow,51.493860165410396,-0.27392806654530977,519921.96751864057,178624.92439806974,,E05000365,Turnham Green,,E09000018,12/27/2020
Hounslow,Theatres,Tabard Theatre,2 Bath Rd, Chiswick,NA,E09000018,Hounslow,51.496432560875355,-0.25505657114590613,521225.1277391607,178942.02538882202,10091854897,E05000348,Chiswick Homefields,http://tabardtheatre.co.uk/,E09000018,12/27/2020
Hounslow,Theatres,Paul Robeson Theatre (The Arts Centre Hounslow),Treaty Centre, High St, Hounslow,E09000018,Hounslow,51.46864495920792,-0.3646055759918872,513690.0828900179,175676.43557789188,100023000000,E05000358,Hounslow Central,http://www.hounslowartscentre.co.uk/,E09000018,12/27/2020
Hounslow,Theatres,Isleworth Public Hall,South Street, Isleworth,NA,E09000018,Hounslow,51.46928924053546,-0.32722502744674237,516284.7032859919,175806.72494044463,100023000000,E05000362,Isleworth,http://www.fusion-lifestyle.com/centres/isleworth-public-hall,E09000018,12/27/2020
Hounslow,Theatres,Watermans Art Centre,40 High St, Brentford,NA,E09000018,Hounslow,51.48627848953497,-0.2996288588843563,518157.50297508383,177740.09391566663,100023000000,E05000347,Brentford,https://www.watermans.org.uk/,E09000018,12/27/2020
Hounslow,Theatres,Andrew Lloyd Webber Foundation Theatre,Arts Ed, 14 Bath Rd, Chiswick,E09000018,Hounslow,51.496470580233506,-0.2540036758023545,521298.1103191838,178947.9951870939,200003000000,E05000348,Chiswick Homefields,http://www.reallyusefultheatres.co.uk/our-group/andrew-lloyd-webber,E09000018,12/27/2020
Hounslow,Theatres,Chiswick House,Chiswick House and Gardens, Burlington Lane, Chiswick,E09000018,Hounslow,51.48660866624159,-0.25892266672951636,520982.76010642387,177843.20078785863,200004000000,E05000349,Chiswick Riverside,http://chiswickhouseandgardens.org.uk/,E09000018,12/27/2020
