BOROUGH,Cultural Venue Type,site_name,address1,address2,address3,borough_code,borough_name,latitude,longitude,easting,northing,os_addressbase_uprn,ward_2018_code,ward_2018_name,website,gss_code,runtime
Islington,Archives,Writers and Scholars Educational Trust (Index on Censorship),6-8 Amwell St,,,E09000019,Islington,51.52727965313077,-0.10847310863580012,531310.9643008015,182624.9231894865,5300001787,E05000370,Clerkenwell,,E09000019,12/27/2020
Islington,Archives,Survival International,6 Charterhouse Buildings,,,E09000019,Islington,51.5229243516096,-0.09828900921743923,532029.9641036394,182158.92331642628,5300018843,E05000367,Bunhill,https://www.survivalinternational.org/,E09000019,12/27/2020
Islington,Archives,International PEN,9-10 Charterhouse Buildings ,Goswell Road,,E09000019,Islington,51.523009204037024,-0.09853053547654018,532012.9641083048,182167.92331401602,5300018851,E05000367,Bunhill,https://pen-international.org/,E09000019,12/27/2020
Islington,Archives,Society of Genealogists,14 Charterhouse Buildings ,Goswell Road,,E09000019,Islington,51.52269490471264,-0.09855804917057791,532011.9641085177,182132.92332345172,5300018857,E05000367,Bunhill,http://www.sog.org.uk/,E09000019,12/27/2020
Islington,Archives,Honourable Artillery Company,Armoury House ,City Road,,E09000019,Islington,51.52301548170287,-0.08841060799345134,532714.9639163079,182186.9233081857,5300019875,E05000367,Bunhill,https://www.hac.org.uk/home/,E09000019,12/27/2020
Islington,Archives,Marx Memorial Library,37a Clerkenwell Green,,,E09000019,Islington,51.52296493612978,-0.10579774333375344,531508.9642458112,182149.92331842874,5300021024,E05000370,Clerkenwell,https://www.marx-memorial-library.org/,E09000019,12/27/2020
Islington,Archives,Corps of Commissionaires (Corps Security),85 Cowcross Street,,,E09000019,Islington,51.52003774334992,-0.10273366301136301,531729.9641846766,181829.92340478697,5300024887,E05000370,Clerkenwell,https://www.corpssecurity.co.uk/,E09000019,12/27/2020
Islington,Archives,"Amnesty International, International Secretariat",Peter Benenson House ,1 Easton Street,,E09000019,Islington,51.52582065471439,-0.11112852782923605,531130.9643494849,182457.9232345213,5300029347,E05000370,Clerkenwell,https://careers.amnesty.org/,E09000019,12/27/2020
Islington,Archives,Royal Statistical Society,12 Errol Street,,,E09000019,Islington,51.52252541643513,-0.09089616222437483,532543.9639631469,182127.92332442757,5300031223,E05000367,Bunhill,https://www.rss.org.uk/,E09000019,12/27/2020
Islington,Archives,Royal National Institute for the Deaf,Head Office,1- 3 Highbury Station Road,,E09000019,Islington,51.524483813905135,-0.08856532319578482,532699.9639200523,182349.92326361407,5300033046,E05000367,Bunhill,https://www.actiononhearingloss.org.uk/,E09000019,12/27/2020
Islington,Archives,Mencap,123 Golden Lane,,,E09000019,Islington,51.52387977400425,-0.09565435130295027,532209.964054482,182269.92328621406,5300036426,E05000367,Bunhill,https://www.mencap.org.uk/,E09000019,12/27/2020
Islington,Archives,Scope (formerly the Spastics Society),6 Market Road,,,E09000019,Islington,51.54710286681222,-0.1187420269562714,530541.9645074715,184810.92259333166,5300060248,E05000375,Holloway,https://www.scope.org.uk/history,E09000019,12/27/2020
Islington,Archives,Guildhall Library Manuscripts Section,40 Northampton Road,,,E09000019,Islington,51.52537594646614,-0.10752849253640263,531381.9642810884,182414.92324688373,5300067716,E05000370,Clerkenwell,https://www.cityoflondon.gov.uk/things-to-do/london-metropolitan-archives/visitor-information/Pages/archives-guildhall-library.aspx,E09000019,12/27/2020
Islington,Archives,London Metropolitan Archives: City of London,40 Northampton Road,,,E09000019,Islington,51.52537594646614,-0.10752849253640263,531381.9642810884,182414.92324688373,5300067716,E05000370,Clerkenwell,https://www.cityoflondon.gov.uk/things-to-do/london-metropolitan-archives/Pages/default.aspx,E09000019,12/27/2020
Islington,Archives,"City, University of London",Northampton Square,,,E09000019,Islington,51.52770618350995,-0.10258775571792003,531717.9641902419,182682.9231747996,5300067719,E05000370,Clerkenwell,https://www.city.ac.uk/,E09000019,12/27/2020
Islington,Archives,Prison Reform Trust,15 Northburgh Street,,,E09000019,Islington,51.523856185489514,-0.10029720349807829,531887.9641427202,182258.92328968085,5300067920,E05000367,Bunhill,http://www.prisonreformtrust.org.uk/,E09000019,12/27/2020
Islington,Archives,Legal Action Group,242 Pentonville Road,,,E09000019,Islington,51.531192147291016,-0.11970106138684536,530520.9645160345,183039.9230746269,5300073296,E05000368,Caledonian,https://www.lag.org.uk/,E09000019,12/27/2020
Islington,Archives,Association for the Conservation of Energy,Westgate House ,2a Prebend Street,,E09000019,Islington,51.53567981659257,-0.09686313372981865,532091.964089138,183579.92293003795,5300075757,E05000380,St. Peter's,https://www.ukace.org/,E09000019,12/27/2020
Islington,Archives,UKCISA: UK Council for International Student Affairs,9-17 St Albans Place,,,E09000019,Islington,51.53662961935972,-0.10442271349906376,531564.96423153,183671.92290477606,5300084159,E05000379,St. Mary's,https://www.ukcisa.org.uk/,E09000019,12/27/2020
Islington,Archives,Museum of Order of St John,St John's Gate ,St John's Lane,,E09000019,Islington,51.52192262085998,-0.10251113968126638,531739.9641825538,182039.92334844946,5300085644,E05000370,Clerkenwell,http://museumstjohn.org.uk/,E09000019,12/27/2020
Islington,Archives,British Psychological Society: History of Psychology Centre,30 Tabernacle St,,,E09000019,Islington,51.5231933158545,-0.0860822538539598,532875.9638722115,182210.92330145492,5300089442,E05000367,Bunhill,https://www.bps.org.uk/about-us/history-psychology-centre,E09000019,12/27/2020
Islington,Archives,Tavistock Institute of Human Relations,30 Tabernacle Street,,,E09000019,Islington,51.5231933158545,-0.0860822538539598,532875.9638722115,182210.92330145492,5300089442,E05000367,Bunhill,http://www.tavinstitute.org/,E09000019,12/27/2020
Islington,Archives,Working Men's Club & Institute Union Ltd,253-254 Upper Street,,,E09000019,Islington,51.54566033595098,-0.1034415082867641,531606.9642168323,184677.92263032676,5300094941,E05000379,St. Mary's,http://www.wmciu.org.uk/,E09000019,12/27/2020
Islington,Archives,British Deaf Association,1-3 Worship Street,,,E09000019,Islington,51.52231070353526,-0.08655173709362374,532845.963880714,182111.9233286457,5300099044,E05000367,Bunhill,https://bda.org.uk/,E09000019,12/27/2020
Islington,Archives,Save the Children UK,1 St John's Lane,,,E09000019,Islington,51.52076509979216,-0.10211241904071244,531770.9641737299,181911.92338285333,10001298735,E05000370,Clerkenwell,https://www.savethechildren.org.uk/,E09000019,12/27/2020
Islington,Archives,National Council for Voluntary Youth Services,Third Floor ,Lancaster House,33 Islington High Street,E09000019,Islington,51.53305669988256,-0.10647446833028684,531432.9642688844,183270.92301369004,10008978268,E05000366,Barnsbury,NA,E09000019,12/27/2020
Islington,Archives,Guardian News & Media Archive (formerly the Newsroom),Kings Place ,90 York Way,,E09000019,Islington,51.534998685683775,-0.12154839713330298,530381.9645534556,183459.9229602656,10012790864,E05000368,Caledonian,https://www.theguardian.com/gnm-archive,E09000019,12/27/2020
Islington,Archives,ActionAid Central Archive,Resource Centre Hamlyn House ,Macdonald Road ,Archway,E09000019,Islington,51.565680990045486,-0.13560724282812378,529319.9648432065,186846.92204267194,10012791132,E05000376,Junction,https://www.actionaid.org.uk/changelives/donate?src=ppc&utm_content=A197_A822_A000329&ds_rl=1248098&gclid=EAIaIQobChMIwvjprfb23gIVieJ3Ch1CzQ8qEAAYASAAEgLH_vD_BwE&gclsrc=aw.ds,E09000019,12/27/2020
Islington,Archives,Evangelical Alliance,176 Copenhagen Street,,,E09000019,Islington,51.53708311662908,-0.11974658669181422,530500.9645198267,183694.92289579782,10012792269,E05000368,Caledonian,https://www.eauk.org/,E09000019,12/27/2020
Islington,Archives,National Council of Voluntary Child Care Organisations,Unit 25,1st Floor,Angel Gate,E09000019,Islington,51.52925214192813,-0.10142772905825495,531793.9641699617,182856.92312752106,10023216009,E05000367,Bunhill,,E09000019,12/27/2020
Islington,Archives,Church Times,108-114 Golden Lane,,,E09000019,Islington,51.52353626788522,-0.09499115398056324,532256.9640415909,182232.92329616757,10090262788,E05000367,Bunhill,https://www.churchtimes.co.uk/,E09000019,12/27/2020
Islington,Archives,Islington Local History Centre,Finsbury Library,Islington Museum and Local History Centre and Finsbury Housing Office 245 St John St,,E09000019,Islington,51.52648754808226,-0.1045270017088627,531586.9642255709,182543.92321233544,10091003195,E05000370,Clerkenwell,https://www.islington.gov.uk/libraries-arts-and-heritage/heritage/local-history-centre,E09000019,12/27/2020
Islington,Archives,Community Service Volunteers,237 Pentonville Road,,,E09000019,Islington,51.53092501803064,-0.11818377968335327,530626.9644872171,183012.92308179714,10093112761,E05000370,Clerkenwell,https://volunteeringmatters.org.uk/news/national-charity-community-service-volunteers-csv-becomes-volunteering-matters/,E09000019,12/27/2020
Islington,Archives,Fields in Trust (formerly the National Playing Fields Association),2nd Floor,15 Crinan Street,,E09000019,Islington,51.53442883560912,-0.12190350252198741,530358.9645600312,183395.92297777906,10093624079,E05000368,Caledonian,http://www.fieldsintrust.org/,E09000019,12/27/2020
Islington,Artists workspaces,,8 Angel Mews,,,E09000019,Islington,51.53235040267073,-0.10784469715996838,531339.9642939593,183189.9230355156,10012791474,E05000366,Barnsbury,http://cubittartists.org.uk/,E09000019,12/27/2020
Islington,Artists workspaces,Peabody Yard,Greenman Street,Islington,,E09000019,Islington,51.53893654096107,-0.09639553859548546,532114.9640811444,183942.922831068,10023223942,E05000380,St. Peter's,www.spacestudios.org.uk,E09000019,12/27/2020
Islington,Artists workspaces,,St Saviours church,Aberdeen Park,,E09000019,Islington,51.55218806495508,-0.093967121556433,532244.9640440455,185420.92242805782,5300000172,E05000372,Highbury East,www.florencetrust.org,E09000019,12/27/2020
Islington,Artists workspaces,,5 Thane Works ,,,E09000019,Islington,51.55994393828645,-0.11368203018642034,530855.9644236579,186247.9222034812,10093110026,E05000371,Finsbury Park,http://www.thelumenstudio.london/,E09000019,12/27/2020
Islington,Artists workspaces,Archway,Holloway Road 681-689,Archway,,E09000019,Islington,51.56516889788501,-0.13394003887487785,529436.9648111805,186792.92205752246,10008976813,E05000376,Junction,www.arbeit.org.uk / www.arebyte.com,E09000019,12/27/2020
Islington,Artists workspaces,,Unit 2 9-15 Elthorne Rd,,,E09000019,Islington,51.56599722686528,-0.1311790848241663,529625.9647593278,186889.92203115602,5300030670,E05000376,Junction,www.bombfactory.org.uk/about,E09000019,12/27/2020
Islington,Cinemas,"Vue Islington 




",Angel Central,Central Shopping Mall,36 Parkfield Street,E09000019,Islington,51.53423596178723,-0.10599293766235238,531462.9643827782,183402.92309988663,010001296728,E05000379,St. Mary's,,E09000019,12/27/2020
Islington,Cinemas,Everyman Screen on the Green,,83 Upper Street,Islington,E09000019,Islington,51.53688803726585,-0.10371981890475367,531612.9643404575,183701.9230188497,005300094504,E05000379,St. Mary's,,E09000019,12/27/2020
Islington,Cinemas,Odeon Holloway,419-427 Holloway Rd,,Holloway,E09000019,Islington,51.55871978847875,-0.1214508597330454,530320.9646913394,186097.9223670056,005300048412,E05000378,St. George's,,E09000019,12/27/2020
Islington,Commercial galleries,Eagle Gallery,159 Farringdon Road,NA,NA,E09000019,Islington,51.52416186295283,-0.10975562584639502,531230.9644439578,182275.92340599908,5300033028,E05000370,Clerkenwell,http://www.emmahilleagle.com/#,E09000019,12/27/2020
Islington,Commercial galleries,Work,308 Essex Road,NA,NA,E09000019,Islington,51.54283831211358,-0.09135809100975387,532452.9641102117,184385.9228319464,10091003649,E05000369,Canonbury,http://workgallery.co.uk/#,E09000019,12/27/2020
Islington,Commercial galleries,Dreamspace Gallery,3 Dufferin Street,NA,NA,E09000019,Islington,51.52258598667444,-0.09240723722920853,532438.9641139281,182131.9234455058,5300028758,E05000367,Bunhill,https://adremgroup.com/dreamspace-gallery/#,E09000019,12/27/2020
Islington,Commercial galleries,Bloomberg Space,50 Finsbury Square,NA,NA,E09000019,Islington,51.520000168795875,-0.08713872420874463,532811.9640128042,181853.92352147674,5300033404,E05000367,Bunhill,http://www.bloombergspace.com/#,E09000019,12/27/2020
Islington,Commercial galleries,Arcade,87 Lever Street,NA,NA,E09000019,Islington,51.527012637688074,-0.09641740763225776,532147.9641943168,182616.92331427708,5300056285,E05000367,Bunhill,http://arcadefinearts.com/#,E09000019,12/27/2020
Islington,Commercial galleries,Sway Gallery,70-72 Old Street,NA,NA,E09000019,Islington,51.52424073682208,-0.0951779751064024,532241.9641678295,182310.92339715757,5300069554,E05000367,Bunhill,http://www.sway-gallery.com/#,E09000019,12/27/2020
Islington,Commercial galleries,Islington Arts Factory,2 Parkhurst Rd,NA,NA,E09000019,Islington,51.55421886757041,-0.12284805121234277,530236.9647137888,185594.92250381835,5300075947,E05000375,Holloway,http://www.islingtonartsfactory.org/#,E09000019,12/27/2020
Islington,Commercial galleries,James Freeman Gallery,354 Upper Street,NA,NA,E09000019,Islington,51.53460763046594,-0.10450675634424779,531564.9643548932,183446.9230881838,5300095173,E05000380,St. Peter's,http://www.sesameart.com/#,E09000019,12/27/2020
Islington,Commercial galleries,Curious Duke Gallery,173 Whitecross Street,NA,NA,E09000019,Islington,51.523683360992905,-0.09352902577367936,532357.9641360305,182251.92341297818,5300102398,E05000367,Bunhill,http://curiousdukegallery.com/#,E09000019,12/27/2020
Islington,Commercial galleries,Modern Art 1,4-8 Helmet Row,NA,NA,E09000019,Islington,51.52503946467612,-0.09452473337642592,532284.9641560469,182400.9233726781,10008977815,E05000367,Bunhill,http://www.modernart.net/#,E09000019,12/27/2020
Islington,Commercial galleries,All Visual Arts,2 Omega Place,NA,NA,E09000019,Islington,51.53146407783977,-0.12039633362364635,530471.9646514746,183068.9231889132,10012789978,E05000368,Caledonian,http://www.allvisualarts.org/,E09000019,12/27/2020
Islington,Commercial galleries,Cubitt Gallery,8 Angel Mews,NA,NA,E09000019,Islington,51.53235040373963,-0.10784469535514335,531339.9644160593,183189.92315761634,10012791474,E05000366,Barnsbury,http://cubittartists.org.uk/#,E09000019,12/27/2020
Islington,Commercial galleries,Medici Gallery,"19-23 White Lion Street,",NA,NA,E09000019,Islington,51.53269654671579,-0.10811870490260361,531319.9644215564,183227.92314720008,10090266504,E05000366,Barnsbury,http://www.medici.co.uk/,E09000019,12/27/2020
Islington,Commercial galleries,Guardian News & Media,"Kings Place, 90 York Way",NA,NA,E09000019,Islington,51.534998686752886,-0.12154839532869142,530381.9646755547,183459.9230823645,10090266525,E05000368,Caledonian,http://www.guardian.co.uk/gnmexhibitions#,E09000019,12/27/2020
Islington,Commercial galleries,Beers London,1 Baldwin Street,NA,NA,E09000019,Islington,51.527007094159764,-0.08889209434164955,532669.9640510227,182629.92330954265,10090548970,E05000367,Bunhill,http://beerslondon.com/#,E09000019,12/27/2020
Islington,Commercial galleries,Pangolin London,90 York Way,NA,NA,E09000019,Islington,51.534998686752886,-0.12154839532869142,530381.9646755547,183459.9230823645,10090550427,E05000368,Caledonian,http://www.pangolinlondon.com/#,E09000019,12/27/2020
Islington,Commercial galleries,William Benington,20 Arlington Way,NA,NA,E09000019,Islington,51.53020001297787,-0.10610285387224008,531466.9643811279,182953.92322231532,10091004086,E05000370,Clerkenwell,http://williambeningtongallery.co.uk/#,E09000019,12/27/2020
Islington,Community centres,The Arc Centre,98 St Paul Street,Islington,NA,E09000019,Islington,51.53597936681522,-0.09592777695739133,532155.9641937051,183614.92304252047,10090265601,E05000380,St. Peter's,www.thespacegroup.org/contact-us/,E09000019,12/27/2020
Islington,Community centres,Ringcross Community Centre,60 Lough Road,Islington,NA,E09000019,Islington,51.54972668071671,-0.11469603866498067,530814.9645559874,185109.92263491568,5300058839,E05000375,Holloway,http://www.piliontrust.info/,E09000019,12/27/2020
Islington,Community centres,Bentham Community Centre,New Bentham Court, Ecclesbourne Road, London,E09000019,Islington,51.54090711403072,-0.09370303933960857,532295.9641532837,184166.92289184488,5300029420,E05000380,St. Peter's,,E09000019,12/27/2020
Islington,Community centres,St Johns' Community Centre,Elthorne Estate,Holland Walk,Islington,E09000019,Islington,51.567342788119376,-0.12871424040992915,529792.9648355225,187043.92211150058,10001298762,E05000374,Hillrise,,E09000019,12/27/2020
Islington,Community centres,Aubert Court Community Centre,70 Avenell Road,Islington,NA,E09000019,Islington,51.55660381708859,-0.10174571773787135,531692.9643181278,185897.92241926608,10010440652,E05000373,Highbury West,,E09000019,12/27/2020
Islington,Community centres,Earlstoke Estate Community Room,Manningford Close,Islington,NA,E09000019,Islington,51.52879988832523,-0.10182139954865368,531767.9642990307,182805.92326350388,10010441490,E05000370,Clerkenwell,,E09000019,12/27/2020
Islington,Community centres,Walter Sickert Community Centre,Canonbury Crescent,Islington,NA,E09000019,Islington,51.54266564682352,-0.09345646140706705,532307.9641493808,184362.92283839657,10012787909,E05000369,Canonbury,https://www.canonbury-snt-panel.org/walter-sickert-community-centre,E09000019,12/27/2020
Islington,Community centres,Providence Place Community Centre,1a Providence Court,Providence Place,Islington,E09000019,Islington,51.53709566130642,-0.10376886457328718,531608.9643414122,183724.92301257083,10093108754,E05000379,St. Mary's,,E09000019,12/27/2020
Islington,Community centres,Brickworks Community Centre,42 Crouch Hill,Islington,NA,E09000019,Islington,51.57195918810297,-0.11823567902527647,530505.9646398491,187575.921965478,10093111210,E05000381,Tollington,,E09000019,12/27/2020
Islington,Community centres,Hind House Community Rooms,74 Hornsey Road,Islington,NA,E09000019,Islington,51.55697654745258,-0.11034253462889672,531095.964480504,185923.92241308308,10093620607,E05000373,Highbury West,,E09000019,12/27/2020
Islington,Community centres,Goodinge Community Centre,2 Goodinge Road,Islington,NA,E09000019,Islington,51.548042449276764,-0.12575623125007507,530052.964762621,184902.9226914366,10093621811,E05000375,Holloway,,E09000019,12/27/2020
Islington,Community centres,Halfmoon Crescent Co-op,183 Wynford Road,Islington,NA,E09000019,Islington,51.53419356654928,-0.11340603226748412,530948.9645221509,183384.92310334631,5300099584,E05000366,Barnsbury,,E09000019,12/27/2020
Islington,Community centres,York Way Community Centre,Tiber Gardens,Islington,NA,E09000019,Islington,51.53589250861189,-0.12064641624568086,530441.964658712,183560.92305465392,5300092135,E05000368,Caledonian,,E09000019,12/27/2020
Islington,Community centres,Westbourne Community Centre,43 Roman Way,Islington,NA,E09000019,Islington,51.546812500781876,-0.11522039169517878,530786.9645626525,184784.92272247467,5300079082,E05000368,Caledonian,http://directory.islington.gov.uk/kb5/islington/directory/service.page?id=G3Jy2lOy1-8,E09000019,12/27/2020
Islington,Community centres,Nailour Hall Community Centre,52 Blundell Street,Islington,NA,E09000019,Islington,51.544757394323014,-0.12052620602590129,530424.964660538,184546.92278661608,5300010607,E05000368,Caledonian,http://directory.islington.gov.uk/kb5/islington/directory/service.page?id=lMrJHwKnvao,E09000019,12/27/2020
Islington,Community centres,Almorah Community Centre,58 Almorah Road,Islington,NA,E09000019,Islington,51.54072154132064,-0.08673098878546176,532779.9640225685,184158.92289331538,5300001394,E05000369,Canonbury,http://www.almorahcommunity.org.uk,E09000019,12/27/2020
Islington,Community centres,Hilldrop Community Centre,Community Lane,Hilldrop Road,Islington,E09000019,Islington,51.55169878420974,-0.1300341999322577,529745.964846313,185301.92258361122,5300022801,E05000378,St. George's,https://www.hilldrop.org.uk/,E09000019,12/27/2020
Islington,Community centres,Hargrave Hall Community Centre,42 Hargrave Road,Islington,NA,E09000019,Islington,51.5637050355705,-0.13349497316019193,529471.9649235313,186630.92222372605,5300040886,E05000376,Junction,http://www.hargravehall.co.uk/,E09000019,12/27/2020
Islington,Community centres,Hornsey Lane Community Centre,Hornsey Lane Estate,Hazellville Road,Islington,E09000019,Islington,51.57276636884139,-0.13217147350640288,529537.9649045533,187640.92194921675,5300042147,E05000374,Hillrise,http://hleca.org.uk/,E09000019,12/27/2020
Islington,Community centres,Loraine Community Centre,325 Holloway Road,Islington,NA,E09000019,Islington,51.55476689929407,-0.11552624837390088,530742.9645762612,185668.92248305044,5300048071,E05000375,Holloway,,E09000019,12/27/2020
Islington,Community centres,Margery Street Community Centre,Margery Street Estate,Lloyd Baker Street,Islington,E09000019,Islington,51.52677504207373,-0.11287666544503645,531006.9645054789,182560.92332819226,5300060076,E05000370,Clerkenwell,,E09000019,12/27/2020
Islington,Community centres,New Orleans Community Centre,New Orleans Walk,Islington,NA,E09000019,Islington,51.572820714850266,-0.12655562297613018,529926.9647982083,187656.92194416496,5300066093,E05000374,Hillrise,,E09000019,12/27/2020
Islington,Community centres,Weston Rise Community Centre,187 Pentonville Road,Islington,NA,E09000019,Islington,51.53111217763536,-0.11527805095023484,530827.9645547793,183038.92319736484,5300073284,E05000370,Clerkenwell,,E09000019,12/27/2020
Islington,Community centres,Popham and Cumming Community Centre,14 Popham Street,Islington,NA,E09000019,Islington,51.53769944541548,-0.09663464210387263,532101.9642074289,183804.9229908014,5300075537,E05000380,St. Peter's,,E09000019,12/27/2020
Islington,Community centres,Mildmay Community Centre,Woodville Road,Islington,NA,E09000019,Islington,51.550866398569234,-0.08241089291456458,533049.9639470681,185294.92258545576,5300098973,E05000377,Mildmay,http://mildmaycp.wordpress.com,E09000019,12/27/2020
Islington,Community centres,Stephen's Ink Community Centre,104 Gillespie Road,Islington,NA,E09000019,Islington,51.55888649107903,-0.10443504317994678,531499.964371404,186146.92235177726,10008978440,E05000373,Highbury West,,E09000019,12/27/2020
Islington,Community centres,Jean Stokes Community Centre,Carnoustie Drive,Islington,NA,E09000019,Islington,51.54065862388669,-0.11783980099959221,530622.964606427,184095.9229080635,10010440359,E05000368,Caledonian,https://bemerton.wordpress.com/jean-stokes-community-centre/,E09000019,12/27/2020
Islington,Community centres,Brunswick Estate Community Centre,Tompion Street,Islington,NA,E09000019,Islington,51.52667670801121,-0.1017655795733373,531777.9642957659,182569.9233278752,10010440550,E05000370,Clerkenwell,,E09000019,12/27/2020
Islington,Community centres,Chestnuts Community Centre,1 Highbury Grange,Islington,NA,E09000019,Islington,51.55517287187949,-0.09779499791972769,531970.9642416537,185745.9224611572,10010441199,E05000372,Highbury East,,E09000019,12/27/2020
Islington,Community centres,Williamson Street Community Centre,76 Parkhurst Road,Islington,NA,E09000019,Islington,51.55656779783988,-0.12071726570280193,530377.964675668,185859.92243160855,10010441453,E05000375,Holloway,,E09000019,12/27/2020
Islington,Community centres,Birchmore Hall Community Hall,Highbury Quadrant,Islington,NA,E09000019,Islington,51.55897332969159,-0.09371248707569298,532242.9641682957,186175.92234470817,10010441763,E05000372,Highbury East,https://highburyquadrant.co.uk/birchmore-hall/,E09000019,12/27/2020
Islington,Community centres,Tompion Hall Community Centre,40 Percival Street,Islington,NA,E09000019,Islington,51.526006438836106,-0.10202413074364465,531761.9642999469,182494.92334828083,10023215945,E05000367,Bunhill,,E09000019,12/27/2020
Islington,Community centres,Andover Estate Community Centre,56 Corker Walk,Islington,NA,E09000019,Islington,51.56348140214092,-0.11333373886797794,530869.9645413856,186641.92221942265,5300024110,E05000371,Finsbury Park,http://www.octopuscommunities.org.uk/our-projects/community-hubs/about-the-hubs/finsbury-park-community-hub-andover-community-centre/,E09000019,12/27/2020
Islington,Community centres,Barnsbury Estate Community Centre Hall,12 Jays Street,Islington,NA,E09000019,Islington,51.53608440110413,-0.11523119259483071,530816.9645567398,183591.92304642242,10023220325,E05000366,Barnsbury,https://www.newlon.org.uk/residents/community-services/community-facilities/,E09000019,12/27/2020
Islington,Community centres,Highbury Roundhouse Community Centre,71 Ronalds Road,Islington,NA,E09000019,Islington,51.55084870415098,-0.10397573582230586,531554.9643534758,185253.92259480158,5300079437,E05000372,Highbury East,,E09000019,12/27/2020
Islington,Community centres,City of London Community Education Centre,99 Golden Lane,Islington,NA,E09000019,Islington,51.52309325786781,-0.09539886798589092,532229.9641710612,182182.92343184288,10001295847,E05000367,Bunhill,,E09000019,12/27/2020
Islington,Community centres,The Holloway Neighbourhood Group,84 Mayton Street,Islington,NA,E09000019,Islington,51.55861541186335,-0.11718489883325345,530616.9646107024,186093.92236750742,10008977169,E05000371,Finsbury Park,http://www.hng.org.uk/,E09000019,12/27/2020
Islington,Community centres,Bayes House Community Centre,Augustas Lane,Islington,NA,E09000019,Islington,51.54328841131466,-0.10969828613912745,531179.9644547396,184402.92282644182,10023222753,E05000366,Barnsbury,,E09000019,12/27/2020
Islington,Community centres,St Joan of Arc Community Centre,Kelross Road,Islington,NA,E09000019,Islington,51.55591017740584,-0.09668232958682374,532045.9642214197,185829.92243845062,5300053806,E05000372,Highbury East,http://www.stjoanofarcparish.co.uk/community-centre,E09000019,12/27/2020
Islington,Community centres,Peel Institute Three Corners Centre,Northampton Road,Islington,NA,E09000019,Islington,51.525355803279055,-0.10683735254479593,531429.9643901207,182413.9233693799,10090264827,E05000370,Clerkenwell,http://www.peelinstitute.org.uk/,E09000019,12/27/2020
Islington,Community centres,York Way Estate,Market Road,London,NA,E09000019,Islington,51.54697716607306,-0.12605963873177908,530034.9647673275,184783.92272364371,5300067349,E05000375,Holloway,,E09000019,12/27/2020
Islington,Community centres,Underground Youth Centre,Piper Close,London,NA,E09000019,Islington,51.54909905707696,-0.11537105858139315,530769.9645680927,185038.92265408463,10023218792,E05000375,Holloway,https://www.facebook.com/pg/prospex.charity/about/?ref=page_internal,E09000019,12/27/2020
Islington,Community centres,Mersey Estate TRA Flat,2 Birkenhead House,Mersey Estate,Liverpool Road,E09000019,Islington,51.54888947227962,-0.11017281032643433,531130.964469262,185024.92265763006,5300057849,E05000379,St. Mary's,,E09000019,12/27/2020
Islington,Community centres,Durham Road Community Room,Bolton Walk,Durham Road,London,E09000019,Islington,51.56449688502108,-0.1132917320916419,530869.9645412212,186754.92218898295,5300010980,E05000371,Finsbury Park,,E09000019,12/27/2020
Islington,Community centres,Bennett Court Community Centre,Axminster Road,London ,NA,E09000019,Islington,51.55998906076247,-0.11816692558743927,530544.964630022,186244.92232691374,10008977973,E05000371,Finsbury Park,,E09000019,12/27/2020
Islington,Community centres,Menard Court Community Centre,Pleydell Estate,Galway Street,NA,E09000019,Islington,51.52698620828638,-0.09313149346002356,532375.964131718,182619.92331293738,10012786377,E05000367,Bunhill,,E09000019,12/27/2020
Islington,Community centres,St Lukes TRA Community Room,Bath Court,Bath Street,NA,E09000019,Islington,51.52636774873294,-0.08994245519659275,532598.9640701549,182556.92332953023,10090549514,E05000367,Bunhill,,E09000019,12/27/2020
Islington,Community centres,Peregrine Hall Community Centre,Peregrine House,Hall Street London ,NA,E09000019,Islington,51.529822268856826,-0.10053893895420903,531853.9642758038,182921.92323178228,10010440292,E05000367,Bunhill,,E09000019,12/27/2020
Islington,Community centres,King Square Community Centre,Ground floor,Rahere House,King Square,E09000019,Islington,51.52857985141963,-0.0976783920049852,532055.9642201256,182788.92326764052,10090549145,E05000367,Bunhill,,E09000019,12/27/2020
Islington,Community centres,Betty Brunker Hall,Gambier House,Mora Street,NA,E09000019,Islington,51.527948319199425,-0.09257226012302874,532411.9641223056,182727.92328349716,10091003650,E05000367,Bunhill,,E09000019,12/27/2020
Islington,Community centres,Brecknock Estate TRA Flat,Flat 1,Blake House,Brecknock Road Estate,E09000019,Islington,51.55325535548942,-0.13347560059882355,529502.964912604,185468.92253864725,5300011414,E05000378,St. George's,,E09000019,12/27/2020
Islington,Community centres,Harry Rice Hall Community Centre ,72 â 74 Hargrave Park ,London,NA,E09000019,Islington,51.56402622688234,-0.14013327118283142,529010.9650490506,186654.92221632175,5300040787,E05000376,Junction,,E09000019,12/27/2020
Islington,Community centres,Girdlestone Community Centre,Under 151,Salisbury Walk,Girdlestone Estate,E09000019,Islington,51.565190913420786,-0.13929217436754973,529065.9650341689,186785.9221807141,10012785327,E05000376,Junction,,E09000019,12/27/2020
Islington,Community centres,Holly Hall Community Centre,Blythwood Road, London,NA,E09000019,Islington,51.57338142862446,-0.11944691171230805,530417.9646640333,187731.92192268133,5300010632,E05000374,Hillrise,,E09000019,12/27/2020
Islington,Community centres,Charles Rowan House TRA Flat,88 Charles Rowan House,Margery Street,NA,E09000019,Islington,51.52736717604776,-0.10999765428736392,531204.9644517406,182631.92330938316,5300062006,E05000370,Clerkenwell,,E09000019,12/27/2020
Islington,Community centres,Thornhill Houses TRA Flat,Block 70-83 Thornhill Houses,NA,NA,E09000019,Islington,51.54303802061835,-0.11034322357107207,531135.9644666282,184373.92283417517,5300090456,E05000366,Barnsbury,www.thornhillhousesra.com,E09000019,12/27/2020
Islington,Community centres,Finsbury Unity Room,Ground Floor,Michael Cliffe House,Finsbury Estate,E09000019,Islington,51.526400419718414,-0.10581368473932812,531497.9643718591,182531.92333746108,10090549066,E05000370,Clerkenwell,,E09000019,12/27/2020
Islington,Community centres,Calcott Community Centre,Calcott Community Centre,Palmer Estate,30A Cathcart Hill,E09000019,Islington,51.56003346251028,-0.13785797607282743,529179.965002839,186214.92233676143,5300017533,E05000376,Junction,,E09000019,12/27/2020
Islington,Community centres,Hugh Cubitt Community Centre,Hugh Cubitt,48 Collier Street,London,E09000019,Islington,51.532624270008505,-0.11535975594022271,530817.964557711,183206.9231515323,10001295469,E05000366,Barnsbury,https://barnsburyliving.wordpress.com/,E09000019,12/27/2020
Islington,Community centres,Liverpool Road Community Centre,Liverpool Road Community Centre,Samuel Lewis Trust Dwellings,Liverpool Road,E09000019,Islington,51.54367093575214,-0.10665381637967826,531389.9643977861,184450.92281398125,10010440334,E05000379,St. Mary's,https://www.shgroup.org.uk/media/233108/liverpool-road.pdf,E09000019,12/27/2020
Islington,Creative co-working desk space,Huckletree,Huckletree,87 Charterhouse Street,Clerkenwell,E09000019,Islington,51.51973875286616,-0.10203978938489688,531778.9642933164,181797.92353555252,5300019055,E05000370,Clerkenwell,http://www.huckletree.com/,E09000019,12/27/2020
Islington,Creative co-working desk space,The Green House,The Green House E9,Greenhouse,49 Green Lanes,E09000019,Islington,51.55292655811048,-0.08796441296850485,532658.9640536918,185513.92252568877,5300037627,E05000377,Mildmay,http://www.thegreenhouselondon.com/coworking/,E09000019,12/27/2020
Islington,Creative co-working desk space,The Carlyle Group,Uncommon,25 Horsell Road,,E09000019,Islington,51.55032266719128,-0.10815172828988869,531266.9644322852,185187.92261321231,5300051070,E05000372,Highbury East,https://uncommon.co.uk/,E09000019,12/27/2020
Islington,Creative co-working desk space,Huckletree,Huckletree,18 Finsbury Square,The Alphabeta Buildinh,E09000019,Islington,51.52171001708211,-0.08666341749929961,532839.9640046477,182044.92346912454,10091002838,E05000367,Bunhill,http://www.huckletree.com/,E09000019,12/27/2020
Islington,Creative co-working desk space,Ark Coworking,Ark Coworking,237 Pentonville Road,King's Cross,E09000019,Islington,51.53092501909971,-0.11818377787882635,530626.9646093168,183012.9232038968,10093112761,E05000370,Clerkenwell,www.arkcoworking.com,E09000019,12/27/2020
Islington,Creative workspaces,The Bomb Factory Art Foundation Ltd,The Bomb Factory Studios,Unit 2,Boothby Road,E09000019,Islington,51.56581008473766,-0.1318504776643206,529579.9648940562,186867.92215922632,5300010995,,,https://www.bombfactory.org.uk/artists,E09000019,12/27/2020
Islington,Creative workspaces,2northdown,2northdown,2 Northdown Street,,E09000019,Camden,51.53134605920968,-0.11920450371862852,530554.9646289205,183057.9231917463,5300068234,,,https://www.2northdown.com/,E09000019,12/27/2020
Islington,Creative workspaces,Anomalous Collective,Anomalous Collective,38 Pentoville Road,,E09000019,Islington,51.5337306354192,-0.10755673417253002,531355.9644120091,183343.92311567132,5300073069,,,http://anomalousspace.co.uk/about/,E09000019,12/27/2020
Islington,Creative workspaces,Tileyard Studios,Tileyard Studios,35 Tileyard Road,London,E09000019,Islington,51.542601078065935,-0.12289369316455277,530266.9647030766,184302.92285284953,5300091012,,,http://www.tileyard.co.uk/,E09000019,12/27/2020
Islington,Creative workspaces,Candid Arts Trust,Candid Arts,3-5 Torrens Street,,E09000019,Islington,51.5322243978205,-0.1050527695936668,531533.9643634,183180.92316061002,5300092108,,,https://candidarts.wordpress.com,E09000019,12/27/2020
Islington,Creative workspaces,The Lumen Studio,The Lumen Studio,5 Thane Works,,E09000019,Islington,51.55994393935537,-0.11368202838069282,530855.9645457572,186247.92232558073,10093110021,,,http://www.thelumenstudio.london/,E09000019,12/27/2020
Islington,Dance performance venues,Islington Assembly Hall,?222 Upper Street,,,E09000019,Islington,51.54433219345228,-0.10361212675213433,531598.9642189553,184529.92267082975,5300094897,E05000379,St. Mary's,,E09000019,12/27/2020
Islington,Dance performance venues,Park Theatre,13 Clifton Terrace,,,E09000019,Islington,51.56563594094724,-0.10864188873866733,531188.9643325536,186889.92202978244,10090266645,E05000371,Finsbury Park,https://www.parktheatre.co.uk,E09000019,12/27/2020
Islington,Dance performance venues,The King's Head Theatre,115 Upper Street,,,E09000019,Islington,51.53830315585424,-0.10281017665850987,531671.9642014831,183860.9228536249,5300094557,E05000379,St. Mary's,http://www.kingsheadtheatrepub.co.uk,E09000019,12/27/2020
Islington,Dance performance venues,The Rosemary Branch,2A Shepperton Road,,,E09000019,Islington,51.537622409430384,-0.08693312001556831,532774.963902989,183813.92286536295,5300082551,E05000369,Canonbury,http://www.rosemarybranchtheatre.co.uk,E09000019,12/27/2020
Islington,Dance performance venues,Kings Place,90 York Way,,,E09000019,Islington,51.534998685683775,-0.12154839713330298,530381.9645534556,183459.9229602656,10012790864,E05000368,Caledonian,http://www.kingsplace.co.uk,E09000019,12/27/2020
Islington,Dance performance venues,London Metropolitan University Graduate Centre,182-198 Holloway Rd,,,E09000019,Islington,51.55147327374649,-0.11035420323320108,531110.9643531817,185311.92245759617,5300047823,E05000373,Highbury West,http://www.londonmet.ac.uk/contact-us/how-to-find-us/tower-building/graduate-centre/,E09000019,12/27/2020
Islington,Dance performance venues,Lift Islington - Platform Theatre,2 Tiltman Place,,,E09000019,Islington,51.5614248705854,-0.1157416039179951,530708.9644632402,186408.92216038413,10012794343,E05000371,Finsbury Park,http://www.platformislington.org.uk,E09000019,12/27/2020
Islington,Dance performance venues,Sadler's Wells Theatre,177 Rosebery Ave,,,E09000019,Islington,51.52942925041774,-0.1062646136474187,531457.9642613021,182867.92312363884,5300080047,E05000370,Clerkenwell,http://www.sadlerswells.com,E09000019,12/27/2020
Islington,Dance performance venues,London Dance Academy,51 Central Street,,,E09000019,Islington,51.5255591465995,-0.09662222324864979,532137.964074406,182454.92323630553,5300017733,E05000367,Bunhill,http://londondanceacademy.co.uk,E09000019,12/27/2020
Islington,Dance performance venues,Pleasance,41 North Mews,,,E09000019,Islington,51.54876851276606,-0.121673379465882,530333.9645645174,184990.92254526174,10094608227,E05000375,Holloway,https://www.pleasance.co.uk,E09000019,12/27/2020
Islington,Dance performance venues,Old Red Lion,418 St John Street,,,E09000019,Islington,51.53148185041091,-0.10584777886832213,531480.9642555137,183096.92306126392,5300085363,E05000367,Bunhill,,E09000019,12/27/2020
Islington,Dance performance venues,Lilian Baylis Studio,183 Rosebery Avenue,,,E09000019,Islington,51.529683816032346,-0.10587919015184069,531483.9642542966,182896.9231158028,5300080050,E05000370,Clerkenwell,http://www.sadlerswells.com/venue-hire/lilian-baylis-studio/,E09000019,12/27/2020
Islington,Dance performance venues,Theatre Delicatessen (Guardian House),119 Farringdon Road,,,E09000019,Islington,51.52322361924053,-0.10845386132237624,531323.9642962761,182173.92331156536,10093624103,E05000370,Clerkenwell,http://www.delistudios.co.uk/broadgate,E09000019,12/27/2020
Islington,Dance rehearsal studios,The Basement Dance Studio,400 York Way,,,E09000019,Islington,51.54869450673832,-0.12829680226078247,529874.9646888674,184970.92255113734,5300100384,E05000375,Holloway,http://www.thebasementdancestudio.com,E09000019,12/27/2020
Islington,Dance rehearsal studios,"City Dance Academy  - THE IVORIES STUDIO 

",6-18 Northampton Street,Unit 13,,E09000019,Islington,51.541806222181876,-0.09535275624030427,532178.9640623345,184263.9227434754,10023224245,E05000369,Canonbury,https://www.city-academy.com/,E09000019,12/27/2020
Islington,Dance rehearsal studios,The Factory,407-409 Hornsey Rd,,,E09000019,Islington,51.56635035774082,-0.12175694386633129,530277.9645801154,186945.92201618192,5300050786,E05000381,Tollington,www.factoryrehearsalstudios.com,E09000019,12/27/2020
Islington,Dance rehearsal studios,Monkey House,97-101 Seven Sisters Rd,,,E09000019,Islington,51.56052221555517,-0.11497097841438046,530764.9644482199,186309.92218693928,5300081823,E05000371,Finsbury Park,http://www.fourthmonkey.co.uk,E09000019,12/27/2020
Islington,Dance rehearsal studios,Pole People & Dance Studio,33-34 Chiswell Street,,,E09000019,Islington,51.521020434401514,-0.09069966545046132,532561.9639584548,181960.92336995242,5300102337,E05000367,Bunhill,http://polepeople.co.uk,E09000019,12/27/2020
Islington,Dance rehearsal studios,London School of Capoeira,Leeds Place,Unit 1-2,,E09000019,Islington,51.56707204013069,-0.11461367229775135,530770.9644455054,187038.92199061584,5300055778,E05000381,Tollington,http://londonschoolofcapoeira.com,E09000019,12/27/2020
Islington,Dance rehearsal studios,Rehearsal space,73 Saint John Street,,,E09000019,Islington,51.52148240419818,-0.10198167974289048,531777.9641720547,181991.92336140206,5300084516,E05000370,Clerkenwell,,E09000019,12/27/2020
Islington,Dance rehearsal studios,The Hope Theatre,207 Upper Street,,,E09000019,Islington,51.54325194380294,-0.10354167675842327,531606.9642167343,184409.9227037017,5300094879,E05000379,St. Mary's,http://www.thehopetheatre.com,E09000019,12/27/2020
Islington,Dance rehearsal studios,Out of Joint,7 Thane Works,,,E09000019,Islington,51.56016472087733,-0.11399029301626046,530833.9644295829,186271.92219705431,5300089989,E05000371,Finsbury Park,,E09000019,12/27/2020
Islington,Dance rehearsal studios,Union Chapel,19 Compton Terrance,,,E09000019,Islington,51.54475877693107,-0.10274346921410946,531657.964202926,184578.92265754042,5300023057,E05000379,St. Mary's,http://www.unionchapel.org.uk,E09000019,12/27/2020
Islington,Dance rehearsal studios,Urdang Academy,Rosebery Avenue,,,E09000019,Islington,51.526941801319346,-0.10815553446981568,531333.9642944784,182587.9231996374,5300079780,E05000370,Clerkenwell,http://www.theurdangacademy.com,E09000019,12/27/2020
Islington,Dance rehearsal studios,Urdang 2,259-263 Goswell Road,,,E09000019,Islington,51.529952715561535,-0.1030421760834338,531679.9642011265,182931.923106805,10090263567,E05000367,Bunhill,https://theurdang.london/about-us/our-facilities/,E09000019,12/27/2020
Islington,Dance rehearsal studios,Claremont Project Upper Hall,24-27 White Lion Street,,,E09000019,Islington,51.5325048801352,-0.10850153515954941,531293.9643064706,183205.92303102673,5300097468,E05000366,Barnsbury,https://www.claremont-project.org,E09000019,12/27/2020
Islington,Dance rehearsal studios,The Peel ,Three Corners Centre,Northampton Road,,E09000019,Islington,51.52535580221016,-0.10683735434935968,531429.9642680202,182413.92324727844,10090264827,E05000370,Clerkenwell,http://www.peelinstitute.org.uk,E09000019,12/27/2020
Islington,Dance rehearsal studios,2 Northdown ,2 Northdown Street,,,E09000019,Islington,51.5313460581406,-0.11920450552314721,530554.9645068204,183057.92306964763,5300068234,E05000368,Caledonian,https://www.2northdown.com/about/,E09000019,12/27/2020
Islington,Dance rehearsal studios,London Metropolitan University Graduate Centre,182-198 Holloway Rd,,,E09000019,Islington,51.55147327374649,-0.11035420323320108,531110.9643531817,185311.92245759617,5300047823,E05000373,Highbury West,http://www.londonmet.ac.uk/contact-us/how-to-find-us/tower-building/graduate-centre/,E09000019,12/27/2020
Islington,Dance rehearsal studios,Lift Islington - Platform Theatre,2 Tiltman Place,,,E09000019,Islington,51.5614248705854,-0.1157416039179951,530708.9644632402,186408.92216038413,10012794343,E05000371,Finsbury Park,http://www.platformislington.org.uk,E09000019,12/27/2020
Islington,Dance rehearsal studios,Sadler's Wells Theatre,177 Rosebery Ave,,,E09000019,Islington,51.52942925041774,-0.1062646136474187,531457.9642613021,182867.92312363884,5300080047,E05000370,Clerkenwell,http://www.sadlerswells.com,E09000019,12/27/2020
Islington,Dance rehearsal studios,London Dance Academy,51 Central Street,,,E09000019,Islington,51.5255591465995,-0.09662222324864979,532137.964074406,182454.92323630553,5300017733,E05000367,Bunhill,http://londondanceacademy.co.uk,E09000019,12/27/2020
Islington,Dance rehearsal studios,Pleasance,41 North Mews,,,E09000019,Islington,51.54876851276606,-0.121673379465882,530333.9645645174,184990.92254526174,10094608227,E05000375,Holloway,https://www.pleasance.co.uk,E09000019,12/27/2020
Islington,Dance rehearsal studios,Old Red Lion,418 St John Street,,,E09000019,Islington,51.53148185041091,-0.10584777886832213,531480.9642555137,183096.92306126392,5300085363,E05000367,Bunhill,,E09000019,12/27/2020
Islington,Dance rehearsal studios,Lilian Baylis Studio,183 Rosebery Avenue,,,E09000019,Islington,51.529683816032346,-0.10587919015184069,531483.9642542966,182896.9231158028,5300080050,E05000370,Clerkenwell,http://www.sadlerswells.com/venue-hire/lilian-baylis-studio/,E09000019,12/27/2020
Islington,Dance rehearsal studios,Theatre Delicatessen (Guardian House),119 Farringdon Road,,,E09000019,Islington,51.52322361924053,-0.10845386132237624,531323.9642962761,182173.92331156536,10093624103,E05000370,Clerkenwell,http://www.delistudios.co.uk/broadgate,E09000019,12/27/2020
Islington,Fashion and design,Ari London,Kemp House,160 City Road,,E09000019,Islington,51.5273038836578,-0.08889407857070336,532668.9639293723,182662.92317848676,5300019987,E05000367,Bunhill,http://www.arilondonstudio.com/,E09000019,12/27/2020
Islington,Fashion and design,Nylander Couture,Unit 2 The Ivories,6-18 Northampton Street,,E09000019,Islington,51.541806222181876,-0.09535275624030427,532178.9640623345,184263.9227434754,5300067838,E05000369,Canonbury,http://nylandercouture.com/,E09000019,12/27/2020
Islington,Jewellery design,Aura Diamond Jewels Limited,21 Bunhill Row,,,E09000019,Islington,51.52240591401424,-0.08963261527319999,532631.964061229,182116.92344947963,5300012553,E05000367,Bunhill,,E09000019,12/27/2020
Islington,Jewellery design,Buckle Up Limited,130 Old Street,,,E09000019,Islington,51.524858657238305,-0.0922545466284344,532442.9641126478,182384.9233766758,10091779971,E05000367,Bunhill,,E09000019,12/27/2020
Islington,Jewellery design,Candymax Designs Limited,9 Bonhill Street,,,E09000019,Islington,51.5225922544089,-0.08506956077438432,532947.9639748496,182145.923441356,5300010984,E05000367,Bunhill,,E09000019,12/27/2020
Islington,Jewellery design,Fos Jewellery Limited,Po Box 698 2nd Floor,Titchfield House,,E09000019,Islington,51.524566973958606,-0.11201654858845887,531072.9644870767,182316.9233945646,10015251517,E05000370,Clerkenwell,,E09000019,12/27/2020
Islington,Jewellery design,Gala Creations Limited,Unit 1.2,42 Britton Street,,E09000019,Islington,51.52097515704982,-0.10286766167290083,531717.9643103468,181933.9234989548,10091777374,E05000370,Clerkenwell,,E09000019,12/27/2020
Islington,Jewellery design,Margot & Mila Ltd,13a Compton Road,,,E09000019,Islington,51.54483565342429,-0.09916353028213809,531905.9642578498,184593.92277563212,5300022871,E05000369,Canonbury,,E09000019,12/27/2020
Islington,Jewellery design,Maya Magal Jewellery Limited,193 Upper Street,,,E09000019,Islington,51.54253757914818,-0.10329737306872093,531625.9643336518,184330.9228474932,5300094850,E05000379,St. Mary's,http://www.mayamagal.co.uk,E09000019,12/27/2020
Islington,Jewellery design,Rachel Jackson London Ltd,3-5 St. John Street,,,E09000019,Islington,51.52002469586208,-0.1019269951555003,531785.9642914999,181829.92352697818,5300084438,E05000370,Clerkenwell,,E09000019,12/27/2020
Islington,Jewellery design,Stephen Tyler Limited,2nd 113-117 Farringdon Road,,,E09000019,Islington,51.522866633055635,-0.1080650295967223,531351.9644106511,182134.92344421928,10012787092,E05000370,Clerkenwell,,E09000019,12/27/2020
Islington,Jewellery design,Treasure House Limited,2nd Floor,Crusader House,,E09000019,Islington,51.523382195006484,-0.10268108657082657,531723.9643094806,182201.92342704226,5300084613,E05000370,Clerkenwell,,E09000019,12/27/2020
Islington,Jewellery design,Multiple businesses ,Kemp House,152-160 City Road,,E09000019,Islington,51.52730388472637,-0.08889407676563492,532668.9640514713,182662.92330058687,5300019988,E05000367,Bunhill,,E09000019,12/27/2020
Islington,Jewellery design,Multiple businesses ,30 City Road,,,E09000019,Islington,51.522550412763486,-0.08746426402506906,532781.9640202201,182136.92344392487,5300019771,E05000367,Bunhill,,E09000019,12/27/2020
Islington,LGBT+ night time venues,Central Station (King's Cross),37 Wharfdale Road,,,E09000019,Islington,51.53393266822713,-0.12203913489978649,530350.9748624793,183340.5072929174,,E05000368,Caledonian,,E09000019,12/27/2020
Islington,LGBT+ night time venues,The Underground Club,37 Wharfdale Road,,,E09000019,Islington,51.53393266822713,-0.12203913489978649,530350.9748624793,183340.5072929174,,E05000368,Caledonian,http://www.unskinnybop.co.uk/about,E09000019,12/27/2020
Islington,LGBT+ night time venues,King's Head Theatre (Regular LGBTQ+ Programming),115 Upper St,,,,,51.53838383513019,-0.10283335323774993,531670.1242019313,183869.85285118653,,,,www.kingsheadtheatre.com,E09000019,12/27/2020
Islington,LGBT+ night time venues,Kolis (Regular LGBTQ+ Programming),1 Archway Rd,,,,Islington,51.566104434509796,-0.13507698030572302,529355.5143336195,186894.9473296845,,,,,E09000019,12/27/2020
Islington,LGBT+ night time venues,The Garage (Regular LGBTQ+ Programming),20-22 Highbury Corner,,,,Islington,51.54670842024193,-0.10371679469981025,531584.8548229013,184793.97729852848,,,,,E09000019,12/27/2020
Islington,Libraries,Finsbury Library,St John Street,,,E09000019,Islington,51.52648754915111,-0.10452699990419771,531586.9643476697,182543.92333443527,5300084848,E05000370,Clerkenwell,,E09000019,12/27/2020
Islington,Libraries,Lewis Carroll Children's Library,Copenhagen Street,,,E09000019,Islington,51.537070788927245,-0.11729572444555002,530670.9645956919,183697.92301700945,10012791189,E05000368,Caledonian,,E09000019,12/27/2020
Islington,Libraries,South Library,Essex Road,,,E09000019,Islington,51.53903734783922,-0.09872745764657517,531952.964247037,183949.92295148538,5300031416,E05000379,St. Mary's,,E09000019,12/27/2020
Islington,Libraries,West Library,Bridgeman Road,,,E09000019,Islington,51.54073985232338,-0.116178031044767,530737.9645752062,184107.92290518887,5300011807,E05000368,Caledonian,,E09000019,12/27/2020
Islington,Libraries,Mildmay Library,Mildmay Park,,,E09000019,Islington,51.54760616918449,-0.08430754848600175,532927.9639809256,184928.92268464336,5300062563,E05000377,Mildmay,,E09000019,12/27/2020
Islington,Libraries,Islington Central Library,Fieldway Crescent,,,E09000019,Islington,51.54923604460503,-0.10712946724683517,531340.9644118594,185068.92264553037,5300033298,E05000372,Highbury East,,E09000019,12/27/2020
Islington,Libraries,John Barnes Library,Rowstock Gardens,,,E09000019,Islington,51.55093872275794,-0.12579581843326124,530041.9647661131,185224.92260435305,10093108781,E05000375,Holloway,,E09000019,12/27/2020
Islington,Libraries,North Library,Manor Gardens,,,E09000019,Islington,51.56041527433732,-0.12175612447341658,530294.9646982616,186285.9223163136,5300060053,E05000371,Finsbury Park,,E09000019,12/27/2020
Islington,Libraries,N4 Library,Blackstock Road,,,E09000019,Islington,51.563835637629396,-0.1035224305613082,531548.964357424,186698.92220264528,10001298318,E05000373,Highbury West,,E09000019,12/27/2020
Islington,Libraries,Archway Library,Highgate Hill,,,E09000019,Islington,51.5656809911148,-0.13560724102262378,529319.9649653056,186846.92216477322,10012791132,E05000376,Junction,,E09000019,12/27/2020
Islington,Makerspaces,"Here Today, Here Tomorrow","Here Today, Here Tomorrow",30a Balls Pond Road,Dalston,E09000019,Islington,51.54619381403967,-0.07714109601679586,533428.9637218756,184784.92260122154,10023220837,E05000377,Mildmay,http://www.heretoday-heretomorrow.com/,E09000019,12/27/2020
Islington,Museums and public galleries,The Estorick Collection of Modern Italian Art,39A Canonbury Square,NA,NA,E09000019,Islington,51.54387833128418,-0.10057352817539772,531810.9642835463,184484.92280556652,5300016244,E05000379,St. Mary's,www.​estorickcollection.​com,E09000019,12/27/2020
Islington,Museums and public galleries,John WesleyÊ¼s House and The Museum of Methodism,Wesley's Chapel,49 City Road,NA,E09000019,Islington,51.52358674075504,-0.08704601327093675,532807.9640127942,182252.92341210903,5300019876,E05000367,Bunhill,http://www.culture24.org.uk/se000445,E09000019,12/27/2020
Islington,Museums and public galleries,"Wesleyâs Chapel, Museum of Methodism and John Wesleyâs House",49 City Road,NA,NA,E09000019,Islington,51.52376699404311,-0.08651948891867592,532843.9640028753,182273.92340630275,5300019879,E05000367,Bunhill,http://www.wesleychapel.org.uk/,E09000019,12/27/2020
Islington,Museums and public galleries,London Canal Museum,12/13 New Wharf Road,Kingâs Cross,NA,E09000019,Islington,51.534223258092666,-0.12029704979447432,530470.9646518101,183375.9231051242,5300066428,E05000368,Caledonian,http://www.canalmuseum.org.uk/,E09000019,12/27/2020
Islington,Museums and public galleries,Museum of the Order of St John,St Johnâs Gate,26 St John's Ln,NA,E09000019,Islington,51.52192262192881,-0.10251113787674049,531739.9643046535,182039.9234705505,5300085644,E05000370,Clerkenwell,http://www.museumstjohn.org.uk/,E09000019,12/27/2020
Islington,Museums and public galleries,Charterhouse,Sutton's Hospital,Charterhouse Square,NA,E09000019,Islington,51.52131610826995,-0.10004258270465137,531912.9642573192,181976.92348758347,10023218636,E05000367,Bunhill,http://www.thecharterhouse.org/,E09000019,12/27/2020
Islington,Museums and public galleries,Islington Museum, 245 St John St,Clerkenwell,NA,E09000019,Islington,51.52648754915111,-0.10452699990419771,531586.9643476697,182543.92333443527,10091003195,E05000370,Clerkenwell,NA,E09000019,12/27/2020
Islington,Music (office based businesses),Negart Records Ltd,145-157 St John St Clerkenwell,,,E09000019,Islington,51.52341790880416,-0.10266518594020188,531724.9643093151,182205.92342546524,0,E05000370,Clerkenwell,,E09000019,12/27/2020
Islington,Music (office based businesses),Ok Media Ltd,22 Coleman Fields Islington,,,E09000019,Islington,51.5376810364343,-0.09494825543977621,532218.964175831,183805.9229898667,0,E05000380,St. Peter's,www.okmedial.biz,E09000019,12/27/2020
Islington,Music (office based businesses),East City Management,Old Workshop Almorah Road,Islington,,E09000019,Islington,51.539894880283455,-0.0884240713444513,532664.9640540777,184063.92291889596,10023221148,E05000369,Canonbury,,E09000019,12/27/2020
Islington,Music (office based businesses),Autonomy Music Group,7 Tileyard Rd London,,,E09000019,Islington,51.54256536512997,-0.12347202463180235,530226.9647141228,184297.9228538503,0,E05000368,Caledonian,,E09000019,12/27/2020
Islington,Music (office based businesses),Karma Artists Music Management,Unit 31 Tileyard Studios,Tileyard Road,Islington,E09000019,Islington,51.542761917629186,-0.12282938545254125,530270.9647021198,184320.92284747487,10093108867,E05000368,Caledonian,,E09000019,12/27/2020
Islington,Music (office based businesses),Everybody's,53 Corsica Street,Islington,,E09000019,Islington,51.549202308602524,-0.1005969378378122,531793.9642881564,185076.9226426644,5300024611,E05000372,Highbury East,,E09000019,12/27/2020
Islington,Music recording studios,Syncbox Post,195 St. John Street,Islington,,E09000019,Islington,51.52436673508204,-0.10350509338889313,531663.9643262273,182309.92339740763,10091003102,E05000370,Clerkenwell,,E09000019,12/27/2020
Islington,Music recording studios,Angel Recording Studios Ltd,311-312 Upper Street,Islington,,E09000019,Islington,51.53786433949495,-0.10236698807729788,531703.9643152779,183812.9229883955,5300095127,E05000379,St. Mary's,http://www.angelstudios.co.uk,E09000019,12/27/2020
Islington,Music rehearsal studios,Urdang2,Urdang Academy Old Finsbury Town Hall,Rosebery Avenue,,E09000019,Islington,51.52703004302199,-0.10805095679339459,531340.9644147895,182597.92331852327,0,E05000370,Clerkenwell,www.theurdanacademy.com,E09000019,12/27/2020
Islington,Music rehearsal studios,The New Rose,84-86 Essex Road,Islington,,E09000019,Islington,51.53842953576909,-0.0989546859609032,531938.9642512747,183881.92296952673,5300031362,E05000380,St. Peter's,www.thenewrose.co.uk,E09000019,12/27/2020
Islington,Music rehearsal studios,John Henry,16-24 Brewery Road ,,,E09000019,Islington,51.54553025442256,-0.12049434618450086,530424.964660906,184632.92276298837,0,E05000368,Caledonian,www.johnhenrys.com,E09000019,12/27/2020
Islington,Music rehearsal studios,Strummers Studios,43046 Georges Road,Islington,,E09000019,Islington,51.55079571149902,-0.11127657385595612,531048.9644922336,185234.92260025057,5300035125,E05000375,Holloway,www.strummersstudios.com,E09000019,12/27/2020
Islington,Music rehearsal studios,Islington Arts Factory,2 Parkhurst Road,Islington,,E09000019,Islington,51.553728750458156,-0.12312788318905117,530218.9647187116,185539.9225182666,5300071066,E05000375,Holloway,www.islingtonartsfactory.org,E09000019,12/27/2020
Islington,Music rehearsal studios,Storm Rehearsal Studios,Arches 6 & & 303 Holloway Road,,,E09000019,Islington,51.564612532620295,-0.1323179745724433,529550.9649020332,186733.92219515983,0,E05000376,Junction,www.stormrehearsalstudios.co.uk,E09000019,12/27/2020
Islington,Music venues (all),Slim Jim's Liquor Store,112 Upper St,,,,Islington,51.5379902816437,-0.10286487729993156,531669.0735775583,183826.0322376142,,,,www.slimjimsliquorstore.com,E09000019,12/27/2020
Islington,Music venues (all),Thousand Island,20-22 Highbury Corner Highbury East,,,E09000019,Islington,51.54674851266244,-0.10400200621906802,531564.9643505255,184797.92271902488,0,E05000372,Highbury East,www.thegarage.london/listings/#=.thousand-island,E09000019,12/27/2020
Islington,Music venues (all),South Place Hotel,3 South Place,Islington,,E09000019,Islington,51.519036076633974,-0.08647284327324027,532860.9639999103,181747.92355009995,10090266586,E05000367,Bunhill,,E09000019,12/27/2020
Islington,Music venues (all),Beduin,57-59 Charterhouse Street,Islington,,E09000019,Islington,51.519322165328354,-0.10352736600972358,531676.9643211036,181748.92354804144,10010439992,E05000370,Clerkenwell,www.beduinbar.co.uk/smithfields,E09000019,12/27/2020
Islington,Music venues (all),Fabric,77a Charterhouse St London,,,E09000019,Islington,51.51965657531466,-0.10251887997203403,531745.9643023888,181787.9235376775,5300037740,E05000370,Clerkenwell,www.fabriclondon.com,E09000019,12/27/2020
Islington,Music venues (all),Reina Bar And Kitchen,85 Charterhouse Street,Islington,,E09000019,Islington,51.519723575857995,-0.1022133927571561,531766.9642966827,181795.92353556358,5300019054,E05000370,Clerkenwell,www.reina.london,E09000019,12/27/2020
Islington,Music venues (all),Fence,67-69 Cowcross Street,Islington,,E09000019,Islington,51.52005334880092,-0.10369878031729252,531662.9643251504,181829.923526271,5300024880,E05000370,Clerkenwell,www.thefenceuk.co.uk,E09000019,12/27/2020
Islington,Music venues (all),The Piano Works - Farringdon,113 Corner Of Farringdon Rd,Farringdon,London,E09000019,Islington,51.52286663305105,-0.10806502959551609,531351.9644107473,182134.9234437112,10012787103,E05000370,Clerkenwell,www.pianoworks.bar,E09000019,12/27/2020
Islington,Music venues (all),Betsey Trotwood,56 Farringdon Road,Islington,,E09000019,Islington,51.523360671265436,-0.10803012875882492,531352.9644106138,182189.92342892103,5300032921,E05000370,Clerkenwell,www.betsey.pub,E09000019,12/27/2020
Islington,Music venues (all),Crypt On The Green,53a Clerkenwell Close,Islington,,E09000019,Islington,51.523354769815086,-0.10543558589181817,531532.9643615878,182193.9234282525,5300020940,E05000370,Clerkenwell,www.cryptonthegreen.com,E09000019,12/27/2020
Islington,Music venues (all),The Slaughtered Lamb,34-35 Great Sutton Street,Islington,,E09000019,Islington,51.52331394985896,-0.10124237442295672,531823.9642822873,182196.92342802044,10008975751,E05000367,Bunhill,www.theslaughteredlambpub.com,E09000019,12/27/2020
Islington,Music venues (all),The Eagle,159 Farringdon Road,Islington,,E09000019,Islington,51.524161862948255,-0.10975562584518882,531230.9644440538,182275.92340549175,5300033028,E05000370,Clerkenwell,www.theeaglefarringdon.co.uk,E09000019,12/27/2020
Islington,Music venues (all),Nomad London,58 Old Street,Islington,,E09000019,Islington,51.52407130244119,-0.09581934482875872,532197.9641799814,182290.92340214137,5300069544,E05000367,Bunhill,www.nomadlondon.com/,E09000019,12/27/2020
Islington,Music venues (all),Mcqueen,55-61 Tabernacle Street,Islington,,E09000019,Islington,51.52450963248019,-0.08573871023500901,532895.963988452,182357.92338265246,10008977886,E05000367,Bunhill,www.mcqueen-shoreditch.co.uk/,E09000019,12/27/2020
Islington,Music venues (all),Lso St. Luke's,161 Old Street,Islington,,E09000019,Islington,51.525156142938506,-0.09395762987426066,532323.9641454249,182414.92336828302,5300069641,E05000367,Bunhill,www.lso.co.uk/lso-st-lukes.html,E09000019,12/27/2020
Islington,Music venues (all),The Magic Roundabout,16 St. Agnes Well,Islington,,E09000019,Islington,51.52554551773368,-0.08749728008803118,532770.9640224836,182469.92335220875,10093110770,E05000367,Bunhill,www.magicroundabout.co,E09000019,12/27/2020
Islington,Music venues (all),Xoyo,32-37 Cowper Street,Islington,,E09000019,Islington,51.52551847600761,-0.08584054054861388,532885.9639908343,182469.92335191387,5300025027,E05000367,Bunhill,www.xoyo.co.uk,E09000019,12/27/2020
Islington,Music venues (all),Club Aquarium,256-260 Old Street,Islington,,E09000019,Islington,51.52589407256809,-0.08516162500353702,532931.9639784369,182512.92334014096,5300069826,E05000367,Bunhill,www.clubaquarium.co.uk,E09000019,12/27/2020
Islington,Music venues (all),Britannia,94 Ironmonger Row,Islington,,E09000019,Islington,51.52733221612684,-0.09450104736775035,532279.9641583188,182655.9233028589,5300052261,E05000367,Bunhill,,E09000019,12/27/2020
Islington,Music venues (all),Sadler's Wells,Rosebery Avenue Islington,,,E09000019,Islington,51.52942925148205,-0.10626461184146849,531457.9643834988,182867.92324523267,5300080047,E05000370,Clerkenwell,www.sadlerswells.com,E09000019,12/27/2020
Islington,Music venues (all),Harlequin,27 Arlington Way,Islington,,E09000019,Islington,51.52989609399968,-0.10621639542503004,531459.9643830592,182919.9232310601,5300003134,E05000370,Clerkenwell,www.harlequinpub.co.uk,E09000019,12/27/2020
Islington,Music venues (all),Fellow,24 York Way,Islington,,E09000019,Islington,51.531629562941966,-0.12230711846099739,530338.9646877134,183083.92318457953,5300100120,E05000368,Caledonian,www.thefellow.co.uk,E09000019,12/27/2020
Islington,Music venues (all),Old Red Lion,418 St. John Street,Islington,,E09000019,Islington,51.531481851475206,-0.10584777706227927,531480.9643777091,183096.92318285856,5300085363,E05000367,Bunhill,www.oldredliontheatre.co.uk/pub.html,E09000019,12/27/2020
Islington,Music venues (all),Simmons Bar,32 Caledonian Road,Islington,,E09000019,Islington,51.531834845123036,-0.12052523719383386,530461.9646543325,183109.92317723698,10012787685,E05000368,Caledonian,,E09000019,12/27/2020
Islington,Music venues (all),The Lexington,96-98 Pentonville Road,Islington,,E09000019,Islington,51.53176947168845,-0.1114156627861373,531093.9644827903,183118.9231757864,5300073232,E05000366,Barnsbury,www.thelexington.co.uk,E09000019,12/27/2020
Islington,Music venues (all),Charles Lamb,16 Elia Street,Islington,,E09000019,Islington,51.53198325868785,-0.1018186832007306,531758.9643023912,183159.92316645262,5300029797,E05000380,St. Peter's,www.thecharleslambpub.com,E09000019,12/27/2020
Islington,Music venues (all),King Charles I,55-57 Northdown Street,Islington,,E09000019,Islington,51.532469660210026,-0.11973490819163839,530514.9646400149,183181.92315748573,5300068335,E05000368,Caledonian,,E09000019,12/27/2020
Islington,Music venues (all),Electrowerkz,7 Torrens Street,Islington,,E09000019,Islington,51.53244650389838,-0.10488493961017475,531544.9643605648,183205.9231533169,5300092109,E05000380,St. Peter's,,E09000019,12/27/2020
Islington,Music venues (all),Lincoln Lounge,52 York Way,Islington,,E09000019,Islington,51.53321055104433,-0.12219878007846231,530341.9646870939,183259.9231365249,5300100130,E05000368,Caledonian,,E09000019,12/27/2020
Islington,Music venues (all),O2 Academy Islington,16 Parkfield Street,Islington,,E09000019,Islington,51.53399006478226,-0.1058012852066598,531476.9643792337,183375.92310677812,10001296717,E05000379,St. Mary's,www.academymusicgroup.com/o2academyislington,E09000019,12/27/2020
Islington,Music venues (all),The Islington,1 Tolpuddle Street,Islington,,E09000019,Islington,51.53443361010581,-0.1087676000443255,531269.9644350744,183419.92309419665,5300092055,E05000366,Barnsbury,www.theislington.com,E09000019,12/27/2020
Islington,Music venues (all),Kings Place,Kings Place 90,York Way,Islington,E09000019,Islington,51.534998686748324,-0.12154839532748321,530381.9646756524,183459.92308185925,10091005851,E05000368,Caledonian,www.kingsplace.co.uk,E09000019,12/27/2020
Islington,Music venues (all),Camden Head,2 Camden Walk,Islington,,E09000019,Islington,51.53564102503126,-0.1027911524039412,531680.9643228981,183564.92305586836,5300015325,E05000380,St. Peter's,www.greeneking-pubs.co.uk/pub/camden-head-islington,E09000019,12/27/2020
Islington,Music venues (all),Radicals And Victuallers,59 Upper Street,Islington,,E09000019,Islington,51.53575512339936,-0.10428602828887204,531576.964351021,183574.9230528351,5300094451,E05000379,St. Mary's,,E09000019,12/27/2020
Islington,Music venues (all),The Star Of Kings,126 York Way,Islington,,E09000019,Islington,51.53636468933688,-0.12205449634098332,530342.964685499,183610.923040737,5300100171,E05000368,Caledonian,www.starofkings.co.uk,E09000019,12/27/2020
Islington,Music venues (all),Ladybird / Basement Club,70 Upper Street,Islington,,E09000019,Islington,51.53607328413585,-0.10394115274746123,531599.9643445866,183610.92304309545,10091816806,E05000379,St. Mary's,www.ladybirdbar.co.uk,E09000019,12/27/2020
Islington,Music venues (all),Wenlock And Essex,18-26 Essex Rd ,,,E09000019,Islington,51.536629685780525,-0.10109174941658025,531795.9642911035,183677.9230252949,0,E05000380,St. Peter's,www.wenlockandessex.com,E09000019,12/27/2020
Islington,Music venues (all),Crown,116 Cloudesley Road,Islington,,E09000019,Islington,51.53730554373286,-0.10952811262384138,531208.9644498065,183737.92300726962,5300021757,E05000366,Barnsbury,www.crownislington.co.uk,E09000019,12/27/2020
Islington,Music venues (all),The Old Queens Head,44 Essex Road,Islington,,E09000019,Islington,51.53719198179183,-0.10027523596979533,531850.9642758475,183741.92300778878,5300031307,E05000380,St. Peter's,,E09000019,12/27/2020
Islington,Music venues (all),Barrio North,45 Essex Road,Islington,,E09000019,Islington,51.537380354957676,-0.10080092919334806,531813.964285763,183761.9230023874,10012788013,E05000379,St. Mary's,www.barriobars.com/angel,E09000019,12/27/2020
Islington,Music venues (all),Kings Head,59 Essex Road,Islington,,E09000019,Islington,51.53760886763803,-0.10047416965160971,531835.9642796619,183787.92299527716,5300031332,E05000379,St. Mary's,,E09000019,12/27/2020
Islington,Music venues (all),The Lighthouse,Unit 1a 190 New North Road,Islington,,E09000019,Islington,51.53767539807231,-0.09128577746773046,532472.9641070038,183811.922987898,0,E05000380,St. Peter's,,E09000019,12/27/2020
Islington,Music venues (all),Rosemary Branch Theatre,2 Shepperton Road,Islington,,E09000019,Islington,51.53762241049432,-0.08693311820883858,532774.9640251863,183813.92298695608,5300082551,E05000369,Canonbury,www.rosemarybranchtheatre.co.uk,E09000019,12/27/2020
Islington,Music venues (all),Kings Head,115 Upper Street,Islington,,E09000019,Islington,51.538303156918474,-0.1028101748521188,531671.964323679,183860.92297522014,5300094557,E05000379,St. Mary's,www.kingsheadtheatrepub.co.uk,E09000019,12/27/2020
Islington,Music venues (all),St. Mary's Church,St. Marys Church Office Upper Street,Islington,,E09000019,Islington,51.53840669158377,-0.10198391009824467,531728.964308165,183873.92297186423,5300095124,E05000379,St. Mary's,www.stmaryislington.org,E09000019,12/27/2020
Islington,Music venues (all),New Unity,277 Upper Street,Islington,,E09000019,Islington,51.54052576990284,-0.1023427492071822,531697.9643152482,184108.92290776432,5300095057,E05000379,St. Mary's,,E09000019,12/27/2020
Islington,Music venues (all),Islington Assembly Hall,Town Hall Upper Street,Islington,,E09000019,Islington,51.54170966713979,-0.10214926035094182,531707.9643118011,184240.92287185334,10091816915,E05000379,St. Mary's,www.islingtonassemblyhall.co.uk,E09000019,12/27/2020
Islington,Music venues (all),Dead Dolls House Islington,181 Upper Street,Islington,,E09000019,Islington,51.54209583950505,-0.10322921785144618,531631.9643321576,184281.92286041204,5300094836,E05000379,St. Mary's,www.thedeaddollshouse.co.uk/,E09000019,12/27/2020
Islington,Music venues (all),The Four Sisters Bar,Canonbury Lane Islington,,,E09000019,Islington,51.54303289788371,-0.10278643084395872,531659.9643245406,184386.92283175862,5300015680,E05000379,St. Mary's,www.foursistersbars.com,E09000019,12/27/2020
Islington,Music venues (all),Hope & Anchor,207 Upper Street,Islington,,E09000019,Islington,51.54325194486716,-0.10354167495185898,531606.9643389306,184409.92282529594,5300094879,E05000379,St. Mary's,www.hopeandanchor-islington.co.uk,E09000019,12/27/2020
Islington,Music venues (all),Canonbury Tavern,21 Canonbury Place,Islington,,E09000019,Islington,51.544674890138786,-0.09756935768646265,532016.9642279496,184578.9227791857,5300015877,E05000369,Canonbury,www.thecanonbury.co.uk,E09000019,12/27/2020
Islington,Music venues (all),Union Chapel,19a Compton Terrace,Islington,,E09000019,Islington,51.544919835813666,-0.1026934989886281,531660.9643243095,184596.92277420667,10008975865,E05000379,St. Mary's,www.unionchapel.org.uk,E09000019,12/27/2020
Islington,Music venues (all),Duchess Of Kent,441 Liverpool Road,Islington,,E09000019,Islington,51.5463232512288,-0.10885132532399355,531229.9644418221,184741.9227339811,5300057928,E05000379,St. Mary's,www.theduchessofkent.co.uk,E09000019,12/27/2020
Islington,Music venues (all),The Garage,20-26 Highbury Corner,Islington,,E09000019,Islington,51.54670790423809,-0.10371523653077382,531584.9643450683,184793.9227201364,10008978416,E05000372,Highbury East,www.thegaragehighbury.com,E09000019,12/27/2020
Islington,Music venues (all),The Railway Tavern,4 St. Jude Street,Islington,,E09000019,Islington,51.548747353416566,-0.07931238443074556,533270.9638869979,185064.9226469982,5300086206,E05000377,Mildmay,,E09000019,12/27/2020
Islington,Music venues (all),Snooty Fox,75 Grosvenor Avenue,Islington,,E09000019,Islington,51.549159503898466,-0.09132431972722337,532436.9641139051,185088.92264033481,5300038424,E05000377,Mildmay,www.snootyfoxlondon.co.uk,E09000019,12/27/2020
Islington,Music venues (all),The Boston Arms,178 Junction Road,Islington,,E09000019,Islington,51.55730880914972,-0.13843091025245516,529147.9650110546,185910.92241869017,5300053516,E05000376,Junction,www.bostonmusicroom.co.uk,E09000019,12/27/2020
Islington,Music venues (all),The Dome,2 Dartmouth Park Hill,Islington,,E09000019,Islington,51.557511320100176,-0.13872559086755723,529126.9650168624,185932.92241271638,5300027158,E05000376,Junction,www.dometufnellpark.co.uk,E09000019,12/27/2020
Islington,Music venues (all),Nambucca,596 Holloway Road,Islington,,E09000019,Islington,51.561031471975475,-0.12373614412553818,530155.9647363002,186350.92229847918,5300048656,E05000371,Finsbury Park,www.nambucca.co.uk,E09000019,12/27/2020
Islington,Music venues (all),Jj Moons,37 Landseer Road,Islington,,E09000019,Islington,51.562896527912805,-0.12283701515287813,530212.9647205297,186559.92224195966,5300055447,E05000381,Tollington,,E09000019,12/27/2020
Islington,Music venues (all),North Nineteen,194-196 Sussex Way,Islington,,E09000019,Islington,51.56466110810882,-0.12184095266015198,530276.9647027887,186757.9221884873,5300089189,E05000381,Tollington,www.northnineteen.co.uk,E09000019,12/27/2020
Islington,Music venues (all),Orleans Winebar,259-261 Seven Sisters Road,Islington,,E09000019,Islington,51.56458873367778,-0.10504937952055825,531440.9643866629,186779.92218049738,5300082109,E05000371,Finsbury Park,,E09000019,12/27/2020
Islington,Music venues (all),Worlds End,21-23 Stroud Green Road,Islington,,E09000019,Islington,51.566971215944726,-0.10835565196658622,531204.9644502151,187038.92211115058,10007028978,E05000371,Finsbury Park,www.worldsendfinsburypark.com,E09000019,12/27/2020
Islington,Music venues (all),Shaftesbury,534 Hornsey Road,Islington,,E09000019,Islington,51.56976137048709,-0.12362219127425557,530138.9647404009,187321.92203506676,5300051016,E05000381,Tollington,,E09000019,12/27/2020
Islington,Music venues (all),Stapleton,2 Crouch Hill,Islington,,E09000019,Islington,51.57094046208859,-0.11527623710863867,530713.9645831661,187467.92199432693,5300025673,E05000381,Tollington,www.stapletontavern.com,E09000019,12/27/2020
Islington,Music venues (grassroots),Slim Jim's Liquor Store,112 Upper St,,,,Islington,51.5379902816437,-0.10286487729993156,531669.0735775583,183826.0322376142,,,,www.slimjimsliquorstore.com,E09000019,12/27/2020
Islington,Music venues (grassroots),Thousand Island,20-22 Highbury Corner Highbury East,,,E09000019,Islington,51.54674851266244,-0.10400200621906802,531564.9643505255,184797.92271902488,0,E05000372,Highbury East,www.thegarage.london/listings/#=.thousand-island,E09000019,12/27/2020
Islington,Music venues (grassroots),Fabric,77a Charterhouse St London,,,E09000019,Islington,51.51965657531466,-0.10251887997203403,531745.9643023888,181787.9235376775,5300037740,E05000370,Clerkenwell,www.fabriclondon.com,E09000019,12/27/2020
Islington,Music venues (grassroots),The Piano Works - Farringdon,113 Corner Of Farringdon Rd,Farringdon,London,E09000019,Islington,51.52286663305105,-0.10806502959551609,531351.9644107473,182134.9234437112,10012787103,E05000370,Clerkenwell,www.pianoworks.bar,E09000019,12/27/2020
Islington,Music venues (grassroots),Betsey Trotwood,56 Farringdon Road,Islington,,E09000019,Islington,51.523360671265436,-0.10803012875882492,531352.9644106138,182189.92342892103,5300032921,E05000370,Clerkenwell,www.betsey.pub,E09000019,12/27/2020
Islington,Music venues (grassroots),The Slaughtered Lamb,34-35 Great Sutton Street,Islington,,E09000019,Islington,51.52331394985896,-0.10124237442295672,531823.9642822873,182196.92342802044,10008975751,E05000367,Bunhill,www.theslaughteredlambpub.com,E09000019,12/27/2020
Islington,Music venues (grassroots),Xoyo,32-37 Cowper Street,Islington,,E09000019,Islington,51.52551847600761,-0.08584054054861388,532885.9639908343,182469.92335191387,5300025027,E05000367,Bunhill,www.xoyo.co.uk,E09000019,12/27/2020
Islington,Music venues (grassroots),The Lexington,96-98 Pentonville Road,Islington,,E09000019,Islington,51.53176947168845,-0.1114156627861373,531093.9644827903,183118.9231757864,5300073232,E05000366,Barnsbury,www.thelexington.co.uk,E09000019,12/27/2020
Islington,Music venues (grassroots),Electrowerkz,7 Torrens Street,Islington,,E09000019,Islington,51.53244650389838,-0.10488493961017475,531544.9643605648,183205.9231533169,5300092109,E05000380,St. Peter's,,E09000019,12/27/2020
Islington,Music venues (grassroots),The Islington,1 Tolpuddle Street,Islington,,E09000019,Islington,51.53443361010581,-0.1087676000443255,531269.9644350744,183419.92309419665,5300092055,E05000366,Barnsbury,www.theislington.com,E09000019,12/27/2020
Islington,Music venues (grassroots),Hope & Anchor,207 Upper Street,Islington,,E09000019,Islington,51.54325194486716,-0.10354167495185898,531606.9643389306,184409.92282529594,5300094879,E05000379,St. Mary's,www.hopeandanchor-islington.co.uk,E09000019,12/27/2020
Islington,Music venues (grassroots),The Garage,20-26 Highbury Corner,Islington,,E09000019,Islington,51.54670790423809,-0.10371523653077382,531584.9643450683,184793.9227201364,10008978416,E05000372,Highbury East,www.thegaragehighbury.com,E09000019,12/27/2020
Islington,Music venues (grassroots),The Boston Arms,178 Junction Road,Islington,,E09000019,Islington,51.55730880914972,-0.13843091025245516,529147.9650110546,185910.92241869017,5300053516,E05000376,Junction,www.bostonmusicroom.co.uk,E09000019,12/27/2020
Islington,Music venues (grassroots),The Dome,2 Dartmouth Park Hill,Islington,,E09000019,Islington,51.557511320100176,-0.13872559086755723,529126.9650168624,185932.92241271638,5300027158,E05000376,Junction,www.dometufnellpark.co.uk,E09000019,12/27/2020
Islington,Music venues (grassroots),Nambucca,596 Holloway Road,Islington,,E09000019,Islington,51.561031471975475,-0.12373614412553818,530155.9647363002,186350.92229847918,5300048656,E05000371,Finsbury Park,www.nambucca.co.uk,E09000019,12/27/2020
Islington,Prop and costume making,Backgrounds Prop Hire,40 Brewery Road,,,E09000019,Islington,51.54536920137637,-0.12110672729494032,530382.9646722026,184613.9227687153,10090549981,E05000368,Caledonian,https://www.backgroundsprophire.co.uk,E09000019,12/27/2020
Islington,Prop and costume making,CosProp,469-475 Holloway Road,,,E09000019,Islington,51.56029825841901,-0.12399714417810596,530139.9647406355,186268.92232117138,5300048478,E05000378,St. George's,http://www.cosprop.com,E09000019,12/27/2020
Islington,Pubs,Harlequin,27 Arlington Way,London,Finsbury,E09000019,Islington,51.53011014612802,-0.10610658511907134,531466.9643811077,182943.92322504142,,E05000370,Clerkenwell,,E09000019,12/27/2020
Islington,Pubs,Peasant,240 St John Street,London,Finsbury,E09000019,Islington,51.52602647776972,-0.1032631025020614,531675.9643233488,182494.92334804218,,E05000370,Clerkenwell,,E09000019,12/27/2020
Islington,Pubs,St John,26 St John Street,London,Farringdon,E09000019,Islington,51.52032231668091,-0.10142452047060016,531819.9642823361,181863.9235179036,,E05000367,Bunhill,,E09000019,12/27/2020
Islington,Pubs,Bar Smith,20 St John Street,London,Farringdon,E09000019,Islington,51.52032231668091,-0.10142452047060016,531819.9642823361,181863.9235179036,,E05000367,Bunhill,,E09000019,12/27/2020
Islington,Pubs,Clerkenwell & Social,2-5 St John's Square,London,Farringdon,E09000019,Islington,51.522196048683945,-0.10329259919874526,531684.9643197272,182068.92346265592,,E05000370,Clerkenwell,,E09000019,12/27/2020
Islington,Pubs,BrewDog,45-47 Clerkenwell Road,London,Farringdon,E09000019,Islington,51.52226216935797,-0.10460162887648397,531593.9643445429,182073.92346112552,,E05000370,Clerkenwell,,E09000019,12/27/2020
Islington,Pubs,Jerusalem Tavern,55 Britton Street,Farringdon,,E09000019,Islington,51.521666859437374,-0.10393443962901798,531641.9643312801,182008.9234786784,,E05000370,Clerkenwell,,E09000019,12/27/2020
Islington,Pubs,Fox & Anchor,115 Charterhouse Street,London,Farringdon,E09000019,Islington,51.52051641064313,-0.10063805269480151,531873.9642677152,181886.92351176136,,E05000367,Bunhill,,E09000019,12/27/2020
Islington,Pubs,Hope,94 Cowcross Street,London,Farringdon,E09000019,Islington,51.519922681386674,-0.10229159864033614,531760.9642982861,181817.9235301584,,E05000370,Clerkenwell,,E09000019,12/27/2020
Islington,Pubs,Fence,67-69 Cowcross Street,London,Farringdon,E09000019,Islington,51.52000659073808,-0.10247549671260266,531747.9643018582,181826.92352772242,,E05000370,Clerkenwell,,E09000019,12/27/2020
Islington,Pubs,Three Compasses,66 Cowcross Street,London,Farringdon,E09000019,Islington,51.52000659073808,-0.10247549671260266,531747.9643018582,181826.92352772242,,E05000370,Clerkenwell,,E09000019,12/27/2020
Islington,Pubs,Castle,34-35 Cowcross Street,London,Farringdon,E09000019,Islington,51.52025068375681,-0.10422391652558488,531625.964335205,181850.9235210775,,E05000370,Clerkenwell,,E09000019,12/27/2020
Islington,Pubs,Lazy Bones,"Unit 5, 19-25 Cowcross Street",London,Farringdon,E09000019,Islington,51.52026004314818,-0.1036901908006584,531662.9643251176,181852.92352060403,,E05000370,Clerkenwell,,E09000019,12/27/2020
Islington,Pubs,Sports Bar & Grill (Farringdon),"Unit 3 Cowcross Place,19-25 Cowcross St,",London,Farringdon,E09000019,Islington,51.52026004314818,-0.1036901908006584,531662.9643251176,181852.92352060403,,E05000370,Clerkenwell,,E09000019,12/27/2020
Islington,Pubs,Sutton Arms,6 Carthusian Street,Farringdon,Farringdon,E09000019,Islington,51.52070067609877,-0.09813663444679631,532046.9642207042,181911.92350512295,,E05000367,Bunhill,,E09000019,12/27/2020
Islington,Pubs,Erebuni,2-5 Carthusian Street,London,Farringdon,E09000019,Islington,51.52070067609877,-0.09813663444679631,532046.9642207042,181911.92350512295,,E05000367,Bunhill,,E09000019,12/27/2020
Islington,Pubs,Beduin,57-59 Charterhouse Street,London,Farringdon,E09000019,Islington,51.51926205252328,-0.10370283457420176,531664.9643242629,181741.9235504103,,E05000370,Clerkenwell,,E09000019,12/27/2020
Islington,Pubs,Draft House Farringdon,55 Charterhouse Street,London,Farringdon,E09000019,Islington,51.51926205252328,-0.10370283457420176,531664.9643242629,181741.9235504103,,E05000370,Clerkenwell,,E09000019,12/27/2020
Islington,Pubs,Smiths of Smithfield,67-77 Charterhouse Street,London,Farringdon,E09000019,Islington,51.51960954487821,-0.10239110681423769,531754.9642998223,181782.9235395408,,E05000370,Clerkenwell,,E09000019,12/27/2020
Islington,Pubs,Simmons,105 Charterhouse Street,London,Farringdon,E09000019,Islington,51.52002365636721,-0.10130721613933072,531828.9642797954,181830.9235267666,,E05000367,Bunhill,,E09000019,12/27/2020
Islington,Pubs,Sourced Market,7-21 Goswell Road,Barbican,,E09000019,Islington,51.52168055995925,-0.09756243476688134,532083.9642107885,182021.9234754537,,E05000367,Bunhill,,E09000019,12/27/2020
Islington,Pubs,Horseshoe,24 Clerkenwell Close,London,Clerkenwell,E09000019,Islington,51.523905685552435,-0.10669570375926547,531443.9643858892,182252.92341269512,,E05000370,Clerkenwell,,E09000019,12/27/2020
Islington,Pubs,Bowler,32 Bowling Green Lane,London,Clerkenwell,E09000019,Islington,51.52443884719394,-0.10797100386245946,531353.9644105465,182309.92339715117,,E05000370,Clerkenwell,,E09000019,12/27/2020
Islington,Pubs,Green,29 Clerkenwell Green,London,Clerkenwell,E09000019,Islington,51.52304325893666,-0.10563592074391917,531519.9643649384,182158.92343813245,,E05000370,Clerkenwell,,E09000019,12/27/2020
Islington,Pubs,Three Kings,7 Clerkenwell Close,London,Clerkenwell,E09000019,Islington,51.52320138308609,-0.10596091079121804,531496.9643712502,182175.92343351484,,E05000370,Clerkenwell,,E09000019,12/27/2020
Islington,Pubs,Crown Tavern,42 Clerkenwell Green,London,Clerkenwell,E09000019,Islington,51.52325172795376,-0.10518038628084218,531550.9643565567,182182.92343175464,,E05000370,Clerkenwell,,E09000019,12/27/2020
Islington,Pubs,Sekforde,34 Sekforde Street,London,Clerkenwell,E09000019,Islington,51.52399567370218,-0.10447195302864047,531597.9643439837,182266.9234093012,,E05000370,Clerkenwell,,E09000019,12/27/2020
Islington,Pubs,Bourne & Hollingsworth Buildings,42 Northampton Road,London,Clerkenwell,E09000019,Islington,51.525571331253815,-0.1073762242155535,531391.9644005197,182436.92336306872,,E05000370,Clerkenwell,,E09000019,12/27/2020
Islington,Pubs,George & Monkey,68 Amwell Street,London,Finsbury,E09000019,Islington,51.53017846219243,-0.11034254007277991,531172.9644609594,182943.92322422581,,E05000370,Clerkenwell,,E09000019,12/27/2020
Islington,Pubs,Shakespeares Head,1 Arlington Way,London,Finsbury,E09000019,Islington,51.53031483130361,-0.10653061776824635,531436.9643892987,182965.92321896122,,E05000370,Clerkenwell,,E09000019,12/27/2020
Islington,Pubs,Eagle,159 Farringdon Road,London,Clerkenwell,E09000019,Islington,51.524383115443854,-0.11009243882163804,531206.96445055,182299.92339947936,,E05000370,Clerkenwell,,E09000019,12/27/2020
Islington,Pubs,Piano Works,113-117 Farringdon Road,London,Clerkenwell,E09000019,Islington,51.525540675021915,-0.1110536206422488,531136.9644699021,182426.92336508917,,E05000370,Clerkenwell,,E09000019,12/27/2020
Islington,Pubs,City Pride,28 Farringdon Lane,London,Clerkenwell,E09000019,Islington,51.522942943297906,-0.10666357600876082,531448.9643842491,182145.9234414737,,E05000370,Clerkenwell,,E09000019,12/27/2020
Islington,Pubs,Betsey Trotwood,56 Farringdon Road,London,Clerkenwell,E09000019,Islington,51.52331434356807,-0.10794555695484732,531358.9644088688,182184.92343078565,,E05000370,Clerkenwell,,E09000019,12/27/2020
Islington,Pubs,Ninth Ward,99-101 Farringdon Road,London,Clerkenwell,E09000019,Islington,51.52250871512338,-0.10761858341947822,531383.9644018335,182095.92345477542,,E05000370,Clerkenwell,,E09000019,12/27/2020
Islington,Pubs,Coach,26-28 Ray Street,London,Clerkenwell,E09000019,Islington,51.52308199299044,-0.1091516698831447,531275.9644314114,182156.92343813292,,E05000370,Clerkenwell,,E09000019,12/27/2020
Islington,Pubs,Caravan,11-13 Exmouth Street,London,Clerkenwell,E09000019,Islington,51.52556866984963,-0.1100000803063458,531209.9644500426,182431.92336392746,,E05000370,Clerkenwell,,E09000019,12/27/2020
Islington,Pubs,Exmouth Arms,23 Exmouth Market,Clerkenwell,Finsbury,E09000019,Islington,51.52609162143978,-0.10896927135938923,531279.9644310973,182491.92334776325,,E05000370,Clerkenwell,,E09000019,12/27/2020
Islington,Pubs,Coin Laundry,70 Exmouth Market,London,Clerkenwell,E09000019,Islington,51.52621132305537,-0.10802724430104027,531344.9644134394,182506.92334385344,,E05000370,Clerkenwell,,E09000019,12/27/2020
Islington,Pubs,Wilmington,69 Rosebery Avenue,London,Clerkenwell,E09000019,Islington,51.52608230605012,-0.1100652998949408,531203.9644517723,182488.92334836978,,E05000370,Clerkenwell,,E09000019,12/27/2020
Islington,Pubs,Old China Hand,8 Tysoe Street,London,Clerkenwell,E09000019,Islington,51.5267582642746,-0.10904255431901483,531272.9644331313,182565.92332756665,,E05000370,Clerkenwell,,E09000019,12/27/2020
Islington,Pubs,Sutton Arms,16 Great Sutton Street,London,Finsbury,E09000019,Islington,51.52333542642987,-0.10034771553285105,531885.9642652266,182200.92342737544,,E05000367,Bunhill,,E09000019,12/27/2020
Islington,Pubs,Slaughtered Lamb,34-35 Gt Sutton Street,London,Finsbury,E09000019,Islington,51.52330752975176,-0.10140121272494725,531812.9642851988,182195.92342880846,,E05000367,Bunhill,,E09000019,12/27/2020
Islington,Pubs,19:20,19-20 Great Sutton Street,London,Finsbury,E09000019,Islington,51.52323843591721,-0.1015770742671174,531800.9642884609,182187.92343097046,,E05000367,Bunhill,,E09000019,12/27/2020
Islington,Pubs,Brewhouse & Kitchen,Torrens Street,London,Angel,E09000019,Islington,51.5322243978205,-0.1050527695936668,531533.9643634,183180.92316061002,,E05000380,St. Peter's,,E09000019,12/27/2020
Islington,Pubs,Royal Star,220 City Road,London,Finsbury,E09000019,Islington,51.52824159344568,-0.09235815641639347,532425.9641186122,182760.92327449768,,E05000367,Bunhill,,E09000019,12/27/2020
Islington,Pubs,Britannia,94 Ironmonger Row,London,Finsbury,E09000019,Islington,51.52683303561599,-0.09421914849148327,532300.9641522376,182600.92331827723,,E05000367,Bunhill,,E09000019,12/27/2020
Islington,Pubs,Jamies Italian,409-411 St John St,London,Finsbury,E09000019,Islington,51.531291440368534,-0.10686494547587545,531410.9643965701,183073.92318944185,,E05000370,Clerkenwell,,E09000019,12/27/2020
Islington,Pubs,Artisan (of Clerkenwell),53 St John's Square,London,Finsbury,E09000019,Islington,51.522919969927706,-0.10412742749486714,531624.9643362996,182147.92344131827,,E05000370,Clerkenwell,,E09000019,12/27/2020
Islington,Pubs,Dovetail,9 Jerusalem Passage,London,Finsbury,E09000019,Islington,51.5231962297053,-0.10397179405570578,531634.9643336618,182178.92343301646,,E05000370,Clerkenwell,,E09000019,12/27/2020
Islington,Pubs,Simmons,180 St John Street,London,Finsbury,E09000019,Islington,51.52480568605847,-0.10340035152499252,531669.9643246352,182358.923384776,,E05000367,Bunhill,,E09000019,12/27/2020
Islington,Pubs,Old Red Lion,418 St John Street,London,Finsbury,E09000019,Islington,51.531409958036946,-0.1058507626058126,531480.9643775966,183088.9231855455,,E05000367,Bunhill,,E09000019,12/27/2020
Islington,Pubs,Pearl & Feathers,362 St John Street,London,Finsbury,E09000019,Islington,51.529774436195545,-0.10480852793549345,531557.9643563186,182908.9232348369,,E05000367,Bunhill,,E09000019,12/27/2020
Islington,Pubs,Blacksmith & The Toffee Maker,292 St John Street,London,Finsbury,E09000019,Islington,51.52832292596506,-0.10458049110135782,531577.9643505453,182747.92327878944,,E05000370,Clerkenwell,,E09000019,12/27/2020
Islington,Pubs,Old Ivy House,166 Goswell Road,London,Finsbury,E09000019,Islington,51.528474507694334,-0.10060947837735246,531852.9642757004,182771.92327268352,,E05000367,Bunhill,,E09000019,12/27/2020
Islington,Pubs,Corner Bar,125 Central Street,London,Finsbury,E09000019,Islington,51.52753984418515,-0.09731808967708082,532083.964212076,182673.92329890013,,E05000367,Bunhill,,E09000019,12/27/2020
Islington,Pubs,William Blake,174-180 Old Street,London,Finsbury,E09000019,Islington,51.52517082654822,-0.09043947144187207,532567.9640782629,182422.9233660447,,E05000367,Bunhill,,E09000019,12/27/2020
Islington,Pubs,Masque Haunt,168-172 Old Street,London,Finsbury,E09000019,Islington,51.52517082654822,-0.09043947144187207,532567.9640782629,182422.9233660447,,E05000367,Bunhill,,E09000019,12/27/2020
Islington,Pubs,Fare Bar + Canteen,11 Old Street,Old Street,,E09000019,Islington,51.52360383258343,-0.09804445107731144,532044.9642217547,182234.92341801198,,E05000367,Bunhill,,E09000019,12/27/2020
Islington,Pubs,Look Mum No hands,49 Old Street,London,Finsbury,E09000019,Islington,51.524095963643894,-0.09678417532648748,532130.9641982561,182291.92340249056,,E05000367,Bunhill,,E09000019,12/27/2020
Islington,Pubs,Draft House Old Street,211 Old Street,London,Finsbury,E09000019,Islington,51.5260483530386,-0.08910525803102481,532657.964053761,182522.92333861737,,E05000367,Bunhill,,E09000019,12/27/2020
Islington,Pubs,Shoreditch Grind,213 Old Street,Old Street,,E09000019,Islington,51.5260483530386,-0.08910525803102481,532657.964053761,182522.92333861737,,E05000367,Bunhill,,E09000019,12/27/2020
Islington,Pubs,Old Fountain,3 Baldwin Street,Finsbury,,E09000019,Islington,51.527000221515536,-0.08902213308998484,532660.9640534901,182628.92330983607,,E05000367,Bunhill,,E09000019,12/27/2020
Islington,Pubs,Singer Tavern,1-5 City Road,London,Finsbury,E09000019,Islington,51.52277489587275,-0.08689265269650465,532820.9640094934,182162.9234367723,,E05000367,Bunhill,,E09000019,12/27/2020
Islington,Pubs,Angel,73 City Road,London,Finsbury,E09000019,Islington,51.52488691461383,-0.08736631324275329,532781.9640195268,182396.92337268306,,E05000367,Bunhill,,E09000019,12/27/2020
Islington,Pubs,Two Brewers,121 Whitecross Street,London,Finsbury,E09000019,Islington,51.52238749812074,-0.09292007075190638,532403.9641235006,182108.92345178063,,E05000367,Bunhill,,E09000019,12/27/2020
Islington,Pubs,Artillery Arms,102 Bunhill Row,London,Finsbury,E09000019,Islington,51.52347736115049,-0.09026528608259075,532584.9640738841,182234.92341730918,,E05000367,Bunhill,,E09000019,12/27/2020
Islington,Pubs,Whitecross Tap,142 Whitecross Street,London,Finsbury,E09000019,Islington,51.524013053792736,-0.09334225930700654,532369.96413273,182288.92340291146,,E05000367,Bunhill,,E09000019,12/27/2020
Islington,Pubs,Finch's,12a Finsbury Square,London,Shoreditch,E09000019,Islington,51.52174896483668,-0.08739695363354648,532788.9640185431,182047.9234683063,,E05000367,Bunhill,,E09000019,12/27/2020
Islington,Pubs,Aviary,"Montcalm Royal London House Hotel, 22-25 Finsbury Square",London,Shoreditch,E09000019,Islington,51.521648857911885,-0.0856713433318533,532908.9639858564,182039.9234704969,,E05000367,Bunhill,,E09000019,12/27/2020
Islington,Pubs,Burdock,"Montcalm Royal London House Hotel, 22-25 Finsbury Square",London,Shoreditch,E09000019,Islington,51.521648857911885,-0.0856713433318533,532908.9639858564,182039.9234704969,,E05000367,Bunhill,,E09000019,12/27/2020
Islington,Pubs,All Bar One,127 Finsbury Pavement,London,Shoreditch,E09000019,Islington,51.52012733360408,-0.08776763417606394,532767.9640247198,181866.92351787246,,E05000367,Bunhill,,E09000019,12/27/2020
Islington,Pubs,Flight Club,"Alphabeta Building, 2A Worship Street",London,Shoreditch,E09000019,Islington,51.522011189055995,-0.08528134618569126,532934.9639786284,182080.92345922854,,E05000367,Bunhill,,E09000019,12/27/2020
Islington,Pubs,Long Arm Pub & Brewery,20-26 Worship St,London,Shoreditch,E09000019,Islington,51.522316730978815,-0.08526852352040068,532934.9639785091,182114.9234498833,,E05000367,Bunhill,,E09000019,12/27/2020
Islington,Pubs,McQueen,55â61 Tabernacle Street,London,Shoreditch,E09000019,Islington,51.52417877761204,-0.08585350390521741,532888.9639903969,182320.92339333403,,E05000367,Bunhill,,E09000019,12/27/2020
Islington,Pubs,Windmill,27 Tabernacle Street,London,Shoreditch,E09000019,Islington,51.52321763956519,-0.08647045172133394,532848.9640016906,182212.92342303362,,E05000367,Bunhill,,E09000019,12/27/2020
Islington,Pubs,Dado54,54 Farringdon Street,London,Fleet Street,E09000019,Islington,51.52111343968965,-0.1058601867072443,531509.9643670914,181943.9234958897,,E05000370,Clerkenwell,,E09000019,12/27/2020
Islington,Pubs,Star Of Kings,126 York Way,London,Barnsbury,E09000019,Islington,51.536704573297165,-0.12193956314083298,530349.9646833031,183648.9230308571,,E05000368,Caledonian,,E09000019,12/27/2020
Islington,Pubs,Crown,116 Cloudesley Road,London,Barnsbury,E09000019,Islington,51.53639579887486,-0.10943604873650821,531217.964447841,183636.9230353578,,E05000366,Barnsbury,,E09000019,12/27/2020
Islington,Pubs,Bull,100 Upper Street,London,Barnsbury,E09000019,Islington,51.53718752342437,-0.10333244744761831,531638.9643332228,183735.92300966824,,E05000379,St. Mary's,,E09000019,12/27/2020
Islington,Pubs,Alphabet,56 Upper Street,London,Barnsbury,E09000019,Islington,51.53600232302878,-0.10400178124518375,531595.964345619,183602.92304576916,,E05000379,St. Mary's,,E09000019,12/27/2020
Islington,Pubs,Radicals & Victuallers,59 Upper Street,London,Islington,E09000019,Islington,51.53600232302878,-0.10400178124518375,531595.964345619,183602.92304576916,,E05000379,St. Mary's,,E09000019,12/27/2020
Islington,Pubs,Steam Passage Tavern,44 Upper Street,London,Barnsbury,E09000019,Islington,51.53481511531683,-0.10510373674709157,531522.96436615,183468.92308206763,,E05000379,St. Mary's,,E09000019,12/27/2020
Islington,Pubs,Nag's Head,12 Upper Street,London,Islington,E09000019,Islington,51.53392855448669,-0.10589035308329506,531470.9643808012,183368.92310917663,,E05000379,St. Mary's,,E09000019,12/27/2020
Islington,Pubs,Pig & Butcher,80 Liverpool Road,London,Barnsbury,E09000019,Islington,51.53724750498933,-0.10648791595045563,531419.9643925497,183736.9230087098,,E05000379,St. Mary's,,E09000019,12/27/2020
Islington,Pubs,Angelic,57 Liverpool Road,London,Barnsbury,E09000019,Islington,51.5347889689643,-0.10738304639544231,531364.9644089995,183461.92308352172,,E05000366,Barnsbury,,E09000019,12/27/2020
Islington,Pubs,Islington Town House,13 Liverpool Road,London,Barnsbury,E09000019,Islington,51.533777580189216,-0.10712222202326636,531385.9644038853,183349.92311411846,,E05000366,Barnsbury,,E09000019,12/27/2020
Islington,Pubs,Islington Cafe Bar,1 Tolpuddle Street,London,Barnsbury,E09000019,Islington,51.53415762056804,-0.11117258635458634,531103.9644801529,183384.923103783,,E05000366,Barnsbury,,E09000019,12/27/2020
Islington,Pubs,Tarmon,270 Caledonian Road,London,Barnsbury,E09000019,Islington,51.53923424561424,-0.11649979913280725,530719.9645810396,183939.92295103043,,E05000368,Caledonian,,E09000019,12/27/2020
Islington,Pubs,Meltdown,342 Caledonian Road,London,Barnsbury,E09000019,Islington,51.54014491627374,-0.11664965492752728,530706.9645839856,184040.92292338907,,E05000368,Caledonian,,E09000019,12/27/2020
Islington,Pubs,Cuckoo,115 Hemingford Road,London,Barnsbury,E09000019,Islington,51.541582094469916,-0.11374930012613965,530903.9645296849,184205.92287901038,,E05000368,Caledonian,,E09000019,12/27/2020
Islington,Pubs,Hemingford Arms,158 Hemingford Road,London,Barnsbury,E09000019,Islington,51.54296575586602,-0.11311519135141569,530943.964518703,184360.92283709993,,E05000366,Barnsbury,,E09000019,12/27/2020
Islington,Pubs,Kennedy's,297 Caledonian Road,London,Barnsbury,E09000019,Islington,51.540659050910776,-0.11730620667390312,530659.964596399,184096.92290792044,,E05000368,Caledonian,,E09000019,12/27/2020
Islington,Pubs,Drapers Arms,44 Barnsbury Street,London,Barnsbury,E09000019,Islington,51.54055809894953,-0.10823958554077412,531288.9644259829,184101.92290875537,,E05000366,Barnsbury,,E09000019,12/27/2020
Islington,Pubs,Albion,10 Thornhill Road,London,Barnsbury,E09000019,Islington,51.53960636436866,-0.10944714528975719,531207.964448534,183993.92293793504,,E05000366,Barnsbury,,E09000019,12/27/2020
Islington,Pubs,Regent,201-203 Liverpool Road,London,Barnsbury,E09000019,Islington,51.53998479500197,-0.1067059250711554,531396.9643970699,184040.9229257616,,E05000366,Barnsbury,,E09000019,12/27/2020
Islington,Pubs,Foxglove,209-211 Liverpool Road,London,Barnsbury,E09000019,Islington,51.53998479500197,-0.1067059250711554,531396.9643970699,184040.9229257616,,E05000366,Barnsbury,,E09000019,12/27/2020
Islington,Pubs,Slim Jims Liquor Store,112 Upper Street,London,Islington,E09000019,Islington,51.53798932530458,-0.10286649253408521,531668.9643245912,183825.92298524955,,E05000379,St. Mary's,,E09000019,12/27/2020
Islington,Pubs,Kings Head Theatre Bar,115 Upper Street,London,Barnsbury,E09000019,Islington,51.53798932530458,-0.10286649253408521,531668.9643245912,183825.92298524955,,E05000379,St. Mary's,,E09000019,12/27/2020
Islington,Pubs,John Salt,131 Upper Street,London,Barnsbury,E09000019,Islington,51.53913611271244,-0.10260247159154617,531683.9643198103,183953.9229504363,,E05000379,St. Mary's,,E09000019,12/27/2020
Islington,Pubs,Hoxley & Porter,153 Upper Street,London,Barnsbury,E09000019,Islington,51.540236907263534,-0.10283066071525376,531664.9643242744,184075.92291714443,,E05000379,St. Mary's,,E09000019,12/27/2020
Islington,Pubs,Vineyard,178-179 Upper Street,London,Barnsbury,E09000019,Islington,51.541365827057945,-0.10312979634424688,531640.964330076,184200.9228830145,,E05000379,St. Mary's,,E09000019,12/27/2020
Islington,Pubs,Hope & Anchor,207 Upper Street,London,Barnsbury,E09000019,Islington,51.54357476099714,-0.103484983551333,531609.9643380344,184445.92281595606,,E05000379,St. Mary's,,E09000019,12/27/2020
Islington,Pubs,Dead Dolls House,181 Upper Street,London,Barnsbury,E09000019,Islington,51.542609937696184,-0.10332320674798672,531623.9643341957,184338.9228452955,,E05000379,St. Mary's,,E09000019,12/27/2020
Islington,Pubs,Library,235 Upper Street,London,Barnsbury,E09000019,Islington,51.54527484854333,-0.1035152303096565,531602.9643400062,184634.92276419507,,E05000379,St. Mary's,,E09000019,12/27/2020
Islington,Pubs,Famous Cock Tavern,259 Upper Street,London,Barnsbury,E09000019,Islington,51.54527484854333,-0.1035152303096565,531602.9643400062,184634.92276419507,,E05000379,St. Mary's,,E09000019,12/27/2020
Islington,Pubs,White Swan,255-256 Upper Street,London,Barnsbury,E09000019,Islington,51.54574144898328,-0.10345255529424655,531605.9643392086,184686.92274996184,,E05000379,St. Mary's,,E09000019,12/27/2020
Islington,Pubs,Taproom,163 Upper Street,London,Barnsbury,E09000019,Islington,51.54083305342915,-0.10299332948286083,531651.9643274267,184141.9228991234,,E05000379,St. Mary's,,E09000019,12/27/2020
Islington,Pubs,Lucky Voice,173-174 Upper Street,London,Barnsbury,E09000019,Islington,51.539049848204925,-0.10338476844112114,531629.9643345021,183942.92295325297,,E05000379,St. Mary's,,E09000019,12/27/2020
Islington,Pubs,Four Sisters,25 Canonbury Lane,London,Canonbury,E09000019,Islington,51.54302123623178,-0.1020658275514162,531709.9643108769,184386.92283242295,,E05000379,St. Mary's,,E09000019,12/27/2020
Islington,Pubs,Smokehouse,63-69 Canonbury Road,London,Canonbury,E09000019,Islington,51.54214518724855,-0.09905934819395039,531920.9642538978,184294.92285752174,,E05000379,St. Mary's,,E09000019,12/27/2020
Islington,Pubs,Myddleton Arms,52 Canonbury Road,London,Canonbury,E09000019,Islington,51.541372264731365,-0.09687069626637439,532074.9642127483,184212.92287963396,,E05000369,Canonbury,,E09000019,12/27/2020
Islington,Pubs,Alwyne Castle,83 St Pauls Road,London,Canonbury,E09000019,Islington,51.546561623846074,-0.09857235910831379,531941.9642480545,184786.92272277805,,E05000369,Canonbury,,E09000019,12/27/2020
Islington,Pubs,Hen & Chickens,109 St Pauls Road,London,Canonbury,E09000019,Islington,51.54604175697821,-0.10144973010288524,531743.964301635,184723.92273999535,,E05000379,St. Mary's,,E09000019,12/27/2020
Islington,Pubs,Canonbury Tavern,"21 Canonbury Place,",London,Canonbury,E09000019,Islington,51.5448220428355,-0.09721708293675219,532040.9642213566,184595.92277503316,,E05000369,Canonbury,,E09000019,12/27/2020
Islington,Pubs,BrewDog Angel,29-31 Essex Road,London,Essex Road,E09000019,Islington,51.53686800621452,-0.10137022256145918,531775.964296283,183703.9230187444,,E05000379,St. Mary's,,E09000019,12/27/2020
Islington,Pubs,Barrio,45 Essex Road,London,Islington,E09000019,Islington,51.53768787809446,-0.10035551736566511,531843.9642773498,183796.92299332056,,E05000379,St. Mary's,,E09000019,12/27/2020
Islington,Pubs,Simmons,43 Essex Road,London,Essex Road,E09000019,Islington,51.53768787809446,-0.10035551736566511,531843.9642773498,183796.92299332056,,E05000379,St. Mary's,,E09000019,12/27/2020
Islington,Pubs,Kings,59 Essex Road,London,Canonbury,E09000019,Islington,51.53768787809446,-0.10035551736566511,531843.9642773498,183796.92299332056,,E05000379,St. Mary's,,E09000019,12/27/2020
Islington,Pubs,Marquess Tavern,32 Canonbury Street,London,Canonbury,E09000019,Islington,51.5431816198814,-0.09532415514474879,532176.9641847126,184416.92282383132,,E05000369,Canonbury,,E09000019,12/27/2020
Islington,Pubs,Compton Arms,4 Compton Avenue,London,Canonbury,E09000019,Islington,51.54409413153837,-0.10223750368793617,531694.9643149565,184505.92279974016,,E05000379,St. Mary's,,E09000019,12/27/2020
Islington,Pubs,Fox on the Green,1 Islington Green,London,Canonbury,E09000019,Islington,51.53648156941741,-0.10249662850953568,531698.9643173991,183658.92303082638,,E05000379,St. Mary's,,E09000019,12/27/2020
Islington,Pubs,Baring Arms,55 Baring Street,London,Hoxton,E09000019,Islington,51.53694756977265,-0.08856203848833166,532663.9640554438,183735.92300888902,,E05000380,St. Peter's,,E09000019,12/27/2020
Islington,Pubs,Rosemary Branch,2 Shepperton Road,London,Islington,E09000019,Islington,51.537622410498905,-0.086933118210044,532774.9640250882,183813.92298746412,,E05000369,Canonbury,,E09000019,12/27/2020
Islington,Pubs,Michael's Den,21 Halliford Street,London,Essex Road,E09000019,Islington,51.5400215186073,-0.08957243243854603,532584.9640755632,184075.92291624122,,E05000369,Canonbury,,E09000019,12/27/2020
Islington,Pubs,De Beauvoir Arms,113 Southgate Road,London,De Beauvoir Town,E09000019,Islington,51.54086281793531,-0.08547042111215687,532866.9639990064,184176.92288827605,,E05000369,Canonbury,,E09000019,12/27/2020
Islington,Pubs,Lord Clyde,340-342 Essex Road,London,Essex Road,E09000019,Islington,51.543521637926176,-0.09024785096469086,532527.9640898753,184463.9228106673,,E05000369,Canonbury,,E09000019,12/27/2020
Islington,Pubs,Seveney,382 Essex Road,London,Canonbury,E09000019,Islington,51.545131355939475,-0.08804593088628324,532675.9640496545,184646.92276092694,,E05000369,Canonbury,,E09000019,12/27/2020
Islington,Pubs,Lady Mildmay,92 Mildmay Park,London,Kingsland,E09000019,Islington,51.54999912304966,-0.08436570598751435,532916.9639834843,185194.92261276988,,E05000377,Mildmay,,E09000019,12/27/2020
Islington,Pubs,Alma,59 Newington Green Road,London,Kingsland,E09000019,Islington,51.54876682997246,-0.08764832939394795,532692.9640444951,185051.9226512225,,E05000377,Mildmay,,E09000019,12/27/2020
Islington,Pubs,Cellars,125 Newington Green Road,London,Kingsland,E09000019,Islington,51.55080516958466,-0.08636566189915501,532775.9640217299,185280.922589331,,E05000377,Mildmay,,E09000019,12/27/2020
Islington,Pubs,Weavers Arms,98 Newington Green Road,London,Kingsland,E09000019,Islington,51.549385283758944,-0.08697332951909297,532737.964032202,185121.92263233243,,E05000377,Mildmay,,E09000019,12/27/2020
Islington,Pubs,Railway Tavern Ale House,2 St Jude Street,London,Dalston Kingsland,E09000019,Islington,51.54857401729881,-0.07751675872055158,533395.9638527333,185048.92265170987,,E05000377,Mildmay,,E09000019,12/27/2020
Islington,Pubs,Army & Navy,1-3 Matthias Road,Stoke Newington,London,E09000019,Islington,51.5517237291091,-0.07985061809468445,533224.9638993415,185394.92255795398,,E05000377,Mildmay,,E09000019,12/27/2020
Islington,Pubs,Leconfield,79 Green Lanes,Stoke Newington,London,E09000019,Islington,51.55325454122021,-0.0882247440359964,532639.964058895,185549.92251585284,,E05000377,Mildmay,,E09000019,12/27/2020
Islington,Pubs,Clissold Park Tavern,177 Green Lanes,Stoke Newington,London,E09000019,Islington,51.556423210868324,-0.09063093457275898,532463.9641073291,185897.92242079676,,E05000372,Highbury East,,E09000019,12/27/2020
Islington,Pubs,Yield,"Alliance House, 44/45 Newington Green",Newington Green,,E09000019,Islington,51.55151890697431,-0.08601840034273375,532797.9640158,185360.92256760417,,E05000377,Mildmay,,E09000019,12/27/2020
Islington,Pubs,Bergen House,47 Newington Green,Newington Green,,E09000019,Islington,51.55151890697431,-0.08601840034273375,532797.9640158,185360.92256760417,,E05000377,Mildmay,,E09000019,12/27/2020
Islington,Pubs,North By Northwest,188-190 New North Road,London,Islington,E09000019,Islington,51.53774447315172,-0.09110984432873123,532484.9641036242,183819.92298620578,,E05000380,St. Peter's,,E09000019,12/27/2020
Islington,Pubs,Hanbury Arms,33 Linton Street,London,Islington,E09000019,Islington,51.53601471642772,-0.09367684217515918,532311.964151351,183622.9230401487,,E05000380,St. Peter's,,E09000019,12/27/2020
Islington,Pubs,Island Queen,87 Noel Road,London,Islington,E09000019,Islington,51.532981342003765,-0.09903760342988838,531948.9642508418,183275.92313514638,,E05000380,St. Peter's,,E09000019,12/27/2020
Islington,Pubs,Charles Lamb,16 Elia Street,London,Islington,E09000019,Islington,51.53216029994457,-0.1022006093264975,531731.9643096649,183178.92316170642,,E05000380,St. Peter's,,E09000019,12/27/2020
Islington,Pubs,Camden Head,2 Camden Walk,London,Islington,E09000019,Islington,51.53570835973558,-0.1030623203732221,531661.9643279109,183571.92305441253,,E05000380,St. Peter's,,E09000019,12/27/2020
Islington,Pubs,York,82 Islington High Street,London,Islington,E09000019,Islington,51.53307705871038,-0.10550757597231011,531499.9643728185,183274.9231348859,,E05000380,St. Peter's,,E09000019,12/27/2020
Islington,Pubs,Duke Of Cambridge,30 St Peter's Street,London,Islington,E09000019,Islington,51.53424808849399,-0.09840804071020011,531988.9642400161,183417.92309640767,,E05000380,St. Peter's,,E09000019,12/27/2020
Islington,Pubs,Plaquemine Lock,139 Graham Street,London,Islington,E09000019,Islington,51.53258851521197,-0.1003228060724207,531860.9642746845,183229.92314779904,,E05000380,St. Peter's,,E09000019,12/27/2020
Islington,Pubs,Earl Of Essex,25 Danbury Street,London,Islington,E09000019,Islington,51.53418473786321,-0.09949210915803086,531913.9642604382,183408.9230989464,,E05000380,St. Peter's,,E09000019,12/27/2020
Islington,Pubs,Old Queens Head,44 Essex Road,London,Islington,E09000019,Islington,51.5365260492413,-0.10135562061202957,531777.9642959532,183665.92302909418,,E05000380,St. Peter's,,E09000019,12/27/2020
Islington,Pubs,Wenlock & Essex,18-26 Essex Road,London,Islington,E09000019,Islington,51.5365260492413,-0.10135562061202957,531777.9642959532,183665.92302909418,,E05000380,St. Peter's,,E09000019,12/27/2020
Islington,Pubs,Winchester,2 Essex Road,London,Islington,E09000019,Islington,51.5365260492413,-0.10135562061202957,531777.9642959532,183665.92302909418,,E05000380,St. Peter's,,E09000019,12/27/2020
Islington,Pubs,Green Man,144a Essex Road,London,Islington,E09000019,Islington,51.53922101985864,-0.09785456266528621,532012.9642306939,183971.92294540792,,E05000380,St. Peter's,,E09000019,12/27/2020
Islington,Pubs,Akari,196 Essex Road,London,Islington,E09000019,Islington,51.5404737928116,-0.0958122017507856,532150.964192692,184114.92290623515,,E05000380,St. Peter's,,E09000019,12/27/2020
Islington,Pubs,Bill Murray,39 Queens Head Street,London,Islington,E09000019,Islington,51.536438494796926,-0.09928282482474347,531921.9642569418,183659.92303054727,,E05000380,St. Peter's,,E09000019,12/27/2020
Islington,Pubs,Duchess Of Kent,72 Prebend Street,London,Islington,E09000019,Islington,51.53776973763564,-0.093214130599098,532338.9641431728,183818.9229866714,,E05000380,St. Peter's,,E09000019,12/27/2020
Islington,Pubs,Narrow Boat,119 St Peter's Street,London,Islington,E09000019,Islington,51.532775456418946,-0.09854153456451085,531983.9642412455,183253.92314109573,,E05000380,St. Peter's,,E09000019,12/27/2020
Islington,Pubs,Crown,622 Holloway Road,Upper Holloway,London,E09000019,Islington,51.56202991518964,-0.12487812848607177,530073.964758569,186459.9222696281,,E05000381,Tollington,,E09000019,12/27/2020
Islington,Pubs,Shaftesbury Tavern,534 Hornsey Road,London,Upper Holloway,E09000019,Islington,51.56945605889719,-0.12364918659668651,530137.9647405844,187287.92204488767,,E05000381,Tollington,,E09000019,12/27/2020
Islington,Pubs,Royal Oak,250 St Johns Way,Upper Holloway,London,E09000019,Islington,51.57007334056577,-0.1279528036920446,529837.9648228339,187348.92202834447,,E05000374,Hillrise,,E09000019,12/27/2020
Islington,Pubs,Charlotte Despard,17-19 Archway Road,Upper Holloway,London,E09000019,Islington,51.568177330297246,-0.1365152123627262,529249.9649841833,187122.9220895376,,E05000376,Junction,,E09000019,12/27/2020
Islington,Pubs,Floirin,563 Holloway Road,Upper Holloway,London,E09000019,Islington,51.56266978756055,-0.1272179774442512,529909.9648034534,186526.9222516602,,E05000376,Junction,,E09000019,12/27/2020
Islington,Pubs,Corner Flag,472 Hornsey Road,Upper Holloway,London,E09000019,Islington,51.56759005931915,-0.12223975882776192,530240.9647122982,187082.922101092,,E05000381,Tollington,,E09000019,12/27/2020
Islington,Pubs,North Nineteen,194-196 Sussex Way,Upper Holloway,London,E09000019,Islington,51.56421176143624,-0.12129675712232003,530315.964692047,186708.92220219725,,E05000381,Tollington,,E09000019,12/27/2020
Islington,Pubs,Landseer Arms,37 Landseer Road,London,Upper Holloway,E09000019,Islington,51.56274261138974,-0.12333389780077907,530178.9647297624,186541.92224735842,,E05000381,Tollington,,E09000019,12/27/2020
Islington,Pubs,Prince Alfred,139 Marlborough Road,Upper Holloway,London,E09000019,Islington,51.56614762149126,-0.12369876313713132,530143.9647390685,186919.92214525957,,E05000381,Tollington,,E09000019,12/27/2020
Islington,Pubs,Northern Soul,114 Junction Road,London,Upper Holloway,E09000019,Islington,51.560870431797504,-0.13733326235979737,529213.9649936378,186308.92231119168,,E05000376,Junction,,E09000019,12/27/2020
Islington,Pubs,Whittington Stone,53 Highgate Hill,Upper Holloway,London,E09000019,Islington,51.56744869472972,-0.13876712799514318,529095.9650260749,187037.92211210058,,E05000376,Junction,,E09000019,12/27/2020
Islington,Pubs,Tourian Lounge,90 Highgate Hill,Upper Holloway,London,E09000019,Islington,51.56850478387186,-0.1401525503903907,528996.9650526022,187152.92208065983,,E05000376,Junction,,E09000019,12/27/2020
Islington,Pubs,Boston Arms,178 Junction Road,Upper Holloway,London,E09000019,Islington,51.558123636101804,-0.1382100871293658,529160.9650076892,186001.9223946248,,E05000376,Junction,,E09000019,12/27/2020
Islington,Pubs,St John's Tavern,91 Junction Road,London,Upper Holloway,E09000019,Islington,51.563777708197726,-0.135237804998903,529350.9649566609,186635.92222235847,,E05000376,Junction,,E09000019,12/27/2020
Islington,Pubs,Oak & Pastor,86 Junction Road,Upper Holloway,London,E09000019,Islington,51.56255609609163,-0.13645643080704917,529269.9649785461,186497.92225977872,,E05000376,Junction,,E09000019,12/27/2020
Islington,Pubs,Mother Red Cap,665 Holloway Road,Upper Holloway,London,E09000019,Islington,51.564906492736135,-0.13327263986308469,529483.9649203515,186764.92218724347,,E05000376,Junction,,E09000019,12/27/2020
Islington,Pubs,Fellow,24 York Way,London,Pentonville,E09000019,Islington,51.53127101247707,-0.12237954949167765,530334.964688658,183043.92319601524,,E05000368,Caledonian,,E09000019,12/27/2020
Islington,Pubs,Bar & Block,26- 30 York Way,London,Pentonville,E09000019,Islington,51.53127101247707,-0.12237954949167765,530334.964688658,183043.92319601524,,E05000368,Caledonian,,E09000019,12/27/2020
Islington,Pubs,Lincoln Lounge,52 York Way,London,Pentonville,E09000019,Islington,51.53274185299307,-0.12213156494521503,530347.9646853101,183207.9231512156,,E05000368,Caledonian,,E09000019,12/27/2020
Islington,Pubs,Rotunda (Bar & Restaurant),"Kings Place, 90 York Wa",London,Pentonville,E09000019,Islington,51.53424103633967,-0.12196890935848202,530354.9646833226,183374.92310561868,,E05000368,Caledonian,,E09000019,12/27/2020
Islington,Pubs,Voc,"2 Varnishers Yard, Regent Quarter, Pentonville Rd",London,Pentonville,E09000019,Islington,51.53135234829453,-0.12184273612436564,530371.964678619,183053.92319321138,,E05000368,Caledonian,,E09000019,12/27/2020
Islington,Pubs,King Charles I,55-57 Northdown Street,London,Pentonville,E09000019,Islington,51.53184795431737,-0.1196596083686689,530521.9646379417,183112.92317680718,,E05000368,Caledonian,,E09000019,12/27/2020
Islington,Pubs,Simmons,32 Caledonian Road,London,Islington,E09000019,Islington,51.53177332222713,-0.120614280856445,530455.9646558585,183102.9231796647,,E05000368,Caledonian,,E09000019,12/27/2020
Islington,Pubs,Scottish Stores,2-4 Caledonian Road,London,King's Cross,E09000019,Islington,51.531406016896376,-0.12070150414419278,530450.9646571712,183061.92319086625,,E05000368,Caledonian,,E09000019,12/27/2020
Islington,Pubs,Millers,19 Caledonian Road,London,Pentonville,E09000019,Islington,51.531458565672715,-0.12117513386506963,530417.9646661392,183066.9231895692,,E05000368,Caledonian,,E09000019,12/27/2020
Islington,Pubs,Alma,77-78 Chapel Market,London,Pentonville,E09000019,Islington,51.53329244338438,-0.10993957464177175,531191.9644563898,183290.92312966654,,E05000366,Barnsbury,,E09000019,12/27/2020
Islington,Pubs,Camino,"3 Varnishers Yard, Regent Quarter",London,King's Cross,E09000019,Islington,51.53130464643456,-0.12167168454151868,530383.9646753534,183048.92319454986,,E05000368,Caledonian,,E09000019,12/27/2020
Islington,Pubs,Castle,54 Pentonville Road,London,Pentonville,E09000019,Islington,51.53218430480179,-0.10813995182648108,531319.9644214519,183170.92316274258,,E05000366,Barnsbury,,E09000019,12/27/2020
Islington,Pubs,Lexington,96-98 Pentonville Road,London,Pentonville,E09000019,Islington,51.53171329157253,-0.11183611500136284,531064.964490554,183111.92317811993,,E05000366,Barnsbury,,E09000019,12/27/2020
Islington,Pubs,Angel,3-5 Islington High Street,London,Angel,E09000019,Islington,51.53232947731802,-0.10654791226756972,531429.9643916395,183189.92315786594,,E05000366,Barnsbury,,E09000019,12/27/2020
Islington,Pubs,Three Johns,73 White Lion Street,London,Pentonville,E09000019,Islington,51.5329371723991,-0.10854128010148494,531289.9644297429,183253.92314002785,,E05000366,Barnsbury,,E09000019,12/27/2020
Islington,Pubs,Craft Beer Co.,55 White Lion Street,London,Pentonville,E09000019,Islington,51.53283783553079,-0.11018910915994563,531175.9644606422,183239.9231435277,,E05000366,Barnsbury,,E09000019,12/27/2020
Islington,Pubs,Joker of Penton Street,58 Penton Street,London,Pentonville,E09000019,Islington,51.53350135840124,-0.11118534544791085,531104.9644800193,183311.92312369932,,E05000366,Barnsbury,,E09000019,12/27/2020
Islington,Pubs,Thornhill Arms,148 Caledonian Road,London,Barnsbury,E09000019,Islington,51.53443072722083,-0.1169721349367491,530700.964589235,183404.92309717735,,E05000366,Barnsbury,,E09000019,12/27/2020
Islington,Pubs,Driver,2-4 Wharfdale Road,London,Pentonville,E09000019,Islington,51.53366028663073,-0.11939745272834433,530534.96463463,183314.9231216653,,E05000368,Caledonian,,E09000019,12/27/2020
Islington,Pubs,Central Station,37 Wharfdale Road,London,Pentonville,E09000019,Islington,51.53342504861587,-0.12043087532864334,530463.9646538873,183286.923129435,,E05000368,Caledonian,,E09000019,12/27/2020
Islington,Pubs,Zelman Drinks,5 Station Place,Finsbury Park,London,E09000019,Islington,51.564772529404785,-0.1058497323359068,531384.9644017051,186798.92217599612,,E05000371,Finsbury Park,,E09000019,12/27/2020
Islington,Pubs,Kings Head,126 Blackstock Road,Finsbury Park,London,E09000019,Islington,51.56204368203172,-0.10059599276320297,531756.9643011088,186504.92225485772,,E05000373,Highbury West,,E09000019,12/27/2020
Islington,Pubs,T.Bird,132 Blackstock Road,London,Finsbury Park,E09000019,Islington,51.5612606568635,-0.09944555215982864,531838.9642787433,186419.92227794783,,E05000373,Highbury West,,E09000019,12/27/2020
Islington,Pubs,Blackstock,284 Seven Sisters Road,Finsbury Park,London,E09000019,Islington,51.56412855480806,-0.10495306971426845,531448.9643844668,186728.92219475377,,E05000373,Highbury West,,E09000019,12/27/2020
Islington,Pubs,Auld Triangle,52 St Thomas Road,Finsbury Park,London,E09000019,Islington,51.56121085101113,-0.1046991550951704,531474.964377844,186404.92228216707,,E05000373,Highbury West,,E09000019,12/27/2020
Islington,Pubs,Park Tavern,164 Tollington Park,Finsbury Park,London,E09000019,Islington,51.56773764325786,-0.11183016688908662,530961.9645158233,187117.9220906124,,E05000381,Tollington,,E09000019,12/27/2020
Islington,Pubs,Worlds End,21-23 Stroud Green Road,Finsbury Park,London,E09000019,Islington,51.56744069547137,-0.10902877821533177,531156.9644630328,187089.92209786607,,E05000371,Finsbury Park,,E09000019,12/27/2020
Islington,Pubs,William Butler Yeats,20 Fonthill Road,Finsbury Park,London,E09000019,Islington,51.56599759173123,-0.11099319932446662,531024.9644990056,186925.92214255518,,E05000371,Finsbury Park,,E09000019,12/27/2020
Islington,Pubs,White Lion,125-127 Stroud Green Road,Finsbury Park,London,E09000019,Islington,51.56904416665083,-0.1119925117966503,530946.964519766,187262.9220507685,,E05000381,Tollington,,E09000019,12/27/2020
Islington,Pubs,Old Dairy,1-3 Crouch Hill,London,Stroud Green,E09000019,Islington,51.57091342506133,-0.11695126025631758,530597.9646146754,187461.92199670395,,E05000381,Tollington,,E09000019,12/27/2020
Islington,Pubs,Brave Sir Robin,29 Crouch Hill,London,Stroud Green,E09000019,Islington,51.57091342506133,-0.11695126025631758,530597.9646146754,187461.92199670395,,E05000381,Tollington,,E09000019,12/27/2020
Islington,Pubs,Stapleton Tavern,2-4 Crouch Hill,Finsbury Park,Stroud Green,E09000019,Islington,51.570892391031876,-0.11620175789660724,530649.9646005067,187460.92199688166,,E05000381,Tollington,,E09000019,12/27/2020
Islington,Pubs,Bank Of Friendship,226 Blackstock Road,Highbury,London,E09000019,Islington,51.55857074363168,-0.09882184467909881,531889.9642650064,186121.92235866876,,E05000373,Highbury West,,E09000019,12/27/2020
Islington,Pubs,Gunners,204 Blackstock Road,Highbury,London,E09000019,Islington,51.559155802456964,-0.09885517053517999,531885.9642661571,186186.92234102992,,E05000373,Highbury West,,E09000019,12/27/2020
Islington,Pubs,Brewhouse & Kitchen,2a Corsica Street,London,Highbury,E09000019,Islington,51.54636620542032,-0.10149391181980646,531739.9643027154,184759.92273011163,,E05000372,Highbury East,,E09000019,12/27/2020
Islington,Pubs,Drayton Park,66 Drayton Park,Highbury,London,E09000019,Islington,51.5539750599244,-0.10489881545033368,531481.9643745637,185599.92250071495,,E05000373,Highbury West,,E09000019,12/27/2020
Islington,Pubs,Highbury Barn,26 Highbury Park,London,Highbury,E09000019,Islington,51.55352450671397,-0.09818107583072433,531948.9642470747,185561.92251118703,,E05000372,Highbury East,,E09000019,12/27/2020
Islington,Pubs,Woodbine,215 Blackstock Road,London,Highbury,E09000019,Islington,51.55951489207145,-0.09826314002578454,531925.9642551398,186227.92233001743,,E05000372,Highbury East,,E09000019,12/27/2020
Islington,Pubs,Snooty Fox,75 Grosvenor Avenue,London,Canonbury,E09000019,Islington,51.54919433569287,-0.09070264445230077,532479.9641021512,185093.9226395457,,E05000377,Mildmay,,E09000019,12/27/2020
Islington,Pubs,Tufnell Park Tavern,162 Tufnell Park Road,Holloway,London,E09000019,Islington,51.55745539614953,-0.13350557829842097,529488.9649179138,185935.92241258558,,E05000376,Junction,,E09000019,12/27/2020
Islington,Pubs,Big Red,385 Holloway Road,Holloway,London,E09000019,Islington,51.55736779724607,-0.11957346668405117,530454.9646547381,185950.9224067201,,E05000375,Holloway,,E09000019,12/27/2020
Islington,Pubs,Prince Edward,38 Parkhurst Road,Holloway,London,E09000019,Islington,51.554123464419334,-0.12250577519300916,530260.9647072667,185584.922506509,,E05000375,Holloway,,E09000019,12/27/2020
Islington,Pubs,Castle Bar,392 Camden Road,Holloway,London,E09000019,Islington,51.553511215591776,-0.12245886441569875,530265.9647058486,185516.92252497666,,E05000375,Holloway,,E09000019,12/27/2020
Islington,Pubs,Enkel Arms,34 Seven Sisters Road,London,Holloway,E09000019,Islington,51.55888431586907,-0.1171305134152897,530619.9646098892,186123.9223593498,,E05000371,Finsbury Park,,E09000019,12/27/2020
Islington,Pubs,Eaglet,124 Seven Sisters Road,Holloway,London,E09000019,Islington,51.55953884734783,-0.11589164700682378,530703.9645870128,186198.92233902757,,E05000371,Finsbury Park,,E09000019,12/27/2020
Islington,Pubs,Halfway House,74 Seven Sisters Road,Holloway,London,E09000019,Islington,51.55953884734783,-0.11589164700682378,530703.9645870128,186198.92233902757,,E05000371,Finsbury Park,,E09000019,12/27/2020
Islington,Pubs,Swimmer At The Grafton Arms,13 Eburne Road,London,Holloway,E09000019,Islington,51.55938817535871,-0.11938914365407387,530461.9646527811,186175.92234564904,,E05000371,Finsbury Park,,E09000019,12/27/2020
Islington,Pubs,Tollington,115 Hornsey Road,Holloway,London,E09000019,Islington,51.557256585463236,-0.11265352883944954,530934.9645242917,185950.92240597226,,E05000373,Highbury West,,E09000019,12/27/2020
Islington,Pubs,Che,10 Annette Road,Holloway,London,E09000019,Islington,51.55565789963482,-0.11277740605622794,530930.9645251465,185772.92245444737,,E05000373,Highbury West,,E09000019,12/27/2020
Islington,Pubs,Tommy Flynn's,504 Holloway Road,Holloway,London,E09000019,Islington,51.55884717940073,-0.12042131665787482,530391.9646719698,186113.92236250133,,E05000371,Finsbury Park,,E09000019,12/27/2020
Islington,Pubs,Owl & Hitchhiker,471 Holloway Road,London,Holloway,E09000019,Islington,51.56059550845457,-0.12402819762976508,530136.964741433,186301.92231225723,,E05000378,St. George's,,E09000019,12/27/2020
Islington,Pubs,Nambucca,596 Holloway Road,Holloway,London,E09000019,Islington,51.55967562930524,-0.1227387619418693,530228.964716373,186201.92233910714,,E05000378,St. George's,,E09000019,12/27/2020
Islington,Pubs,Islington Sports Bar,274-276 Holloway Road,London,Holloway,E09000019,Islington,51.553868701750645,-0.1133563354974081,530895.964534446,185572.92250895855,,E05000373,Highbury West,,E09000019,12/27/2020
Islington,Pubs,indiebeer,322 Holloway Road,Holloway,London,E09000019,Islington,51.5548608286567,-0.11465684386896392,530802.9645599159,185680.92247969157,,E05000373,Highbury West,,E09000019,12/27/2020
Islington,Pubs,Coronet,338-346 Holloway Road,London,Holloway,E09000019,Islington,51.5548608286567,-0.11465684386896392,530802.9645599159,185680.92247969157,,E05000373,Highbury West,,E09000019,12/27/2020
Islington,Pubs,Bedford Tavern,160 Seven Sisters Road,Holloway,London,E09000019,Islington,51.56144774684833,-0.11213382359286492,530958.9645176062,186417.9222796007,,E05000371,Finsbury Park,,E09000019,12/27/2020
Islington,Pubs,Jolly Sisters,95 Bride Street,Holloway,London,E09000019,Islington,51.54562766273169,-0.11312041106707485,530935.9645216636,184656.92275714845,,E05000368,Caledonian,,E09000019,12/27/2020
Islington,Pubs,Zubi,144 Holloway Road,Holloway,London,E09000019,Islington,51.55107755518281,-0.10979362709465096,531150.9644642414,185268.92259134143,,E05000373,Highbury West,,E09000019,12/27/2020
Islington,Pubs,Victoria Tavern,203 Holloway Road,London,Holloway,E09000019,Islington,51.550997218214086,-0.11038835030700239,531109.9644754585,185258.92259412818,,E05000375,Holloway,,E09000019,12/27/2020
Islington,Pubs,Crown (Bar & Cafe),261 Holloway Road,Holloway,London,E09000019,Islington,51.5514406556838,-0.11112004434560553,531057.9644897874,185306.92258113716,,E05000375,Holloway,,E09000019,12/27/2020
Islington,Pubs,Arkstar,"Arch 1,303 Holloway Road",London,Holloway,E09000019,Islington,51.55276258891419,-0.11279626080429608,530937.9645228287,185450.92254211422,,E05000375,Holloway,,E09000019,12/27/2020
Islington,Pubs,Horatia,98-100 Holloway Road,Holloway,London,E09000019,Islington,51.55037163873253,-0.10895744287848055,531210.9644476431,185191.92261220625,,E05000372,Highbury East,,E09000019,12/27/2020
Islington,Pubs,Lamb,54 Holloway Road,Holloway,London,E09000019,Islington,51.54869452257806,-0.10700771547570384,531350.9644090519,185008.92266187334,,E05000372,Highbury East,,E09000019,12/27/2020
Islington,Pubs,House of Hammerton,99 Holloway Road,London,Holloway,E09000019,Islington,51.548180193001755,-0.10689926062934638,531359.964406526,184951.9226774032,,E05000379,St. Mary's,,E09000019,12/27/2020
Islington,Pubs,Duchess Of Kent,441 Liverpool Road,Holloway,London,E09000019,Islington,51.545959369539624,-0.1085923875243661,531248.9644364832,184701.9227453802,,E05000379,St. Mary's,,E09000019,12/27/2020
Islington,Pubs,Two Brewers,109 Roman Way,Holloway,London,E09000019,Islington,51.546343388829754,-0.11568689127751375,530755.9645709404,184731.92273671506,,E05000368,Caledonian,,E09000019,12/27/2020
Islington,Pubs,Two Tribes Taproom,"Tileyard Studios, Tileyard Rd",London,King's Cross,E09000019,Islington,51.54264186872842,-0.1237573072754609,530206.9647195231,184305.92285227712,,E05000368,Caledonian,,E09000019,12/27/2020
Islington,Pubs,Cally,427 Caledonian Road,Holloway,London,E09000019,Islington,51.54651916529598,-0.11823246786121212,530578.9646192644,184746.9227325279,,E05000368,Caledonian,,E09000019,12/27/2020
Islington,Pubs,Doyles Tavern,379 Caledonian Road,Holloway,London,E09000019,Islington,51.54341732260238,-0.11771150279726472,530623.9646057121,184402.92282485898,,E05000368,Caledonian,,E09000019,12/27/2020
Islington,Pubs,Depot,"1 Carpenters Mews, North Road",Holloway,London,E09000019,Islington,51.548740169033984,-0.1215880045988696,530339.9646849836,184987.9226681635,,E05000375,Holloway,,E09000019,12/27/2020
Islington,Pubs,Easton,22 Easton Street,London,Kings Cross,E09000019,Islington,51.526261237992415,-0.11112470124096145,531129.9644719345,182506.92334325722,,E05000370,Clerkenwell,,E09000019,12/27/2020
Islington,Pubs,Union Tavern,52 Lloyd Baker Street,London,Kings Cross,E09000019,Islington,51.52693407392137,-0.11325933566863793,530979.9645128464,182577.92332348163,,E05000370,Clerkenwell,,E09000019,12/27/2020
Islington,Skate Parks,Crouch-Hill-Park,,,,E09000019,Islington,51.57412069553007,-0.1231360346860112,530160.218518635,187807.56289365882,0,E05000374,Hillrise,,E09000019,12/27/2020
Islington,Skate Parks,Whittington-Park,,,,E09000019,Islington,51.56216266279852,-0.12853786677605175,529819.9252163132,186468.18606156402,0,E05000376,Junction,,E09000019,12/27/2020
Islington,Textile design,Ari London,Kemp House,160 City Road,,E09000019,Islington,51.52730388472637,-0.08889407676563492,532668.9640514713,182662.92330058687,5300019987,E05000367,Bunhill,http://www.arilondonstudio.com/,E09000019,12/27/2020
Islington,Textile design,MIG Pattern Cutting Services,3D Mackenzie Road,,,E09000019,Islington,51.54707260123151,-0.11741635889078943,530633.9646044928,184809.9227156638,5300059331,E05000375,Holloway,http://www.mig.co.uk/,E09000019,12/27/2020
Islington,Textile design,Rare Thread,Studio E01,400 Caledonian Road,,E09000019,Islington,51.542824816084945,-0.11665433633428811,530698.9645851209,184338.92284226127,10091006312,E05000368,Caledonian,http://www.rarethread.co.uk/,E09000019,12/27/2020
Islington,Theatre rehearsal studio,Theatre Delicatessen,119 Farringdon Road,,,E09000019,Islington,51.52322361924053,-0.10845386132237624,531323.9642962761,182173.92331156536,5300032968,E05000370,Clerkenwell,www.theatredelicatessen.co.uk,E09000019,12/27/2020
Islington,Theatre rehearsal studio,Sadler's Wells,Rosebery Avenue,,,E09000019,Islington,51.52942925041774,-0.1062646136474187,531457.9642613021,182867.92312363884,5300080047,E05000370,Clerkenwell,www.sadlerswells.com/venue-hire/studios,E09000019,12/27/2020
Islington,Theatre rehearsal studio,Stageworks Studios,Europa House,Ironmonger Row,,E09000019,Islington,51.526803880127915,-0.0946384521435974,532271.9640380875,182596.92319733388,10008976314,E05000367,Bunhill,http://stageworksstudios.co.uk/,E09000019,12/27/2020
Islington,Theatre rehearsal studio,Young Actors Theatre,70-72 Barnsbury Rd,Slington,,E09000019,Islington,51.53652267975422,-0.11061320443293075,531135.9643478899,183648.92290973192,5300006610,E05000366,Barnsbury,www.yati.org.uk,E09000019,12/27/2020
Islington,Theatre rehearsal studio,Rosemary Branch Theatre â Marie Lloyd Room,2 Shepperton Road,,,E09000019,Islington,51.537622409430384,-0.08693312001556831,532774.963902989,183813.92286536295,5300082551,E05000369,Canonbury,http://www.rosemarybranchtheatre.co.uk/,E09000019,12/27/2020
Islington,Theatre rehearsal studio,Factory Fitness and Dance Centre,407 Hornsey Road,,,E09000019,Islington,51.56650382244677,-0.12179390911803742,530274.9645809224,186962.92201159365,5300050793,E05000381,Tollington,www.factoryrehearsalstudios.com,E09000019,12/27/2020
Islington,Theatre rehearsal studio,Kings Place,90 York Way,,,E09000019,Islington,51.53424103527053,-0.12196891116305299,530354.9645612226,183374.9229835177,10091871351,E05000368,Caledonian,https://www.kingsplace.co.uk/,E09000019,12/27/2020
Islington,Theatre rehearsal studio,The Poor School,242 Pentonville Road,,,E09000019,Islington,51.53116428047724,-0.12020683758783537,530485.9645255357,183035.92307579005,10090264274,E05000368,Caledonian,www.thepoorschool.com,E09000019,12/27/2020
Islington,Theatre rehearsal studio,Park Theatre,Clifton Terrace,,,E09000019,Islington,51.56566816429093,-0.10840969471151,531204.964328217,186893.92202866753,10090266645,E05000371,Finsbury Park,www.parktheatre.co.uk,E09000019,12/27/2020
Islington,Theatre rehearsal studio,London School of Capoeira,Leeds Place,Tollington Park,,E09000019,Islington,51.567105725125664,-0.11503072169665751,530741.9644533523,187041.9219898787,10010441351,E05000381,Tollington,www.londonschoolofcapoeira.com,E09000019,12/27/2020
Islington,Theatre rehearsal studio,Islington Arts Factory,2 Parkhurst Road,,,E09000019,Islington,51.55412346335022,-0.12250577699835562,530260.9645851656,185584.9223844087,5300071066,E05000375,Holloway,www.islingtonartsfactory.org,E09000019,12/27/2020
Islington,Theatre rehearsal studio,Platform Theatre,Hornsey Road,,,E09000019,Islington,51.56133801790364,-0.11593274682330959,530695.9644667768,186398.92216310167,10012794343,E05000371,Finsbury Park,http://www.platformislington.org.uk/,E09000019,12/27/2020
Islington,Theatre rehearsal studio,Out of Joint,7 Thane Villas,Finsbury Park,,E09000019,Islington,51.56016472087733,-0.11399029301626046,530833.9644295829,186271.92219705431,5300089989,E05000371,Finsbury Park,www.outofjoint.co.uk,E09000019,12/27/2020
Islington,Theatre rehearsal studio,Pleasance Theatre,Carpenters Mews,,,E09000019,Islington,51.54874016796487,-0.12158800640403263,530339.9645628841,184987.92254606256,10012788835,E05000375,Holloway,www.pleasance.co.uk,E09000019,12/27/2020
Islington,Theatres,Almeida Theatre,Almeida St, Islington,NA,E09000019,Islington,51.53995317672141,-0.10557006542963196,531475.8208536161,184039.44680433383,5300001086,E05000379,St. Mary's,https://almeida.co.uk/,E09000019,12/27/2020
Islington,Theatres,Young Actors Theatre,70-72 Barnsbury Road,NA,NA,E09000019,Islington,51.53663920388601,-0.11253337725049989,531002.4665840035,183658.44240672234,5300006610,E05000366,Barnsbury,NA,E09000019,12/27/2020
Islington,Theatres,Union Chapel,19b Compton Terrace,NA,NA,E09000019,Islington,51.544779687747315,-0.10433130667248795,531547.808032889,184578.39195745857,5300023057,E05000379,St. Mary's,http://www.unionchapel.org.uk/,E09000019,12/27/2020
Islington,Theatres,The Little Angel Theatre,14 Dagmar Passage, Islington,NA,E09000019,Islington,51.53952324655064,-0.10287731781767259,531663.7880029395,183996.47851667844,5300026580,E05000379,St. Mary's,https://littleangeltheatre.com/,E09000019,12/27/2020
Islington,Theatres,Sadler's Wells Theatre,Rosebery Ave, Clerkenwell,NA,E09000019,Islington,51.529937122450505,-0.10787462474591503,531344.8318921399,182921.50990871363,5300080047,E05000370,Clerkenwell,https://www.sadlerswells.com/,E09000019,12/27/2020
Islington,Theatres,Rosemary Branch Theatre,2 Shepperton Rd,NA,NA,E09000019,Islington,51.538130387573894,-0.0885456507562827,532661.6623334868,183867.4855508983,5300082551,E05000369,Canonbury,http://www.rosemarybranchtheatre.co.uk/,E09000019,12/27/2020
Islington,Theatres,Old Red Lion,418 St John St, Clerkenwell,NA,E09000019,Islington,51.53191794150089,-0.10746070944324394,531367.8406863053,183142.5217485174,5300085363,E05000366,Barnsbury,http://www.oldredliontheatre.co.uk/,E09000019,12/27/2020
Islington,Theatres,Hen and Chickens Theatre,109 St Paul's Road,NA,NA,E09000019,Islington,51.54654050482146,-0.10313347488556027,531625.7831117348,184776.35400338995,5300086694,E05000372,Highbury East,https://www.thehenandchickenstheatrebar.co.uk/,E09000019,12/27/2020
Islington,Theatres,Kings Head Theatre,115 Upper St, Islington,NA,E09000019,Islington,51.53849633316568,-0.10447714085685696,531555.8086328467,183879.4070482144,5300094557,E05000379,St. Mary's,http://www.kingsheadtheatre.com/,E09000019,12/27/2020
Islington,Theatres,The Hope Theatre,207 Upper Street,NA,NA,E09000019,Islington,51.54408175712269,-0.10509521255758925,531496.8521466912,184499.4070789292,5300094879,E05000379,St. Mary's,http://www.thehopetheatre.com/,E09000019,12/27/2020
Islington,Theatres,Arcola Theatre,24 Ashwin St, Dalston,NA,E09000019,Islington,51.5476061863884,-0.07694321896061931,533438.5565190893,184942.34385849274,10008321023,E05000377,Mildmay,https://www.arcolatheatre.com/,E09000019,12/27/2020
Islington,Theatres,Pleasance Theatre,Carpenters Mews, North Rd,NA,E09000019,Islington,51.549246096147826,-0.12319656609249525,530226.9968936258,185041.32003178616,10012788835,E05000375,Holloway,https://www.pleasance.co.uk/,E09000019,12/27/2020
Islington,Theatres,Platform,Hornsey Road Baths, 2 Tiltman Place,NA,E09000019,Islington,51.561773501942255,-0.11716880990199895,530609.0430902506,186445.14045082167,10012794343,E05000371,Finsbury Park,NA,E09000019,12/27/2020
Islington,Theatres,Park Theatre,Clifton Terrace, Finsbury Park,NA,E09000019,Islington,51.566172427772884,-0.11002081831889517,531091.8544587662,186947.10751458642,10090266645,E05000371,Finsbury Park,https://www.parktheatre.co.uk/,E09000019,12/27/2020
Islington,Theatres,Nursery Theatre,2  Finsbury Avenue ,NA,NA,E09000019,Islington,51.51992929438563,-0.08681444896265701,532834.6665845598,181846.63060140016,100023000000,E05000367,Bunhill,http://thenurserytheatre.com/theatre/,E09000019,12/27/2020
