BOROUGH,Cultural Venue Type,site_name,address1,address2,address3,borough_code,borough_name,latitude,longitude,easting,northing,os_addressbase_uprn,ward_2018_code,ward_2018_name,website,gss_code,runtime
Kensington and Chelsea,Archives,Brompton Oratory,Brompton Road,,,E09000020,Kensington and Chelse,51.497470717636766,-0.16981521843262157,527138.9654326638,179201.92411979905,217007711,E05009389,Brompton & Hans Town,NA,E09000020,12/27/2020
Kensington and Chelsea,Archives,Chelsea and Westminster Hospital Archives,369 Fulham Road,,,E09000020,Kensington and Chelse,51.48425238850248,-0.18143497565398584,526368.96564226,177711.92452153936,217033201,E05009405,Stanley,NA,E09000020,12/27/2020
Kensington and Chelsea,Archives,Leighton House Museum,12 Holland Park Road,,,E09000020,Kensington and Chelse,51.49858781604862,-0.20309513475435398,524825.9660610931,179268.9241026265,217039506,E05009397,Holland,https://www.rbkc.gov.uk/subsites/museums/leightonhousemuseum1.aspx,E09000020,12/27/2020
Kensington and Chelsea,Archives,Commonwealth Institute,Commonwealth Resources Centre,Kensington High Street,,E09000020,Kensington and Chelse,51.49987442909856,-0.2001590274186053,525026.2360062946,179417.00406246097,217044656,E05009397,Holland,,E09000020,12/27/2020
Kensington and Chelsea,Archives,London University: Heythrop College,Kensington Square,,,E09000020,Kensington and Chelse,51.49946247904268,-0.19024769953888385,525715.2758190068,179388.15406876017,217046014,E05009401,Queen's Gate,http://www.heythrop.ac.uk/,E09000020,12/27/2020
Kensington and Chelsea,Archives,"Offer, Watermann & Co",11 Langton Street,,,E09000020,Kensington and Chelse,51.482291478761496,-0.18082161803914903,526416.9656295994,177494.9245807067,217051629,E05009405,Stanley,https://www.waterman.co.uk/,E09000020,12/27/2020
Kensington and Chelsea,Archives,Royal British Society of Sculptors,108 Old Brompton Road,,,E09000020,Kensington and Chelse,51.4917313864425,-0.1795095414648897,526481.9656100149,178546.9242957029,217060814,E05009393,Courtfield,https://sculptors.org.uk/,E09000020,12/27/2020
Kensington and Chelsea,Archives,State Apartments and Court Dress Collection: Kensington Palace,Kensington Palace,,,E09000020,Kensington and Chelse,51.50519933571256,-0.1880218178291348,525853.965781191,180029.92389315076,217064431,E05009390,Campden,https://www.hrp.org.uk/kensington-palace/explore/the-queen-s-state-apartments/#gs.cTpT3ik,E09000020,12/27/2020
Kensington and Chelsea,Archives,National Army Museum Templer Study Centre,Royal Hospital Road Chelsea,,,E09000020,Kensington and Chelse,51.48622896771741,-0.16033743746956552,527828.2352455632,177968.31445289432,217075883,E05009403,Royal Hospital,https://www.nam.ac.uk/collections/templer-study-centre,E09000020,12/27/2020
Kensington and Chelsea,Archives,Chelsea Physic Garden,66 Royal Hospital Road,,,E09000020,Kensington and Chelse,51.48457384033123,-0.16225154940184489,527699.9652804816,177780.9245033135,217102618,E05009403,Royal Hospital,https://www.chelseaphysicgarden.co.uk/,E09000020,12/27/2020
Kensington and Chelsea,Archives,Chelsea Library,Old Town Hall ,Kings Road,,E09000020,Kensington and Chelse,51.48747215547887,-0.16817033300282228,527280.9653923407,178092.92442042544,217105143,E05009403,Royal Hospital,https://www.rbkc.gov.uk/libraries/your-library/find-library/chelsea-library,E09000020,12/27/2020
Kensington and Chelsea,Archives,Eighteen Stafford Terrace: Sambourne Family Archive,18 Stafford Terrace,,,E09000020,Kensington and Chelse,51.500452227569234,-0.19684068131462096,525254.9659440535,179486.9240430703,217107937,E05009390,Campden,https://www.rbkc.gov.uk/subsites/museums/18staffordterrace1.aspx,E09000020,12/27/2020
Kensington and Chelsea,Archives,"National Art Library, Victoria & Albert Museum",Cromwell Road,,,E09000020,Kensington and Chelse,51.496902278884406,-0.17209803311410066,526982.0954750058,179134.7541378226,217108016,E05009389,Brompton & Hans Town,https://www.vam.ac.uk/info/national-art-library/,E09000020,12/27/2020
Kensington and Chelsea,Archives,"Victoria & Albert Museum, Department of Designs, Prints and Drawings",Cromwell Road,,,E09000020,Kensington and Chelse,51.496902278884406,-0.17209803311410066,526982.0954750058,179134.7541378226,217108016,E05009389,Brompton & Hans Town,http://www.vam.ac.uk/page/d/drawings/,E09000020,12/27/2020
Kensington and Chelsea,Archives,Royal Institute of British Architects,British Architectural Library Drawings and Archives Collections Victoria and Albert Museum ,Cromwell Road,,E09000020,Kensington and Chelse,51.496902278884406,-0.17209803311410066,526982.0954750058,179134.7541378226,217108016,E05009389,Brompton & Hans Town,https://www.architecture.com/,E09000020,12/27/2020
Kensington and Chelsea,Archives,"Victoria & Albert Museum, Department of Textiles and Dress",Cromwell Road,,,E09000020,Kensington and Chelse,51.496902278884406,-0.17209803311410066,526982.0954750058,179134.7541378226,217108016,E05009389,Brompton & Hans Town,http://www.vam.ac.uk/content/articles/v/the-v-and-a-textiles-and-fashion-collection/,E09000020,12/27/2020
Kensington and Chelsea,Archives,Natural History Museum Library and Archives,Cromwell Road ,South Kensington,,E09000020,Kensington and Chelse,51.49656438319557,-0.1768677216067732,526651.9655644953,179088.92414955766,217110763,E05009389,Brompton & Hans Town,http://www.nhm.ac.uk/our-science/departments-and-staff/library-and-archives.html,E09000020,12/27/2020
Kensington and Chelsea,Archives,Armenian Institute,Armenian Church Hall, Iverna Gardens,,E09000020,Kensington and Chelse,51.49955292192053,-0.1933318626925314,525500.9658772715,179392.92406794924,217116743,E05009388,Abingdon,http://www.armenianinstitute.org.uk/,E09000020,12/27/2020
Kensington and Chelsea,Archives,Kensington and Chelsea Libraries and Arts Service,Central Library ,Phillimore Walk,,E09000020,Kensington and Chelse,51.501418894508696,-0.19440609453588437,525421.2858988293,179598.58401224692,217125485,E05009390,Campden,https://www.rbkc.gov.uk/leisure-and-culture/culture/arts-services,E09000020,12/27/2020
Kensington and Chelsea,Artists workspaces,Blechynden St,54 Blechynden St,,,E09000020,Kensington and Chelsea,51.514481151006066,-0.21686752032259063,523826.9663326646,181012.9236262589,217107233,E05009399,Notting Dale,www.acava.org,E09000020,12/27/2020
Kensington and Chelsea,Artists workspaces,Maxilla Walk,4 Maxilla Walk,,,E09000020,Kensington and Chelsea,51.516299223800864,-0.21578756386915438,523896.9663140444,181216.9235712117,217057292,E05009404,St. Helen's,www.acava.org,E09000020,12/27/2020
Kensington and Chelsea,Artists workspaces,The Crow's Nest,3-5 Crowthorne Rd,,,E09000020,Kensington and Chelsea,51.51638109401508,-0.21999299584307935,523604.96639336285,181218.92357040168,217022375,E05009404,St. Helen's,www.artcoreint.net,E09000020,12/27/2020
Kensington and Chelsea,Artists workspaces,Buspace Studios,5 Conlan Street,Unit127,,E09000020,Kensington and Chelsea,51.52546573251045,-0.21126285331778158,524185.966235531,182243.92329252354,217120223,E05009396,Golborne,http://www.buspace.co.uk/,E09000020,12/27/2020
Kensington and Chelsea,Arts centres,The Tabernacle,35 Powis Square,off Portobello Road,,E09000020,Kensington and Chelsea,51.516968162397546,-0.2018814067603197,524859.966053673,181314.9235454888,217070132,E05009392,Colville,https://www.tabernaclew11.com/,E09000020,12/27/2020
Kensington and Chelsea,Cinemas,Cineworld Fulham Road,,142 Fulham Road,,E09000020,Kensington and Chelsea,51.48715248417167,-0.17940385244619605,526501.9657274454,178037.9245555625,000217101389,E05009402,Redcliffe,www.cineworld.co.uk,E09000020,12/27/2020
Kensington and Chelsea,Cinemas,Curzon Chelsea,,206 King's Road,,E09000020,Kensington and Chelsea,51.48812685261667,-0.16748149271288,527326.9655019962,178166.92452264368,000217047105,E05009405,Stanley,,E09000020,12/27/2020
Kensington and Chelsea,Cinemas,Cine Lumiere,Institut Francais,17 Queensberry Place,,E09000020,Kensington and Chelsea,51.494555076489625,-0.17719283371926248,526634.9656907829,178864.92433233547,000217072593,E05009389,Brompton & Hans Town,https://www.institut-francais.org.uk/cine-lumiere/,E09000020,12/27/2020
Kensington and Chelsea,Cinemas,Gate Picturehouse,,87 Notting Hill Gate,,E09000020,Kensington and Chelsea,51.50874072662205,-0.19724822777492632,525203.966079745,180407.9239137718,010091855182,E05009390,Campden,,E09000020,12/27/2020
Kensington and Chelsea,Cinemas,Electric Cinema (Portobello),,191 Portobello Road,Notting Hill Gate,E09000020,Kensington and Chelsea,51.51552415786374,-0.20506588997293446,524642.9662340509,181148.92371255212,000217069435,E05009392,Colville,,E09000020,12/27/2020
Kensington and Chelsea,Commercial galleries,Crane Kalman,178 Brompton Road,NA,NA,E09000020,Kensington and Chelsea,51.4979710461788,-0.16730268608382956,527311.9655079299,179261.92422555143,217007694,E05009389,Brompton & Hans Town,http://cranekalman.com/#,E09000020,12/27/2020
Kensington and Chelsea,Commercial galleries,Hollywood Road Gallery,12 Hollywood Road,NA,NA,E09000020,Kensington and Chelsea,51.486038419892495,-0.18469114887024732,526137.9658272105,177904.9245909077,217040769,E05009402,Redcliffe,http://www.hollywoodroadgallery.com/#,E09000020,12/27/2020
Kensington and Chelsea,Commercial galleries,The Rowley Gallery,115 Kensington Church Street,NA,NA,E09000020,Kensington and Chelsea,51.50677826413238,-0.19477513683864434,525380.966031731,180193.92397169385,217043176,E05009390,Campden,http://www.rowleygallery.co.uk/#,E09000020,12/27/2020
Kensington and Chelsea,Commercial galleries,Japanese Gallery,66D Kensington Church St,NA,NA,E09000020,Kensington and Chelsea,51.50532413088944,-0.19378073253652278,525453.9660119428,180033.92401523615,217043283,E05009390,Campden,http://www.japanese-gallery.com/#,E09000020,12/27/2020
Kensington and Chelsea,Commercial galleries,Northcote Gallery Chelsea,253 Kingâs Road,NA,NA,E09000020,Kensington and Chelsea,51.48604711487272,-0.17199313452886128,527019.5255835608,177927.82454965287,217046439,E05009391,Chelsea Riverside,http://www.northcotegallery.com/#,E09000020,12/27/2020
Kensington and Chelsea,Commercial galleries,Museum of Brands,111-117 Lancaster Road,NA,NA,E09000020,Kensington and Chelsea,51.51637172195887,-0.21110047071965984,524221.96634821664,181232.92368929234,217050374,E05009399,Notting Dale,http://www.museumofbrands.com/#,E09000020,12/27/2020
Kensington and Chelsea,Commercial galleries,James Harvey British Art,15 Langton Street,NA,NA,E09000020,Kensington and Chelsea,51.48235595210937,-0.18091986991138767,526409.9657536048,177501.92470088857,217051631,E05009405,Stanley,http://www.jhba.co.uk/#,E09000020,12/27/2020
Kensington and Chelsea,Commercial galleries,Doyle Devere,30 Ledbury Road,NA,NA,E09000020,Kensington and Chelsea,51.51387222378175,-0.1987894317489159,525082.9661139935,180975.92375970865,217052558,E05009400,Pembridge,http://www.doyledevere.co.uk/#,E09000020,12/27/2020
Kensington and Chelsea,Commercial galleries,The Orangery,Holland Park,NA,NA,E09000020,Kensington and Chelsea,51.50657125597892,-0.1877656207162116,525867.9658994594,180182.92397327645,217064477,E05009390,Campden,http://www.rbkc.gov.uk/subsites/museums/theorangery.aspx#,E09000020,12/27/2020
Kensington and Chelsea,Commercial galleries,Tryon St,7-9 Tryon Street,NA,NA,E09000020,Kensington and Chelsea,51.490330752436236,-0.16292757024762405,527636.965417878,178419.92445429362,217087920,E05009403,Royal Hospital,http://www.tryonst.co.uk/#,E09000020,12/27/2020
Kensington and Chelsea,Commercial galleries,Lacey Contemporary,8 Clarendon Cross,NA,NA,E09000020,Kensington and Chelsea,51.51049445654745,-0.21017792998165227,524301.9663251464,180580.92386617983,217103015,E05009399,Notting Dale,http://www.laceycontemporarygallery.co.uk/#,E09000020,12/27/2020
Kensington and Chelsea,Commercial galleries,The Dot Project,94 Fulham Road,NA,NA,E09000020,Kensington and Chelsea,51.489795851786454,-0.17532281890317092,526777.9656516023,178338.92447508615,217103153,E05009393,Courtfield,http://www.thedotproject.com/#,E09000020,12/27/2020
Kensington and Chelsea,Commercial galleries,Offer Waterman & Co,11 Langton Street,NA,NA,E09000020,Kensington and Chelsea,51.482291479831545,-0.1808216162380594,526416.9657516992,177494.92470280593,217103621,E05009405,Stanley,http://www.waterman.co.uk/#,E09000020,12/27/2020
Kensington and Chelsea,Commercial galleries,Cadogan Contemporary,87 Old Brompton Road,NA,NA,E09000020,Kensington and Chelsea,51.492518171226315,-0.17689957421006378,526660.9656832658,178638.924393697,217103741,E05009393,Courtfield,http://www.cadogancontemporary.com/#,E09000020,12/27/2020
Kensington and Chelsea,Commercial galleries,The Muse,269 Portobello Rd,NA,NA,E09000020,Kensington and Chelsea,51.51793441137311,-0.20684485116546608,524512.9662695407,181413.92364031734,217103948,E05009392,Colville,http://themuseat269.com/#,E09000020,12/27/2020
Kensington and Chelsea,Commercial galleries,Medici Gallery (south Kensington),26 Thurloe Street,NA,NA,E09000020,Kensington and Chelsea,51.49429237762958,-0.17360176035150193,526884.9656226847,178841.924339424,217104170,E05009389,Brompton & Hans Town,http://www.medicigallery.co.uk/c/183/Contact,E09000020,12/27/2020
Kensington and Chelsea,Commercial galleries,GGGallery,15b Blenheim Crescent,NA,NA,E09000020,Kensington and Chelsea,51.51565024734415,-0.20566627174938326,524600.9662454559,181161.92370896804,217106096,E05009392,Colville,http://www.gggallery.co.uk/#,E09000020,12/27/2020
Kensington and Chelsea,Commercial galleries,Richard Young Gallery,4 Holland Street,NA,NA,E09000020,Kensington and Chelsea,51.503311605461576,-0.1921250728715442,525574.3959719792,179812.96405336953,217106179,E05009390,Campden,http://www.richardyounggallery.co.uk/#,E09000020,12/27/2020
Kensington and Chelsea,Commercial galleries,Hackelbury,4 Launceston Place,NA,NA,E09000020,Kensington and Chelsea,51.499033895881766,-0.18534171634451013,526056.9658481888,179348.92420063418,217106588,E05009401,Queen's Gate,http://www.hackelbury.co.uk/#,E09000020,12/27/2020
Kensington and Chelsea,Commercial galleries,The Foundry Gallery,39 Old Church Street,NA,NA,E09000020,Kensington and Chelsea,51.48438957011454,-0.1723267456959881,527000.9655913399,177742.92463588814,217106994,E05009391,Chelsea Riverside,http://www.thefoundrygallery.org/#,E09000020,12/27/2020
Kensington and Chelsea,Commercial galleries,The Little Black Gallery,13A Park Walk,NA,NA,E09000020,Kensington and Chelsea,51.485918072964054,-0.17982751592155422,526475.9657347733,177899.92459285457,217107061,E05009405,Stanley,http://www.thelittleblackgallery.com/#,E09000020,12/27/2020
Kensington and Chelsea,Commercial galleries,Saatchi Gallery,Duke of York's HQ,King's Road,NA,E09000020,Kensington and Chelsea,51.490606110245636,-0.15869580871313135,527929.9653384807,178457.9244434932,217110596,E05009403,Royal Hospital,http://www.saatchi-gallery.co.uk/#,E09000020,12/27/2020
Kensington and Chelsea,Commercial galleries,Graffik Gallery,284 Portobello Road,NA,NA,E09000020,Kensington and Chelsea,51.51935509320047,-0.20742323880177788,524468.9662811921,181570.92359750083,217113237,E05009396,Golborne,http://graffikgallery.com/#,E09000020,12/27/2020
Kensington and Chelsea,Commercial galleries,Flying Colours Gallery,6 Burnsall Street,NA,NA,E09000020,Kensington and Chelsea,51.48881702702945,-0.16618622123694846,527414.965478184,178245.92450133612,217115299,E05009405,Stanley,http://www.flyingcoloursgallery.com/#,E09000020,12/27/2020
Kensington and Chelsea,Commercial galleries,Michael Hoppen Gallery,3 Jubilee Place,NA,NA,E09000020,Kensington and Chelsea,51.488967330381406,-0.16602174002870868,527425.9654751923,178262.9244967649,217120296,E05009405,Stanley,http://www.michaelhoppengallery.com/#,E09000020,12/27/2020
Kensington and Chelsea,Community centres,World's End Community Centre,16 Blantyre Street, London,NA,E09000020,Kensington and Chelsea,51.48093910805343,-0.1788591050039909,526556.965713535,177347.9247430694,217122202,E05009391,Chelsea Riverside,https://www.rbkc.gov.uk/housing-management/housing-venues-hire,E09000020,12/27/2020
Kensington and Chelsea,Community centres,Silchester Community Room,Frinstead House, Freston Road, London,E09000020,Kensington and Chelsea,51.51283578043404,-0.21903466175634714,523681.0564598972,180826.2937936553,217127986,E05009399,Notting Dale,https://www.rbkc.gov.uk/housing-management/housing-venues-hire,E09000020,12/27/2020
Kensington and Chelsea,Community centres,Sir Thomas More Community Centre,Sir Thomas More Estate, Beaufort Street, London,E09000020,Kensington and Chelsea,51.48306236790568,-0.17371923751671378,526907.9656168886,177592.92467652046,217004580,E05009391,Chelsea Riverside,https://www.rbkc.gov.uk/housing-management/housing-venues-hire,E09000020,12/27/2020
Kensington and Chelsea,Community centres,Henry Dickens Community Centre,Henry Dickens Court Estate, St Annes Road, London,E09000020,Kensington and Chelsea,51.51012518872785,-0.21545247421442926,523936.96642414364,180530.9238788325,217107812,E05009399,Notting Dale,,E09000020,12/27/2020
Kensington and Chelsea,Community centres,Treverton Community Centre,Treverton Street, London,NA,E09000020,Kensington and Chelsea,51.52324233703503,-0.21504307262125502,523929.77642530226,181990.27345950622,217125493,E05009394,Dalgarno,https://www.rbkc.gov.uk/housing-management/housing-venues-hire,E09000020,12/27/2020
Kensington and Chelsea,Community centres,Kensal Resource Centre,Appleford House,  Appleford Road, London,E09000020,Kensington and Chelsea,51.52448512885351,-0.20857227301030384,524375.2763033498,182139.44340116897,217126323,E05009396,Golborne,https://www.rbkc.gov.uk/housing-management/housing-venues-hire,E09000020,12/27/2020
Kensington and Chelsea,Community centres,John Keys Resource Centre,Pond House, Pond Place, London,E09000020,Kensington and Chelsea,51.4916167311062,-0.17085747575159388,527082.8955608163,178549.14439044212,217126324,E05009405,Stanley,https://www.rbkc.gov.uk/housing-management/housing-venues-hire,E09000020,12/27/2020
Kensington and Chelsea,Community centres,Edwards Woods Community Centre,60-70 Norland Road,Hammersmith And Fulham,NA,E09000020,Kensington and Chelsea,51.50695004326882,-0.21599449705567658,523907.9664322828,180176.92397527525,34039616,E05009398,Norland,,E09000020,12/27/2020
Kensington and Chelsea,Community centres,The Dalgarno Trust,Dalgarno Way,Kensington And Chelsea,NA,E09000020,Kensington and Chelsea,51.524372688626535,-0.22455368012819837,523266.96660803445,182099.92345355952,217023026,E05009394,Dalgarno,,E09000020,12/27/2020
Kensington and Chelsea,Community centres,World's End Community Centre,7 World'S End Place,Kensington And Chelsea,NA,E09000020,Kensington and Chelsea,51.48164362497323,-0.17963758771194793,526500.9657287842,177424.9247219931,217005389,E05009391,Chelsea Riverside,,E09000020,12/27/2020
Kensington and Chelsea,Community centres,Kensal House Community Centre,Ladbroke Grove,Kensington And Chelsea,NA,E09000020,Kensington and Chelsea,51.525236513469636,-0.215106465256741,523919.96643059317,182211.9234238796,217113030,E05009394,Dalgarno,,E09000020,12/27/2020
Kensington and Chelsea,Community centres,Kensington Town Hall,Hornton Street,Kensington And Chelsea,NA,E09000020,Kensington and Chelsea,51.50176812302714,-0.19508663003957044,525373.0960389108,179636.2540801452,217125489,E05009390,Campden,http://www.rbkc.gov.uk/venueskensington,E09000020,12/27/2020
Kensington and Chelsea,Community centres,Ixworth Place Community Centre,Samuel Lewis Trust Dwellings,Ixworth Place,Kensington And Chelsea,E09000020,Kensington and Chelsea,51.4919605208143,-0.1693877498839994,527183.9655404992,178589.92440924927,217104471,E05009405,Stanley,https://www.shgroup.org.uk/media/233105/ixworth-place.pdf,E09000020,12/27/2020
Kensington and Chelsea,Community centres,Chelsea Old Church,64 Cheyne Walk,Kensington And Chelsea,NA,E09000020,Kensington and Chelsea,51.48334462717143,-0.17105785513632019,527091.9655664606,177628.92466684693,217061391,E05009391,Chelsea Riverside,http://www.chelseaoldchurch.org.uk,E09000020,12/27/2020
Kensington and Chelsea,Community centres,The Reed,28 Convent Gardens ,NA,NA,E09000020,Kensington and Chelsea,51.51585147096698,-0.20662273050977187,524534.0562294228,181182.6737032514,217129015,E05009392,Colville,,E09000020,12/27/2020
Kensington and Chelsea,Community centres,North Kensington Resource Centre,Whitchurch Road, Lancaster West Estate, London,E09000020,Kensington and Chelsea,51.5129007039718,-0.21701574079250113,523820.96645611513,180836.9237958946,217113750,E05009399,Notting Dale,https://www.rbkc.gov.uk/housing-management/housing-venues-hire,E09000020,12/27/2020
Kensington and Chelsea,Community centres,Portobello Court Community Centre,Portobello Court Estate, Portobello Road, London,E09000020,Kensington and Chelsea,51.5144454708751,-0.20274466436337452,524806.9661893151,181032.92374433554,217105300,E05009392,Colville,https://www.rbkc.gov.uk/housing-management/housing-venues-hire,E09000020,12/27/2020
Kensington and Chelsea,Community centres,Nevern Place,Notting Hill Housing Association,Flat 1a,1 Nevern Place,E09000020,Kensington and Chelsea,51.49313649441664,-0.19478136518975614,525417.9660225081,178676.92438362853,217058060,E05009395,Earl's Court,,E09000020,12/27/2020
Kensington and Chelsea,Creative co-working desk space,Second Home,Second Home Holland Park,47-49 Princes Place,,E09000020,Kensington and Chelsea,51.50807126611963,-0.21020507221265144,524306.6762844983,180311.41392967186,217117492,E05009398,Norland,http://secondhome.io/,E09000020,12/27/2020
Kensington and Chelsea,Creative workspaces,Buspace,Buspace Studios,5 Conlan Street,,E09000020,Kensington & Chelsea,51.525465733580965,-0.21126285151561516,524185.96635763027,182243.92341462336,217018301,,,http://www.buspace.co.uk/,E09000020,12/27/2020
Kensington and Chelsea,Dance performance venues,Cadogan Hall,5 Sloane Terrace,,,E09000020,Kensington and Chelsea,51.49386601372175,-0.15726787385942506,528019.9651915696,178822.92422226892,217078765,E05009403,Royal Hospital,http://www.cadoganhall.com,E09000020,12/27/2020
Kensington and Chelsea,Dance performance venues,The Gate Theatre,11 Pembridge Road,,,E09000020,Kensington and Chelsea,51.50952947222264,-0.19766381903472255,525172.9659662377,180494.9237681267,217065685,E05009400,Pembridge,https://www.gatetheatre.co.uk/?spektrix_bounce=true,E09000020,12/27/2020
Kensington and Chelsea,Dance performance venues,The Tabernacle,35 Powis Square,,,E09000020,Kensington and Chelsea,51.516968162397546,-0.2018814067603197,524859.966053673,181314.9235454888,217070132,E05009392,Colville,https://www.tabernaclew11.com,E09000020,12/27/2020
Kensington and Chelsea,Dance rehearsal studios,Chelsea Theatre,,,,E09000020,Kensington and Chelsea,51.481643623903196,-0.17963758951303876,526500.9656066846,177424.92459989392,217005389,E05009391,Chelsea Riverside,,E09000020,12/27/2020
Kensington and Chelsea,Dance rehearsal studios,The Gate Theatre,11 Pembridge Road,,,E09000020,Kensington and Chelsea,51.50952947222264,-0.19766381903472255,525172.9659662377,180494.9237681267,217065685,E05009400,Pembridge,https://www.gatetheatre.co.uk/?spektrix_bounce=true,E09000020,12/27/2020
Kensington and Chelsea,Dance rehearsal studios,The Tabernacle,35 Powis Square,,,E09000020,Kensington and Chelsea,51.516968162397546,-0.2018814067603197,524859.966053673,181314.9235454888,217070132,E05009392,Colville,https://www.tabernaclew11.com,E09000020,12/27/2020
Kensington and Chelsea,Fashion and design,Sharp Cut,196H Campden Hill Road,,,E09000020,Kensington and Chelsea,51.508417293117596,-0.19960993653076917,525040.9660019251,180367.92380312725,217011263,E05009390,Campden,http://www.sharp-cut.com/,E09000020,12/27/2020
Kensington and Chelsea,Jewellery design,30 South Limited,36 Redcliffe Gardens,,,E09000020,Kensington and Chelsea,51.48529945723068,-0.18633367698938746,526025.965857611,177819.92461429763,217073548,E05009402,Redcliffe,,E09000020,12/27/2020
Kensington and Chelsea,Jewellery design,Cash Diamond Ltd,Office 4,219 Kensington High Street,,E09000020,Kensington and Chelsea,51.49940139024973,-0.19692539909699563,525251.9660670898,179369.92419681244,10091854668,E05009388,Abingdon,,E09000020,12/27/2020
Kensington and Chelsea,Jewellery design,Coleman Douglas Pearls Ltd,42 Beauchamp Place,,,E09000020,Kensington and Chelsea,51.497382760410304,-0.16476180893425713,527489.9654590811,179200.92424193566,217107523,E05009389,Brompton & Hans Town,http://www.pearls.co.uk,E09000020,12/27/2020
Kensington and Chelsea,Jewellery design,Double Happiness Limited,33 Beauchamp Place,,,E09000020,Kensington and Chelsea,51.49716704508577,-0.16419419128893958,527529.9654480836,179177.9242481602,217113366,E05009389,Brompton & Hans Town,,E09000020,12/27/2020
Kensington and Chelsea,Jewellery design,Katerina Sibilia Limited,509a Kings Road,,,E09000020,Kensington and Chelsea,51.48081007993993,-0.18387613037122,526208.9658093369,177324.92474894354,217106780,E05009391,Chelsea Riverside,,E09000020,12/27/2020
Kensington and Chelsea,Jewellery design,Mariasolef Limited,2b Ledbury Mews North,,,E09000020,Kensington and Chelsea,51.51403988383336,-0.19858104095541831,525096.9661102188,180994.92375452217,217116547,E05009400,Pembridge,,E09000020,12/27/2020
Kensington and Chelsea,Jewellery design,Mira S. Designs U.K Limited,119 Network Hub,300 Kensal Road,,E09000020,Kensington and Chelsea,51.52640324171159,-0.21082243467279288,524213.96634986065,182348.9233858768,217117619,E05009396,Golborne,,E09000020,12/27/2020
Kensington and Chelsea,Jewellery design,Samuel Antiques Ltd,"Unit 45, 141-149",Portobello Road,,E09000020,Kensington and Chelsea,51.51423408384182,-0.20420864575563624,524705.9662166085,181006.9237512612,217069410,E05009392,Colville,,E09000020,12/27/2020
Kensington and Chelsea,Jewellery design,Sydney and Ritchie Limited,International House,Cromwell Road,,E09000020,Kensington and Chelsea,51.494870066804964,-0.18765371471798908,525907.9658887192,178881.92432666023,217022091,E05009401,Queen's Gate,,E09000020,12/27/2020
Kensington and Chelsea,Libraries,Chelsea Library,King's Road,,,E09000020,Kensington and Chelsea,51.48747215654873,-0.1681703312012004,527280.9655144423,178092.9245425256,217105143,E05009403,Royal Hospital,,E09000020,12/27/2020
Kensington and Chelsea,Libraries,Brompton Library,Old Brompton Road,,,E09000020,Kensington and Chelsea,51.49007960038615,-0.1884055400146097,525868.965899565,178347.92447118822,217060921,E05009402,Redcliffe,,E09000020,12/27/2020
Kensington and Chelsea,Libraries,Kensington Central Library,Phillimore Walk,,,E09000020,Kensington and Chelsea,51.50141889533559,-0.1944060926388149,525421.286028223,179598.58410744683,217125485,E05009390,Campden,,E09000020,12/27/2020
Kensington and Chelsea,Libraries,Notting Hill Gate Library,Pembridge Square,,,E09000020,Kensington and Chelsea,51.5112788770773,-0.19739297599471872,525186.9660849748,180689.9238372218,217105238,E05009400,Pembridge,,E09000020,12/27/2020
Kensington and Chelsea,Libraries,North Kensington Library,Ladbroke Grove,,,E09000020,Kensington and Chelsea,51.51666647068485,-0.20920078727198493,524352.9663128431,181268.92367965193,217048255,E05009392,Colville,,E09000020,12/27/2020
Kensington and Chelsea,Libraries,Kensal Library,Golborne Road,,,E09000020,Kensington and Chelsea,51.523842759666856,-0.20685769561839437,524495.966272932,182070.92346114467,217035223,E05009396,Golborne,,E09000020,12/27/2020
Kensington and Chelsea,Makerspaces,Goldfinger Factory,Goldfinger Factory,Trellick Tower,13-15 Golborne Road,E09000020,Kensington & Chelsea,51.5236681660751,-0.20543743454326746,524594.9661237927,182053.9233435315,217034922,E05009396,Golborne,www.goldfingerfactory.com,E09000020,12/27/2020
Kensington and Chelsea,Making and manufacturing,Adam Dawe Design Limited,33 St Charles Square,,,E09000020,Kensington and Chelsea,51.51993512285275,-0.2142039646341974,523996.96640935505,181623.92358313885,217080087,E05009404,St. Helen's,http://www.adamdawedesign.co.uk,E09000020,12/27/2020
Kensington and Chelsea,Museums and public galleries,ClockmakersÊ¼ Museum,Exhibition Road,Kensington,NA,E09000020,Kensington and Chelsea,51.49729595478951,-0.17649274290988975,526675.9656802487,179170.92424946552,217031151,E05009389,Brompton & Hans Town,http://www.clockmakers.org/,E09000020,12/27/2020
Kensington and Chelsea,Museums and public galleries,Leighton House Museum,12 Holland Park Road,NA,NA,E09000020,Kensington and Chelsea,51.49858781711903,-0.20309513295307347,524825.9661831937,179268.92422472674,217039506,E05009397,Holland,http://http/www.rbkc.gov.uk/subsites/museums.aspx,E09000020,12/27/2020
Kensington and Chelsea,Museums and public galleries,Design Museum,224-238 Kensington High Street (Holland Park),NA,NA,E09000020,Kensington and Chelsea,51.499874429782615,-0.20015902623041054,525026.2360868902,179417.00414055696,217044656,E05009397,Holland,http://designmuseum.org/,E09000020,12/27/2020
Kensington and Chelsea,Museums and public galleries,Kensington Palace (State Apartments and Royal Ceremonial Dress Collection),Kensington Palace/Palace Green,NA,NA,E09000020,Kensington and Chelsea,51.50519933678273,-0.18802181602724055,525853.9659032915,180029.92401525192,217064431,E05009390,Campden,http://www.hrp.org.uk%0Bwww.kensingtonpalace@hrp.org.uk/,E09000020,12/27/2020
Kensington and Chelsea,Museums and public galleries,National Army Museum,Royal Hospital Road,Chelsea,NA,E09000020,Kensington and Chelsea,51.486228968379514,-0.1603374362820255,527828.2353261601,177968.31452859245,217075883,E05009403,Royal Hospital,http://www.nam.ac.uk/,E09000020,12/27/2020
Kensington and Chelsea,Museums and public galleries,British Architectural Library â Drawings and Archives Collections,Victoria and Albert Museum,Cromwell Road,Knightsbridge,E09000020,Kensington and Chelsea,51.496902279557766,-0.17209803125748363,526982.0956020028,179134.75421592017,217108016,E05009389,Brompton & Hans Town,https://www.architecture.com/about/riba-library-and-collections,E09000020,12/27/2020
Kensington and Chelsea,Museums and public galleries,Natural History Museum,Cromwell Road,NA,NA,E09000020,Kensington and Chelsea,51.49656438426556,-0.17686771980497012,526651.9656865967,179088.9242716566,217108017,E05009389,Brompton & Hans Town,http://www.nhm.ac.uk/,E09000020,12/27/2020
Kensington and Chelsea,Museums and public galleries,Carlyleâs House,24 Cheyne Row,NA,NA,E09000020,Kensington and Chelsea,51.48413279987495,-0.16970125482041293,527183.9655412731,177718.9246424901,217110505,E05009391,Chelsea Riverside,https://www.nationaltrust.org.uk/carlyles-house,E09000020,12/27/2020
Kensington and Chelsea,Museums and public galleries,The Science Museum,Exhibition Rd,Kensington,NA,E09000020,Kensington and Chelsea,51.49729595478951,-0.17649274290988975,526675.9656802487,179170.92424946552,217118723,E05009389,Brompton & Hans Town,https://www.sciencemuseum.org.uk/,E09000020,12/27/2020
Kensington and Chelsea,Museums and public galleries,Victoria and Albert Museum,Cromwell Road,South Kensington,NA,E09000020,Kensington and Chelsea,51.49694362519143,-0.1722005401263,526974.8655624735,179139.17425870366,217119925,E05009389,Brompton & Hans Town,http://www.vam.ac.uk/,E09000020,12/27/2020
Kensington and Chelsea,Music (office based businesses),Insanity,9 Derry Street,Kensington And Chelsea,,E09000020,Kensington And Chelsea,51.50109594164872,-0.19134009003427715,525634.9659629774,179567.9241417955,217102340,E05009401,Queen's Gate,,E09000020,12/27/2020
Kensington and Chelsea,Music (office based businesses),Stiff Records Ltd,105 Ladbroke Grove,Kensington And Chelsea,,E09000020,Kensington And Chelsea,51.515474437088436,-0.2088728318961231,524378.9663056026,181136.92371499148,217106572,E05009398,Norland,http://www.stiff-records.com,E09000020,12/27/2020
Kensington and Chelsea,Music (office based businesses),Eleven Management,Park House 206-208 Latimer Road,Kensington And Chelsea,,E09000020,Kensington And Chelsea,51.51668234516946,-0.22266210989980376,523418.9665663985,181247.9236841076,217118420,E05009404,St. Helen's,,E09000020,12/27/2020
Kensington and Chelsea,Music (office based businesses),Quest Management,92 Golborne Road,Kensington And Chelsea,,E09000020,Kensington And Chelsea,51.521683767559935,-0.20916242486418077,524341.9663154603,181826.92352730874,217035308,E05009396,Golborne,,E09000020,12/27/2020
Kensington and Chelsea,Music recording studios,Pirate Studios - Notting Hill,"Arches 56-59, Bard Road, White City",,,,,51.51233237210878,-0.21966767343292715,523638.49668549444,180769.2452720101,,,,http://piratestudios.co.uk,E09000020,12/27/2020
Kensington and Chelsea,Music recording studios,Sleeper Sounds,Middle Row,,,,Kensington And Chelsea,51.525675280501325,-0.21180974164968847,524147.46014997386,182266.29837279435,,,,https://milocostudios.com/studios/sleeper-sounds/location-and-map/,E09000020,12/27/2020
Kensington and Chelsea,Music recording studios,Mastering The Mix,14a Wrights Lane,Kensington And Chelsea,,E09000020,Kensington And Chelsea,51.49920009614309,-0.19261102550544415,525551.9659856252,179354.92419968225,217094356,E05009388,Abingdon,,E09000020,12/27/2020
Kensington and Chelsea,Music recording studios,Sarm Studios,105 Ladbroke Grove,Kensington And Chelsea,,E09000020,Kensington And Chelsea,51.515474437088436,-0.2088728318961231,524378.9663056026,181136.92371499148,217106572,E05009398,Norland,http://www.sarmstudios.com,E09000020,12/27/2020
Kensington and Chelsea,Music recording studios,Electric Mastering Ltd,242 Acklam Road,Kensington And Chelsea,,E09000020,Kensington And Chelsea,51.52144700656069,-0.20308871167164907,524763.9662005109,181810.9235313548,217115482,E05009396,Golborne,www.electricmastering.com,E09000020,12/27/2020
Kensington and Chelsea,Music recording studios,Arcadium Studios,124-128 Barlby Rd ,,,E09000020,Kensington And Chelsea,51.52328007719501,-0.21891656640319124,523660.9665012717,181987.92348425643,0,E05009394,Dalgarno,,E09000020,12/27/2020
Kensington and Chelsea,Music rehearsal studios,Pirate Studios - Notting Hill West London Rehearsal Studios,Arches 56-59,Bard Road,White City,,,51.512333340955394,-0.21966763998999034,523638.4963835977,180769.35306638706,,,,http://piratestudios.co.uk,E09000020,12/27/2020
Kensington and Chelsea,Music venues (all),Chelsea Ram,32 Burnaby Street,Kensington And Chelsea,,E09000020,Kensington And Chelsea,51.47915325032428,-0.18257375507709211,526303.9657838193,177142.92479817919,217008187,E05009391,Chelsea Riverside,www.thechelsearam.co.uk,E09000020,12/27/2020
Kensington and Chelsea,Music venues (all),Juju,Flat A-C 316-318,Kings Road,Kensington And Chelsea,E09000020,Kensington And Chelsea,51.48569152080525,-0.1739310920204837,526885.9656227414,177884.92459706427,217112650,E05009405,Stanley,www.jujulondon.com,E09000020,12/27/2020
Kensington and Chelsea,Music venues (all),Finborough Theatre,118 Finborough Road,Kensington And Chelsea,,E09000020,Kensington And Chelsea,51.486544026300656,-0.19005807844427663,525763.965928307,177951.92457867652,217112560,E05009402,Redcliffe,www.finboroughtheatre.co.uk,E09000020,12/27/2020
Kensington and Chelsea,Music venues (all),The Troubadour,263-267 Old Brompton Road,Kensington And Chelsea,,E09000020,Kensington And Chelsea,51.48883344055589,-0.19156630793276275,525652.9659583892,178203.92451056256,217114565,E05009402,Redcliffe,www.troubadourlondon.com,E09000020,12/27/2020
Kensington and Chelsea,Music venues (all),The Pheasantry,152 King's Rd Chelsea,London,,E09000020,Kensington And Chelsea,51.48908436784744,-0.16545526375546712,527464.9654647431,178276.92449243402,217047024,E05009405,Stanley,www.pizzaexpresslive.com/venues/chelsea-the-pheasantry,E09000020,12/27/2020
Kensington and Chelsea,Music venues (all),Eclipse,158 Old Brompton Road,Kensington And Chelsea,,E09000020,Kensington And Chelsea,51.490943748385575,-0.18322864046735263,526225.9658022387,178452.92444171733,217103754,E05009402,Redcliffe,www.eclipsebars.com,E09000020,12/27/2020
Kensington and Chelsea,Music venues (all),Albert's Club,92 Old Brompton Road,Kensington And Chelsea,,E09000020,Kensington And Chelsea,51.49259696578386,-0.1779192335894363,526589.965702744,178645.92439098604,217060804,E05009393,Courtfield,,E09000020,12/27/2020
Kensington and Chelsea,Music venues (all),Montezuma London Club,17 Harrington Road,Kensington And Chelsea,,E09000020,Kensington And Chelsea,51.49398380632825,-0.17573180112680636,526737.965662716,178803.9243487306,217036855,E05009389,Brompton & Hans Town,www.montezumalondon.com,E09000020,12/27/2020
Kensington and Chelsea,Music venues (all),Cadogan Hall,5 Sloane Terrace,Kensington And Chelsea,,E09000020,Kensington And Chelsea,51.493866014786875,-0.1572678720560693,528019.9653137679,178822.9243438632,217078765,E05009403,Royal Hospital,www.cadoganhall.com,E09000020,12/27/2020
Kensington and Chelsea,Music venues (all),CinÃ© LumiÃ¨re,17 Queensberry Place,Kensington And Chelsea,,E09000020,Kensington And Chelsea,51.49455507648505,-0.1771928337180499,526634.9656908803,178864.92433182802,217107579,E05009389,Brompton & Hans Town,www.institut-francais.org.uk/cine-lumiere,E09000020,12/27/2020
Kensington and Chelsea,Music venues (all),Hyde,1 Kensington High Street,Kensington And Chelsea,,E09000020,Kensington And Chelsea,51.50198358102266,-0.18767395436974038,525886.9658944895,179672.92411251483,217044013,E05009401,Queen's Gate,,E09000020,12/27/2020
Kensington and Chelsea,Music venues (all),Notting Hill Arts Club,19-21 Notting Hill Gate,Kensington And Chelsea,,E09000020,Kensington And Chelsea,51.5092001476391,-0.19437672786789345,525401.9660261383,180463.92389740451,217059366,E05009390,Campden,www.nottinghillartsclub.com,E09000020,12/27/2020
Kensington and Chelsea,Music venues (all),The Globe,103 Talbot Road,Kensington And Chelsea,,E09000020,Kensington And Chelsea,51.516613769226986,-0.200468461402589,524958.9661487453,181277.9236771518,217085524,E05009392,Colville,,E09000020,12/27/2020
Kensington and Chelsea,Music venues (all),Mau Mau Bar,265 Portobello Road,Kensington And Chelsea,,E09000020,Kensington And Chelsea,51.51785220511826,-0.2067616001433037,524518.9662680303,181404.92364226974,217112647,E05009392,Colville,,E09000020,12/27/2020
Kensington and Chelsea,Music venues (all),Muse Gallery,269 Portobello Road,Kensington And Chelsea,,E09000020,Kensington And Chelsea,51.5179708006658,-0.20687224840679375,524510.9662701711,181417.92363871937,217069499,E05009392,Colville,,E09000020,12/27/2020
Kensington and Chelsea,Music venues (all),Portobello House,225 Ladbroke Grove,Kensington And Chelsea,,E09000020,Kensington And Chelsea,51.519926315182154,-0.21185479207383964,524159.96636515495,181626.923581784,217049277,E05009404,St. Helen's,www.portobellohouse.com,E09000020,12/27/2020
Kensington and Chelsea,Music venues (grassroots),The Troubadour,263-267 Old Brompton Road,Kensington And Chelsea,,E09000020,Kensington And Chelsea,51.48883344055589,-0.19156630793276275,525652.9659583892,178203.92451056256,217114565,E05009402,Redcliffe,www.troubadourlondon.com,E09000020,12/27/2020
Kensington and Chelsea,Music venues (grassroots),The Pheasantry,152 King's Rd Chelsea,London,,E09000020,Kensington And Chelsea,51.48908436784744,-0.16545526375546712,527464.9654647431,178276.92449243402,217047024,E05009405,Stanley,www.pizzaexpresslive.com/venues/chelsea-the-pheasantry,E09000020,12/27/2020
Kensington and Chelsea,Music venues (grassroots),Notting Hill Arts Club,19-21 Notting Hill Gate,Kensington And Chelsea,,E09000020,Kensington And Chelsea,51.5092001476391,-0.19437672786789345,525401.9660261383,180463.92389740451,217059366,E05009390,Campden,www.nottinghillartsclub.com,E09000020,12/27/2020
Kensington and Chelsea,Prop and costume making,Adam Dawe Design Limited,33 St Charles Square,,,E09000020,Kensington and Chelsea,51.51993512285275,-0.2142039646341974,523996.96640935505,181623.92358313885,217080087,E05009404,St. Helen's,http://www.adamdawedesign.co.uk,E09000020,12/27/2020
Kensington and Chelsea,Pubs,Sporting Page,6 Camera Place,Chelsea,London,E09000020,Kensington and Chelsea,51.48467025539925,-0.17938749741478058,526509.9657256892,177761.92463024735,,E05009405,Stanley,,E09000020,12/27/2020
Kensington and Chelsea,Pubs,Rileys,433 Kings Road,Chelsea,,E09000020,Kensington and Chelsea,51.48337964481936,-0.1773504807643656,526654.9656862029,177621.92466836842,,E05009405,Stanley,,E09000020,12/27/2020
Kensington and Chelsea,Pubs,World's End Market,459 Kings Road,Chelsea,London,E09000020,Kensington and Chelsea,51.482652995764894,-0.1780419484489717,526608.9656989308,177539.92469071335,,E05009391,Chelsea Riverside,,E09000020,12/27/2020
Kensington and Chelsea,Pubs,Chelsea Ram,32 Burnaby Street,Chelsea,London,E09000020,Kensington and Chelsea,51.47911255257555,-0.18284899902905238,526284.965788981,177137.9248000249,,E05009391,Chelsea Riverside,,E09000020,12/27/2020
Kensington and Chelsea,Pubs,Lots Road Pub & Dining Rooms,114 Lots Road,Chelsea,London,E09000020,Kensington and Chelsea,51.47825240048622,-0.18363201921870845,526232.9658036414,177040.92482639785,,E05009391,Chelsea Riverside,,E09000020,12/27/2020
Kensington and Chelsea,Pubs,Finborough Arms,118 Finborough Road,West Brompton,London,E09000020,Kensington and Chelsea,51.48615790018025,-0.18951162692534373,525802.9659176855,177909.92459048046,,E05009402,Redcliffe,,E09000020,12/27/2020
Kensington and Chelsea,Pubs,Hollywood Arms,45 Hollywood Road,Chelsea,London,E09000020,Kensington and Chelsea,51.486275055845596,-0.1842928504665755,526164.9658197754,177931.92458361533,,E05009402,Redcliffe,,E09000020,12/27/2020
Kensington and Chelsea,Pubs,Kings Arms,190 Fulham Road,Chelsea,London,E09000020,Kensington and Chelsea,51.48619634302621,-0.18095432485444837,526396.9657563331,177928.92458486214,,E05009402,Redcliffe,,E09000020,12/27/2020
Kensington and Chelsea,Pubs,Sophie's,311-313 Fulham Road,West Brompton,London,E09000020,Kensington and Chelsea,51.486726738170354,-0.17920475378902515,526516.9657234187,177990.92456831003,,E05009405,Stanley,,E09000020,12/27/2020
Kensington and Chelsea,Pubs,Fox & Pheasant,1 Billing Road,Chelsea,London,E09000020,Kensington and Chelsea,51.48207015122748,-0.18801720127460952,525917.9658876685,177457.92471321422,,E05009402,Redcliffe,,E09000020,12/27/2020
Kensington and Chelsea,Pubs,Chelsea Pensioner,358 Fulham Road,Chelsea,London,E09000020,Kensington and Chelsea,51.48151793497138,-0.18777983226917191,525935.9658830714,177396.9247298005,,E05009402,Redcliffe,,E09000020,12/27/2020
Kensington and Chelsea,Pubs,Royal Court Cafe Bar & Kitchen,"Royal Court Theatre, Sloane Square",London,Chelsea,E09000020,Kensington and Chelsea,51.492611327024335,-0.15639652239608492,528083.9652960427,178684.92438198772,,E05009403,Royal Hospital,,E09000020,12/27/2020
Kensington and Chelsea,Pubs,Colbert,50-52 Sloane Square,London,Chelsea,E09000020,Kensington and Chelsea,51.492843178626885,-0.15627191809965638,528091.9652939094,178710.92437485832,,E05009403,Royal Hospital,,E09000020,12/27/2020
Kensington and Chelsea,Pubs,Rose & Crown,90-92 Lower Sloane Street,London,Belgravia,E09000020,Kensington and Chelsea,51.490037041154345,-0.15681728703279613,528061.9653030332,178397.9244593209,,E05009403,Royal Hospital,,E09000020,12/27/2020
Kensington and Chelsea,Pubs,Botanist,7 Sloane Square,London,Belgravia,E09000020,Kensington and Chelsea,51.49309103289611,-0.15659324890558157,528068.9653002032,178737.92436752107,,E05009403,Royal Hospital,,E09000020,12/27/2020
Kensington and Chelsea,Pubs,Antelope,22-24 Eaton Terrace,London,Belgravia,E09000020,Kensington and Chelsea,51.49417635689935,-0.15584354149702445,528117.9652870565,178859.9243340472,,E05009403,Royal Hospital,,E09000020,12/27/2020
Kensington and Chelsea,Pubs,Harrods Terrace Bar,"Harrods Store, 4th Floor, 87 - 135 Brompton Road",London,Knightsbridge,E09000020,Kensington and Chelsea,51.49944476220333,-0.16320933946566377,527591.9654318604,179432.92417822534,,E05009389,Brompton & Hans Town,,E09000020,12/27/2020
Kensington and Chelsea,Pubs,Gloucester,187 Sloane Street,London,Belgravia,E09000020,Kensington and Chelsea,51.499952254900144,-0.15944283733654432,527851.9653608046,179495.9241605383,,E05009389,Brompton & Hans Town,,E09000020,12/27/2020
Kensington and Chelsea,Pubs,Bunch Of Grapes,207 Brompton Road,Knightsbridge,London,E09000020,Kensington and Chelsea,51.497668398074396,-0.16692583406703296,527338.9655004336,179228.92423454148,,E05009389,Brompton & Hans Town,,E09000020,12/27/2020
Kensington and Chelsea,Pubs,Hour Glass,279-283 Brompton Road,South Kensington,London,E09000020,Kensington and Chelsea,51.494087754934746,-0.16855337567717313,527235.9655270682,178827.92434448557,,E05009389,Brompton & Hans Town,,E09000020,12/27/2020
Kensington and Chelsea,Pubs,Enterprise,35 Walton Street,Chelsea,London,E09000020,Kensington and Chelsea,51.49529443181958,-0.16578214991381435,527424.9654760738,178966.92430614686,,E05009389,Brompton & Hans Town,,E09000020,12/27/2020
Kensington and Chelsea,Pubs,Admiral Codrington,17 Mossop Street,Chelsea,London,E09000020,Kensington and Chelsea,51.49383134358766,-0.16595615340265,527416.9654777133,178803.92435081076,,E05009389,Brompton & Hans Town,,E09000020,12/27/2020
Kensington and Chelsea,Pubs,Builders Arms,13 Britten Street,Chelsea,London,E09000020,Kensington and Chelsea,51.48906622804186,-0.1677463233446089,527305.9655075627,178270.92449485464,,E05009405,Stanley,,E09000020,12/27/2020
Kensington and Chelsea,Pubs,Surprise,6 Christchurch Terrace,Chelsea,London,E09000020,Kensington and Chelsea,51.48628050711714,-0.16270146283365042,527663.9654117367,177969.92457482137,,E05009403,Royal Hospital,,E09000020,12/27/2020
Kensington and Chelsea,Pubs,Phoenix,23 Smith Street,Chelsea,London,E09000020,Kensington and Chelsea,51.48898563166823,-0.16316889907602772,527623.9654217571,178269.92449451,,E05009403,Royal Hospital,,E09000020,12/27/2020
Kensington and Chelsea,Pubs,Chelsea Potter,119 Kings Road,Chelsea,London,E09000020,Kensington and Chelsea,51.48839216039996,-0.16604482048774763,527425.965475285,178198.92451389675,,E05009403,Royal Hospital,,E09000020,12/27/2020
Kensington and Chelsea,Pubs,Caffe Concerto,52 Kings Road,Chelsea,,E09000020,Kensington and Chelsea,51.49150721703556,-0.16053220074536484,527799.9653733409,178554.92441775824,,E05009403,Royal Hospital,,E09000020,12/27/2020
Kensington and Chelsea,Pubs,Chelsea Pig,35 Old Church Street,Chelsea,London,E09000020,Kensington and Chelsea,51.48472747505484,-0.17265891210999104,526976.9655978667,177779.92462592287,,E05009391,Chelsea Riverside,,E09000020,12/27/2020
Kensington and Chelsea,Pubs,Cross Keys,1 Lawrence Street,Chelsea,London,E09000020,Kensington and Chelsea,51.48374747111083,-0.17094092943217984,527098.9655645674,177673.92465454782,,E05009391,Chelsea Riverside,,E09000020,12/27/2020
Kensington and Chelsea,Pubs,Phene,9 Phene Street,Chelsea,London,E09000020,Kensington and Chelsea,51.48524358648861,-0.16769791345827373,527319.9655041662,177845.92460854858,,E05009403,Royal Hospital,,E09000020,12/27/2020
Kensington and Chelsea,Pubs,Coopers Arms,87 Flood Street,Chelsea,London,E09000020,Kensington and Chelsea,51.4860820032839,-0.16495641435699324,527507.9654536468,177943.9245820323,,E05009403,Royal Hospital,,E09000020,12/27/2020
Kensington and Chelsea,Pubs,Crown,153 Dovehouse Street,Chelsea,London,E09000020,Kensington and Chelsea,51.490078352652965,-0.17325163733992555,526920.9656125087,178373.9244661625,,E05009405,Stanley,,E09000020,12/27/2020
Kensington and Chelsea,Pubs,Sydney Arms,70 Sydney Street,Chelsea,London,E09000020,Kensington and Chelsea,51.48853218678443,-0.16925138994732794,527202.9655356408,178208.9245113106,,E05009405,Stanley,,E09000020,12/27/2020
Kensington and Chelsea,Pubs,Duke of Clarence,148 Old Brompton Road,South Kensington,London,E09000020,Kensington and Chelsea,51.490961787979714,-0.18265171641965094,526265.9657912183,178455.92444156832,,E05009393,Courtfield,,E09000020,12/27/2020
Kensington and Chelsea,Pubs,Drayton Arms,153 Old Brompton Road,South Kensington,London,E09000020,Kensington and Chelsea,51.49064331505332,-0.18357190107765317,526202.9658084838,178418.92445136834,,E05009402,Redcliffe,,E09000020,12/27/2020
Kensington and Chelsea,Pubs,King's Head,17 Hogarth Place,Earls Court,London,E09000020,Kensington and Chelsea,51.49289264431286,-0.19296147181313514,525544.96598785,178652.92438964365,,E05009395,Earl's Court,,E09000020,12/27/2020
Kensington and Chelsea,Pubs,Blackbird,209 Earls Court Road,Earls Court,London,E09000020,Kensington and Chelsea,51.49196397070627,-0.19222031361404726,525598.9659731355,178550.92441700655,,E05009395,Earl's Court,,E09000020,12/27/2020
Kensington and Chelsea,Pubs,Courtfield,187 Earls Court Road,Earls Court,London,E09000020,Kensington and Chelsea,51.49196397070627,-0.19222031361404726,525598.9659731355,178550.92441700655,,E05009395,Earl's Court,,E09000020,12/27/2020
Kensington and Chelsea,Pubs,Bolton,326 Earls Court Road,Earls Court,London,E09000020,Kensington and Chelsea,51.489783965186405,-0.19080845432138283,525702.965944729,178310.92448182736,,E05009395,Earl's Court,,E09000020,12/27/2020
Kensington and Chelsea,Pubs,Pembroke,261 Old Brompton Road,Earls Court,London,E09000020,Kensington and Chelsea,51.488695416851776,-0.19194628515553272,525626.9659653417,178187.92451550288,,E05009402,Redcliffe,,E09000020,12/27/2020
Kensington and Chelsea,Pubs,Earls Court Tavern,123 Earls Court Road,Earls Court,London,E09000020,Kensington and Chelsea,51.49382784399871,-0.19471082130220635,525420.9660216258,178753.92436281778,,E05009395,Earl's Court,,E09000020,12/27/2020
Kensington and Chelsea,Pubs,Prince of Teck,161 Earls Court Road,Earls Court,London,E09000020,Kensington and Chelsea,51.49296863917237,-0.19380840638014676,525485.9660039558,178659.92438797146,,E05009395,Earl's Court,,E09000020,12/27/2020
Kensington and Chelsea,Pubs,Hoop & Toy,34 Thurloe Place,South Kensington,London,E09000020,Kensington and Chelsea,51.49474823343944,-0.17400131638049848,526855.9656307072,178891.92432572355,,E05009389,Brompton & Hans Town,,E09000020,12/27/2020
Kensington and Chelsea,Pubs,Zetland Arms,2 Bute Street,South Kensington,London,E09000020,Kensington and Chelsea,51.493720462776885,-0.1761456886276444,526709.9656701811,178773.9243572789,,E05009389,Brompton & Hans Town,,E09000020,12/27/2020
Kensington and Chelsea,Pubs,Anglesea Arms,15 Selwood Terrace,South Kensington,London,E09000020,Kensington and Chelsea,51.490272517929306,-0.17706119274743004,526655.965684851,178388.92446117755,,E05009393,Courtfield,,E09000020,12/27/2020
Kensington and Chelsea,Pubs,Tavern,97 Cromwell Road,South Kensington,London,E09000020,Kensington and Chelsea,51.494219088231496,-0.1851008388530138,526086.965839885,178813.92434434983,,E05009393,Courtfield,,E09000020,12/27/2020
Kensington and Chelsea,Pubs,Coco Momo,25 Gloucester Road,South Kensington,London,E09000020,Kensington and Chelsea,51.49818642160519,-0.18345920408585614,526189.9658120988,179257.92422515334,,E05009401,Queen's Gate,,E09000020,12/27/2020
Kensington and Chelsea,Pubs,Gloucester Arms,34 Gloucester Road,South Kensington,London,E09000020,Kensington and Chelsea,51.49914753119109,-0.18396846546858525,526151.9658224479,179363.92419659236,,E05009401,Queen's Gate,,E09000020,12/27/2020
Kensington and Chelsea,Pubs,Stanhope Arms,97 Gloucester Road,South Kensington,London,E09000020,Kensington and Chelsea,51.494235619556996,-0.18210369276978822,526294.9657832612,178820.9243430866,,E05009393,Courtfield,,E09000020,12/27/2020
Kensington and Chelsea,Pubs,Steak & Co,152 Gloucester Road,South Kensington,London,E09000020,Kensington and Chelsea,51.49317424482161,-0.18208831338969342,526298.9657820683,178702.92437489895,,E05009393,Courtfield,,E09000020,12/27/2020
Kensington and Chelsea,Pubs,Hereford Arms,127 Gloucester Road,South Kensington,London,E09000020,Kensington and Chelsea,51.493081977329474,-0.1813572879391608,526349.9657681582,178693.92437752767,,E05009393,Courtfield,,E09000020,12/27/2020
Kensington and Chelsea,Pubs,Queens Arms,30 Queen's Gate Mews,South Kensington,London,E09000020,Kensington and Chelsea,51.49981065631384,-0.1809164239578418,526361.9657657174,179442.9241754652,,E05009401,Queen's Gate,,E09000020,12/27/2020
Kensington and Chelsea,Pubs,Chilled Eskimo,48 Southern Row,North Kensington,London,E09000020,Kensington and Chelsea,51.52488463840313,-0.2114874573074515,524171.96636150964,182178.92343231896,,E05009396,Golborne,,E09000020,12/27/2020
Kensington and Chelsea,Pubs,Eagle,250 Ladbroke Grove,North Kensington,London,E09000020,Kensington and Chelsea,51.52272005960437,-0.21284084322068814,524083.96638567146,181935.92349844886,,E05009396,Golborne,,E09000020,12/27/2020
Kensington and Chelsea,Pubs,Portobello House,225 Ladbroke Grove,North Kensington,London,E09000020,Kensington and Chelsea,51.519371724304406,-0.21145851896057466,524188.96635720885,181565.92359885713,,E05009404,St. Helen's,,E09000020,12/27/2020
Kensington and Chelsea,Pubs,Ariadnes Nectar,274 Latimer Road,North Kensington,London,E09000020,Kensington and Chelsea,51.518644716070575,-0.2245747848853829,523280.96660412056,181462.92362618615,,E05009404,St. Helen's,,E09000020,12/27/2020
Kensington and Chelsea,Pubs,Garden Bar & Grill,41 Bramley Road,North Kensington,London,E09000020,Kensington and Chelsea,51.51243904212194,-0.21799937082395493,523753.9664742007,180783.92381008383,,E05009399,Notting Dale,,E09000020,12/27/2020
Kensington and Chelsea,Pubs,Pig & Whistle,92 Bramley Road,North Kensington,London,E09000020,Kensington and Chelsea,51.513959221332925,-0.21743558032631866,523788.9664649691,180953.92376423976,,E05009399,Notting Dale,,E09000020,12/27/2020
Kensington and Chelsea,Pubs,Italian Job,45 All Saints Road,Notting Hill,London,E09000020,Kensington and Chelsea,51.51839036700642,-0.20431894147734012,524686.966222286,181468.92362538388,,E05009392,Colville,,E09000020,12/27/2020
Kensington and Chelsea,Pubs,Distillery,186 Portobello Road,Notting Hill,,E09000020,Kensington and Chelsea,51.51646125316435,-0.2051875755048029,524631.9662373015,181252.92368425732,,E05009392,Colville,,E09000020,12/27/2020
Kensington and Chelsea,Pubs,UKAI,240 Portobello Road,Notting Hill,London,E09000020,Kensington and Chelsea,51.5179098302091,-0.20641340932004534,524542.9662614218,181411.92364087916,,E05009392,Colville,,E09000020,12/27/2020
Kensington and Chelsea,Pubs,Mau Mau,265 Portobello Road,Notting Hill,London,E09000020,Kensington and Chelsea,51.51785220512283,-0.2067616001445202,524518.9662679331,181404.92364277586,,E05009392,Colville,,E09000020,12/27/2020
Kensington and Chelsea,Pubs,Castle,225 Portobello Road,Notting Hill,London,E09000020,Kensington and Chelsea,51.516313539043125,-0.20552488635791233,524608.9662434811,181235.92368885846,,E05009392,Colville,,E09000020,12/27/2020
Kensington and Chelsea,Pubs,E & O,14 Blenheim Crescent,Notting Hill,London,E09000020,Kensington and Chelsea,51.515901448911315,-0.2056275686881248,524602.9662449863,181189.92370135634,,E05009392,Colville,,E09000020,12/27/2020
Kensington and Chelsea,Pubs,Elgin,96 Ladbroke Grove,Notting Hill,London,E09000020,Kensington and Chelsea,51.516385007383974,-0.20902446237977138,524365.966309255,181237.9236880754,,E05009392,Colville,,E09000020,12/27/2020
Kensington and Chelsea,Pubs,Tabernacle,34-35 Powis Square,Notting Hill,,E09000020,Kensington and Chelsea,51.516702234857924,-0.20154596608613662,524883.9661691874,181285.92367550847,,E05009392,Colville,,E09000020,12/27/2020
Kensington and Chelsea,Pubs,Portobello Star,171 Portobello Road,Notting Hill,London,E09000020,Kensington and Chelsea,51.51420513753553,-0.2040800728712427,524714.966214161,181003.92375209124,,E05009392,Colville,,E09000020,12/27/2020
Kensington and Chelsea,Pubs,Duke of Wellington,179 Portobello Road,Notting Hill,London,E09000020,Kensington and Chelsea,51.51552415786374,-0.20506588997293446,524642.9662340509,181148.92371255212,,E05009392,Colville,,E09000020,12/27/2020
Kensington and Chelsea,Pubs,Electric Diner,191-193 Portobello Road,Notting Hill,London,E09000020,Kensington and Chelsea,51.51552415786374,-0.20506588997293446,524642.9662340509,181148.92371255212,,E05009392,Colville,,E09000020,12/27/2020
Kensington and Chelsea,Pubs,Earl of Lonsdale,277-281 Westbourne Grove,Notting Hill,London,E09000020,Kensington and Chelsea,51.51328617979719,-0.20338121523744868,524765.9662000632,180902.923779661,,E05009392,Colville,,E09000020,12/27/2020
Kensington and Chelsea,Pubs,Sun In Splendour,7 Portobello Road,Notting Hill,London,E09000020,Kensington and Chelsea,51.51077346769417,-0.19785968908485216,525155.9660932809,180632.92385278246,,E05009400,Pembridge,,E09000020,12/27/2020
Kensington and Chelsea,Pubs,Prince Albert,11 Pembridge Road,Notting Hill,London,E09000020,Kensington and Chelsea,51.50952947329296,-0.1976638172328778,525172.9660883379,180494.92389022687,,E05009400,Pembridge,,E09000020,12/27/2020
Kensington and Chelsea,Pubs,Ladbroke Arms,54 Ladbroke Road,Notting Hill,London,E09000020,Kensington and Chelsea,51.509103093232206,-0.20269562696168963,524824.9661827582,180438.9239061047,,E05009400,Pembridge,,E09000020,12/27/2020
Kensington and Chelsea,Pubs,Mitre,40 Holland Park Avenue,Notting Hill,London,E09000020,Kensington and Chelsea,51.50785685081074,-0.20411368766821048,524729.9662085597,180297.92394428817,,E05009398,Norland,,E09000020,12/27/2020
Kensington and Chelsea,Pubs,Stewart Arms,26 Norland Road,Notting Hill,London,E09000020,Kensington and Chelsea,51.5057194417272,-0.21608581771910237,523904.9664334287,180039.92401284364,,E05009398,Norland,,E09000020,12/27/2020
Kensington and Chelsea,Pubs,Castle,100 Holland Park Avenue,Notting Hill,London,E09000020,Kensington and Chelsea,51.50682226330219,-0.20761281509040305,524489.9662739472,180176.9239767163,,E05009398,Norland,,E09000020,12/27/2020
Kensington and Chelsea,Pubs,Crown & Sceptre,34 Holland Road,West Kensington,London,E09000020,Kensington and Chelsea,51.497621445888356,-0.2069366623523184,524561.966255393,179154.92425510258,,E05009397,Holland,,E09000020,12/27/2020
Kensington and Chelsea,Pubs,Society Bar,"Olympia Hilton Hotel, 380 Kensington High Street",West Kensington,London,E09000020,Kensington and Chelsea,51.49647441336873,-0.20778848286538368,524505.9662707698,179025.92428983946,,E05009397,Holland,,E09000020,12/27/2020
Kensington and Chelsea,Pubs,Warwick Arms,160 Warwick Road,West Kensington,London,E09000020,Kensington and Chelsea,51.495168917274796,-0.20298474608548442,524842.9661790779,178888.9243276422,,E05009388,Abingdon,,E09000020,12/27/2020
Kensington and Chelsea,Pubs,Champion,1 Wellington Terrace,Bayswater,London,E09000020,Kensington and Chelsea,51.50997183553869,-0.19251598749795212,525528.9659916711,180552.9238734272,,E05009400,Pembridge,,E09000020,12/27/2020
Kensington and Chelsea,Pubs,Old Swan,206 Kensington Church Street,Kensington,London,E09000020,Kensington and Chelsea,51.50878617345487,-0.19494071207688843,525363.9660362914,180416.92391078634,,E05009390,Campden,,E09000020,12/27/2020
Kensington and Chelsea,Pubs,Prince of Wales,8 Kensington Church Street,Kensington,London,E09000020,Kensington and Chelsea,51.50254475695374,-0.19082161541908094,525666.96595415,179729.92409788776,,E05009390,Campden,,E09000020,12/27/2020
Kensington and Chelsea,Pubs,Elephant & Castle,40 Holland Street,Kensington,London,E09000020,Kensington and Chelsea,51.503213481734264,-0.192783559452279,525528.9659916263,179800.92407877382,,E05009390,Campden,,E09000020,12/27/2020
Kensington and Chelsea,Pubs,Mall Tavern,71-73 Palace Gardens Terrace,Kensington,London,E09000020,Kensington and Chelsea,51.50811126488278,-0.1937425040012046,525448.9660132253,180343.92393047066,,E05009390,Campden,,E09000020,12/27/2020
Kensington and Chelsea,Pubs,Piano Bar & Restaurant,106 Kensington High Street,Kensington,London,E09000020,Kensington and Chelsea,51.5017138435487,-0.19233861923790904,525563.9659821552,179634.92412411084,,E05009390,Campden,,E09000020,12/27/2020
Kensington and Chelsea,Pubs,Builders Arms,1 Kensington Court Place,Kensington,London,E09000020,Kensington and Chelsea,51.49999599583676,-0.1882427154256246,525852.9659036639,179450.92417365144,,E05009401,Queen's Gate,,E09000020,12/27/2020
Kensington and Chelsea,Pubs,Greyhound,1 Kensington Square,Kensington,London,E09000020,Kensington and Chelsea,51.50075882953462,-0.1893074738534548,525776.965924305,179533.92415133247,,E05009401,Queen's Gate,,E09000020,12/27/2020
Kensington and Chelsea,Pubs,Goat Tavern,3B Kensington High Street,Kensington,London,E09000020,Kensington and Chelsea,51.50204684741457,-0.18827660629807166,525844.9659058024,179678.92411146685,,E05009401,Queen's Gate,,E09000020,12/27/2020
Kensington and Chelsea,Pubs,Whole Foods Market,63-79 Kensington High Street,Kensington,,E09000020,Kensington and Chelsea,51.50162240979956,-0.19107429055709194,525651.9659582484,179626.9241261168,,E05009401,Queen's Gate,,E09000020,12/27/2020
Kensington and Chelsea,Pubs,Abingdon,54 Abingdon Road,Kensington,London,E09000020,Kensington and Chelsea,51.49732082842485,-0.19612871238693225,525312.9660507209,179139.92425884667,,E05009388,Abingdon,,E09000020,12/27/2020
Kensington and Chelsea,Pubs,Princess Victoria,25 Earls Court Road,Kensington,London,E09000020,Kensington and Chelsea,51.4983035732108,-0.1980493056652151,525176.9660876249,179245.92423052905,,E05009388,Abingdon,,E09000020,12/27/2020
Kensington and Chelsea,Pubs,Hansom Cab,86 Earls Court Road,Kensington,London,E09000020,Kensington and Chelsea,51.49608599707312,-0.19711392689076232,525247.9660685669,179000.9242966128,,E05009388,Abingdon,,E09000020,12/27/2020
Kensington and Chelsea,Pubs,Scarsdale Tavern,23a Edwardes Square,Kensington,London,E09000020,Kensington and Chelsea,51.49771234472247,-0.19936928924861516,525086.9661122004,179177.9242491639,,E05009388,Abingdon,,E09000020,12/27/2020
Kensington and Chelsea,Pubs,Devonshire Arms,37 Marloes Road,Kensington,London,E09000020,Kensington and Chelsea,51.497060702975666,-0.1926668841588112,525553.9659851186,179116.92426440085,,E05009388,Abingdon,,E09000020,12/27/2020
Kensington and Chelsea,Pubs,Britannia,1 Allen Street,Kensington,London,E09000020,Kensington and Chelsea,51.49711715789585,-0.19458079245599477,525420.9660213329,179119.92426395678,,E05009388,Abingdon,,E09000020,12/27/2020
Kensington and Chelsea,Pubs,Windsor Castle,114 Campden Hill Road,Kensington,London,E09000020,Kensington and Chelsea,51.50654013851189,-0.1985888058384508,525116.9661034456,180160.92398148723,,E05009390,Campden,,E09000020,12/27/2020
Kensington and Chelsea,Pubs,Churchill Arms,119 Kensington Church Street,Kensington,London,E09000020,Kensington and Chelsea,51.50655291962626,-0.19474081789538997,525383.9660309227,180168.92397852085,,E05009390,Campden,,E09000020,12/27/2020
Kensington and Chelsea,Pubs,Hillgate,24 Hillgate Street,Kensington,London,E09000020,Kensington and Chelsea,51.50810050943849,-0.197720238592142,525172.9660881851,180335.92393353645,,E05009390,Campden,,E09000020,12/27/2020
Kensington and Chelsea,Pubs,Uxbridge Arms,13 Uxbridge Street,Kensington,London,E09000020,Kensington and Chelsea,51.508401373729434,-0.19857299739585157,525112.9661044702,180367.92392499367,,E05009390,Campden,,E09000020,12/27/2020
Kensington and Chelsea,Set and exhibition building,London Atelier,Studio 7,160 Barlby Road,,E09000020,Kensington and Chelsea,51.52358937179866,-0.2171667165788357,523781.51645615813,182025.27345025027,217120729,E05009394,Dalgarno,http://www.londonatelier.com/,E09000020,12/27/2020
Kensington and Chelsea,Set and exhibition building,Adam Dawe Design Limited,33 St Charles Square,,,E09000020,Kensington and Chelsea,51.51993512285275,-0.2142039646341974,523996.96640935505,181623.92358313885,217080087,E05009404,St. Helen's,http://www.adamdawedesign.co.uk,E09000020,12/27/2020
Kensington and Chelsea,Skate Parks,Bay-Sixty-6,,,,E09000020,Kensington and Chelsea,51.52017161808033,-0.20529562840672252,524614.3448426086,181665.34056391875,0,E05009396,Golborne,https://www.baysixty6.com/,E09000020,12/27/2020
Kensington and Chelsea,Skate Parks,Meanwhile-Gardens,,,,E09000020,Kensington and Chelsea,51.5227216767881,-0.20292553774416772,524771.8031729463,181952.94766289584,0,E05009396,Golborne,,E09000020,12/27/2020
Kensington and Chelsea,Theatre rehearsal studio,Chelsea Theatre,7 World's End Place,King's Road,,E09000020,Kensington and Chelsea,51.481643623903196,-0.17963758951303876,526500.9656066846,177424.92459989392,217005389,E05009391,Chelsea Riverside,http://www.chelseatheatre.org.uk/venue-hire/,E09000020,12/27/2020
Kensington and Chelsea,Theatres,Chelsea Theatre,7 World's End Place, King's Rd, Chelsea,E09000020,Kensington and Chelsea,51.48215635297819,-0.1812371902860874,526388.4843374552,177479.18148497137,217005389,E05009405,Stanley,http://www.chelseatheatre.org.uk/,E09000020,12/27/2020
Kensington and Chelsea,Theatres,Opera Holland Park Theatre,Ilchester Place, Kensington,NA,E09000020,Kensington and Chelsea,51.50115651634619,-0.20444934346071145,524724.9621883717,179552.2622256389,217038848,E05009397,Holland,http://www.operahollandpark.com/,E09000020,12/27/2020
Kensington and Chelsea,Theatres,Print Room at the Coronet,103 Notting Hill Gate, Kensington,NA,E09000020,Kensington and Chelsea,51.508996446797,-0.20048507588142672,524978.6529188802,180430.83348617685,217059398,E05009400,Pembridge,https://www.the-print-room.org/,E09000020,12/27/2020
Kensington and Chelsea,Theatres,The Tabernacle W11,34-35 Powis Square,NA,NA,E09000020,Kensington and Chelsea,51.51721062864502,-0.20314396319684555,524771.7070776023,181339.73493865284,217070132,E05009392,Colville,https://www.tabernaclew11.com/,E09000020,12/27/2020
Kensington and Chelsea,Theatres,Royal Court Theatre,Sloane Square, Chelsea,NA,E09000020,Kensington and Chelsea,51.49312267230601,-0.15799890356956667,527971.301704658,178738.9867453361,217078033,E05009403,Royal Hospital,https://royalcourttheatre.com/,E09000020,12/27/2020
Kensington and Chelsea,Theatres,Cadogan Hall,5 Sloane Terrace, Belgravia,NA,E09000020,Kensington and Chelsea,51.49394057575294,-0.15910381480434369,527892.3149263161,178828.00942114153,217078765,E05009403,Royal Hospital,https://www.cadoganhall.com/,E09000020,12/27/2020
Kensington and Chelsea,Theatres,Drayton Arms Theatre,153 Old Brompton Road,NA,NA,E09000020,Kensington and Chelsea,51.49115439458023,-0.18515721072684257,526091.5046167007,178473.0283142528,217101579,E05009402,Redcliffe,http://www.thedraytonarmstheatre.co.uk/index.php,E09000020,12/27/2020
Kensington and Chelsea,Theatres,Gate Theatre,11 Pembridge Rd, Notting Hill,NA,E09000020,Kensington and Chelsea,51.510038369549356,-0.199262214493141,525060.6577969017,180548.7842538196,217105236,E05009400,Pembridge,https://www.gatetheatre.co.uk/,E09000020,12/27/2020
Kensington and Chelsea,Theatres,Finborough Theatre,118 Finborough Road, Kensington,NA,E09000020,Kensington and Chelsea,51.48666972967394,-0.1911104669773156,525690.5571259484,177964.0974540012,217112560,E05009402,Redcliffe,http://www.finboroughtheatre.co.uk/,E09000020,12/27/2020
