BOROUGH,Cultural Venue Type,site_name,address1,address2,address3,borough_code,borough_name,latitude,longitude,easting,northing,os_addressbase_uprn,ward_2018_code,ward_2018_name,website,gss_code,runtime
Kingston upon Thames,Artists workspaces,Hawks Road,47-51 Hawks Road,Kingston Upon Thames,,E09000021,Kingston upon Thames,51.40818644360322,-0.2932248308933918,518804.4676998292,169066.32687318773,10025170552,E05000409,Norbiton,www.ascstudios.co.uk,E09000021,12/27/2020
Kingston upon Thames,Cinemas,Odeon Kingston,,Clarence Street,,E09000021,Kingston upon Thames,51.41170694687227,-0.2993418794085,518369.96793997067,169447.92689036264,000128004717,E05000408,Grove,,E09000021,12/27/2020
Kingston upon Thames,Community centres,Shiraz Mirza Hall (Norbiton),76 Coombe Road,Kingston Upon Thames,NA,E09000021,Kingston upon Thames,51.41236776024228,-0.2829955426454576,519504.96763206914,169547.92686626577,100023059174,E05000406,Coombe Hill,http://www.shirazm.org.uk/norbiton/index.php,E09000021,12/27/2020
Kingston upon Thames,Community centres,Tudor Hall,Tudor Drive,Kingston Upon Thames,NA,E09000021,Kingston upon Thames,51.42631988537038,-0.2975043129604656,518459.96791682,171075.92644799832,128039996,E05000415,Tudor,https://venuesinkingston.co.uk/venue/tudor-hall/,E09000021,12/27/2020
Kingston upon Thames,Community centres,Shiraz Mirza Hall (Manor Park Hall),Manor Park Hall,316 Malden Road,Kingston Upon Thames,E09000021,Kingston upon Thames,51.387328444716736,-0.25113426679188683,521786.9670099673,166815.927608327,128041830,E05000411,St. James,http://www.shirazm.org.uk/new-malden/index.php,E09000021,12/27/2020
Kingston upon Thames,Community centres,Hook Centre,Hook Road,Kingston Upon Thames,NA,E09000021,Kingston upon Thames,51.36791922606943,-0.30603410474035586,518016.968033959,164567.92821594898,100023067317,E05000404,Chessington North and Hook,https://www.kingston.gov.uk/info/200203/hook_centre_and_music_studio/293/about_the_hook_centre,E09000021,12/27/2020
Kingston upon Thames,Community centres,Richard Mayo Hall,11 Eden Street,Kingston Upon Thames,NA,E09000021,Kingston upon Thames,51.40917843869968,-0.3048136307584995,517995.9680412058,169157.92696939805,128042699,E05000408,Grove,https://mayocentre.org.uk/,E09000021,12/27/2020
Kingston upon Thames,Community centres,Graham Spicer Institute,Dukes Avenue,Kingston Upon Thames,NA,E09000021,Kingston upon Thames,51.40296760717505,-0.2554120712470757,521447.9671030454,168547.92713796598,128006114,E05000402,Beverley,http://www.graham-spicer-institute.org.uk/images/e.png,E09000021,12/27/2020
Kingston upon Thames,Community centres,Canbury Pavillion,Lower Ham Road,Kingston Upon Thames,NA,E09000021,Kingston upon Thames,51.417036847807125,-0.3059896688446026,517893.96807173913,170029.92673259287,128029983,E05000415,Tudor,,E09000021,12/27/2020
Kingston upon Thames,Community centres,Milapp Day Centre,142 Acre Road,Kingston Upon Thames,NA,E09000021,Kingston upon Thames,51.41708258444122,-0.2948851691917902,518665.9678608915,170052.9267270097,128041918,E05000403,Canbury,http://www.milaapcentrekingston.org.uk/,E09000021,12/27/2020
Kingston upon Thames,Community centres,Hook Centre Community Hall,Hook Road,Kingston Upon Thames,NA,E09000021,Kingston upon Thames,51.36791922606943,-0.30603410474035586,518016.968033959,164567.92821594898,10091803267,E05000404,Chessington North and Hook,https://www.kingston.gov.uk/info/200203/hook_centre/434/hook_centre_community_hall_and_meeting_room/4,E09000021,12/27/2020
Kingston upon Thames,Community centres,Kingston Working Men's Club & Institute,25 Old London Road,Kingston Upon Thames,NA,E09000021,Kingston upon Thames,51.41123185702304,-0.29944580332704845,518363.96794142283,169394.92690477264,100023059084,E05000408,Grove,http://www.kingstonworkingmensclub.com/,E09000021,12/27/2020
Kingston upon Thames,Community centres,Surbiton Library Hall,Ewell Rd, Surbiton,NA,E09000021,Kingston upon Thames,51.3928009895525,-0.2978862055774505,518519.96790136385,167347.92746048368,128006816,E05000401,Berrylands,https://www.kingston.gov.uk/info/200208/libraries/301/branch_surbiton_library/4,E09000021,12/27/2020
Kingston upon Thames,Community centres,New Malden Library Hall,Kingston Rd, New Malden,NA,E09000021,Kingston upon Thames,51.39929772108322,-0.2607989871591059,521082.9672033523,168130.92725095566,128010803,E05000402,Beverley,https://www.kingston.gov.uk/info/200208/libraries/299/branch_new_malden_library/4,E09000021,12/27/2020
Kingston upon Thames,Community centres,The Guildhall,Kingston UNISON,107 Guildhall 1,Kingston upon Thames,E09000021,Kingston upon Thames,51.408366152438056,-0.30523188693497844,517968.96804839687,169066.92699423764,128008649,E05000408,Grove,,E09000021,12/27/2020
Kingston upon Thames,Community centres,The Fircroft Trust,The Fircroft Trust,Fircroft,96 Ditton Road,E09000021,Kingston upon Thames,51.38198217908222,-0.30404978809431654,518118.9680099574,166134.92779293942,100023066178,E05000413,Surbiton Hill,http://thefircrofttrust.org/,E09000021,12/27/2020
Kingston upon Thames,Dance performance venues,Rose Theatre,24-26 High Street,,,E09000021,Kingston upon Thames,51.40864310437742,-0.30759420135686405,517803.967971867,169093.92686509853,128029778,E05000408,Grove,http://www.rosetheatrekingston.org,E09000021,12/27/2020
Kingston upon Thames,Dance performance venues,St John's Church,Grove Ln,,,E09000021,Kingston upon Thames,51.403085419888846,-0.30075420721479335,518293.96783602575,168486.92702962784,128008048,E05000408,Grove,http://www.stjohnskingston.co.uk,E09000021,12/27/2020
Kingston upon Thames,Dance rehearsal studios,Ballet Boyz  - Studio 52,52a Canterbury Park Road,,,E09000021,Kingston upon Thames,51.4130041048849,-0.29825830109127044,518441.9677987959,169593.92672876938,128037963,E05000403,Canbury,http://www.balletboyz.com,E09000021,12/27/2020
Kingston upon Thames,Dance rehearsal studios,Kingston University,53-57 High Street,,,E09000021,Kingston upon Thames,51.40591237878476,-0.3078099094169635,517795.9679731136,168789.92694808764,128008662,E05000408,Grove,http://www.kingston.ac.uk,E09000021,12/27/2020
Kingston upon Thames,Jewellery design,Agora Consultancy Services Ltd,20 Market Place,Kingston Upon Thames,,E09000021,Kingston upon Thames,51.41010323249309,-0.3059585228818032,517913.96806409303,169258.92694211187,100023056324,E05000408,Grove,,E09000021,12/27/2020
Kingston upon Thames,Libraries,Hook and Chessington Library,Hook Road,Chessington,,E09000021,Kingston upon Thames,51.36791922606943,-0.30603410474035586,518016.968033959,164567.92821594898,10091803267,E05000404,Chessington North and Hook,,E09000021,12/27/2020
Kingston upon Thames,Libraries,Tolworth Community Library,Tolworth Broadway,Tolworth,,E09000021,Kingston upon Thames,51.381080147010934,-0.28225447907246093,519637.96759513987,166069.92780973046,128002519,E05000400,Alexandra,,E09000021,12/27/2020
Kingston upon Thames,Libraries,Old Malden Library,Church Road,Worcester Park,,E09000021,Kingston upon Thames,51.38376017554562,-0.25487741657742435,521535.9670773079,166412.92771742097,128004320,E05000410,Old Malden,,E09000021,12/27/2020
Kingston upon Thames,Libraries,Surbiton Library,Ewell Road,Surbiton,,E09000021,Kingston upon Thames,51.3928009895525,-0.2978862055774505,518519.96790136385,167347.92746048368,128006816,E05000401,Berrylands,,E09000021,12/27/2020
Kingston upon Thames,Libraries,New Malden Library,Kingston Road,New Malden,,E09000021,Kingston upon Thames,51.39929772108322,-0.2607989871591059,521082.9672033523,168130.92725095566,128010803,E05000402,Beverley,,E09000021,12/27/2020
Kingston upon Thames,Libraries,Kingston Library,Fairfield Road,Kingston Upon Th,,E09000021,Kingston upon Thames,51.409346114534436,-0.3002491798682071,518312.9679544729,169183.92696208414,128019808,E05000408,Grove,,E09000021,12/27/2020
Kingston upon Thames,Libraries,Tudor Drive Library,Tudor Drive,Kingston Upon Th,,E09000021,Kingston upon Thames,51.42631988537038,-0.2975043129604656,518459.96791682,171075.92644799832,128039997,E05000415,Tudor,,E09000021,12/27/2020
Kingston upon Thames,Museums and public galleries,Dorich House Museum,Kingston University,67 Kingston Vale,NA,E09000021,Kingston upon Thames,51.433341459273834,-0.2630882903421483,520833.96727172297,171912.92622145644,128010892,E05000406,Coombe Hill,https://www.dorichhousemuseum.org.uk/,E09000021,12/27/2020
Kingston upon Thames,Museums and public galleries,Kingston Museum (and Heritage Service),W6 9TA,NA,NA,E09000021,Kingston upon Thames,51.40955345453804,-0.30028462305532405,518309.96795536275,169206.9269558115,128019799,E05000408,Grove,http://www.kingston.gov.uk/museum,E09000021,12/27/2020
Kingston upon Thames,Music (office based businesses),Graham Music Publishers Ltd,52 Brighton Road,Kingston Upon Thames,,E09000021,Kingston Upon Thames,51.39193614395244,-0.31020781709577,517664.96813271,167231.92749291263,10091802918,E05000412,St. Mark's,,E09000021,12/27/2020
Kingston upon Thames,Music (office based businesses),Lonesome Dog Studios,Unit 227 Kingspark Business Centre 152-,Kingston Road,Kingston Upon Thames,E09000021,Kingston Upon Thames,51.401509866937396,-0.27112408769113905,520358.9674001941,168359.9271883131,128031418,E05000402,Beverley,,E09000021,12/27/2020
Kingston upon Thames,Music (office based businesses),Pattern Records Ltd,21 Grantchester,St. Peters Road,Kingston Upon Thames,E09000021,Kingston Upon Thames,51.40940090215737,-0.28857098477713977,519124.96773580497,169208.9269569416,100000000000,E05000409,Norbiton,,E09000021,12/27/2020
Kingston upon Thames,Music (office based businesses),Tigersun Records Ltd,53 Latchmere Lane,Kingston Upon Thames,,E09000021,Kingston Upon Thames,51.424175214807036,-0.29595868002769443,518572.9678861738,170839.92651163542,100000000000,E05000415,Tudor,,E09000021,12/27/2020
Kingston upon Thames,Music venues (all),The Duke,Kingston Upon Thames ,,,E09000021,Kingston Upon Thames,51.3919574553442,-0.30669984657880284,517908.9680671538,167239.92749027984,128019405,E05000412,St. Mark's,www.thedukeofyork.com,E09000021,12/27/2020
Kingston upon Thames,Music venues (all),Lamb Inn,73 Brighton Road,Kingston Upon Thames,,E09000021,Kingston Upon Thames,51.39204300227717,-0.311382532492165,517582.9681547529,167241.92749033892,128002149,E05000412,St. Mark's,www.lambsurbiton.co.uk,E09000021,12/27/2020
Kingston upon Thames,Music venues (all),Black Lion,58 Brighton Road,Kingston Upon Thames,,E09000021,Kingston Upon Thames,51.39206549624857,-0.31044741195391024,517647.96813728963,167245.9274891236,100000000000,E05000412,St. Mark's,www.theblacklionsurbiton.co.uk,E09000021,12/27/2020
Kingston upon Thames,Music venues (all),Woodies,Thetford Road Kingston Upon Thames,,,E09000021,Kingston Upon Thames,51.39220078157767,-0.26736375908912946,520644.9673227316,167330.9274676288,128018554,E05000411,St. James,www.woodiesfreehouse.co.uk,E09000021,12/27/2020
Kingston upon Thames,Music venues (all),The Brave New World,22-26 Berrylands Road,Kingston Upon Thames,,E09000021,Kingston Upon Thames,51.393030315243585,-0.2957215772766457,518669.9678602732,167376.92745217925,128001583,E05000401,Berrylands,www.bravebar.co.uk,E09000021,12/27/2020
Kingston upon Thames,Music venues (all),The Fighting Cocks,56 Old London Road,Kingston Upon Thames,,E09000021,Kingston Upon Thames,51.410673610519005,-0.29815796265759875,518454.96791663894,169334.9269209631,100000000000,E05000408,Grove,www.the-fighting-cocks.co.uk,E09000021,12/27/2020
Kingston upon Thames,Music venues (all),Grey Horse,46 Richmond Road,Kingston Upon Thames,,E09000021,Kingston Upon Thames,51.41433023887731,-0.3004093128104188,518288.9679629407,169737.92681072344,100000000000,E05000403,Canbury,www.grey-horse.co.uk,E09000021,12/27/2020
Kingston upon Thames,Music venues (all),British Oak,98 Richmond Road,Kingston Upon Thames,,E09000021,Kingston Upon Thames,51.41630915044094,-0.3010693192924105,518237.96797764685,169956.9267508632,100000000000,E05000403,Canbury,www.theoakpubkingston.co.uk,E09000021,12/27/2020
Kingston upon Thames,Music venues (all),Queens Head,144 Richmond Road,Kingston Upon Thames,,E09000021,Kingston Upon Thames,51.41862437262079,-0.30135734440188333,518211.9679851902,170213.92668110505,100000000000,E05000415,Tudor,www.queensheadkingston.co.uk,E09000021,12/27/2020
Kingston upon Thames,Music venues (grassroots),The Fighting Cocks,56 Old London Road,Kingston Upon Thames,,E09000021,Kingston Upon Thames,51.410673610519005,-0.29815796265759875,518454.96791663894,169334.9269209631,100000000000,E05000408,Grove,www.the-fighting-cocks.co.uk,E09000021,12/27/2020
Kingston upon Thames,Pubs,Duke,64-65 Victoria Road,Surbiton,,E09000021,Kingston upon Thames,51.39186336153873,-0.3070339108595462,517885.9680733271,167228.92749373807,,E05000412,St. Mark's,,E09000021,12/27/2020
Kingston upon Thames,Pubs,Oak,"98, Richmond Road",Kingston,,E09000021,Kingston upon Thames,51.4161356767008,-0.30088879553728504,518250.96797402453,169937.92675649608,,E05000403,Canbury,,E09000021,12/27/2020
Kingston upon Thames,Pubs,Bishop,"2, Bishops Hall, Thames Street",Kingston,,E09000021,Kingston upon Thames,51.410312472900486,-0.3079926838949024,517771.9681032318,169278.92693701567,,E05000408,Grove,,E09000021,12/27/2020
Kingston upon Thames,Pubs,Queens Head,"144, Richmond Road",Kingston,,E09000021,Kingston upon Thames,51.418804540455604,-0.3013794242708938,518209.9679857467,170233.92667609756,,E05000415,Tudor,,E09000021,12/27/2020
Kingston upon Thames,Pubs,O`Neill's,"3, Eden Street",Kingston,,E09000021,Kingston upon Thames,51.40910794350812,-0.3055351985222271,517945.96805496496,169148.92697194696,,E05000408,Grove,,E09000021,12/27/2020
Kingston upon Thames,Pubs,Woody`s,"5 Ram Passage, High Street",Kingston,,E09000021,Kingston upon Thames,51.40785146508993,-0.3081985402379094,517763.96810470975,169004.92701157148,,E05000408,Grove,,E09000021,12/27/2020
Kingston upon Thames,Pubs,Ram,"34, High Street",Kingston,,E09000021,Kingston upon Thames,51.40830992266451,-0.3075633481913263,517806.9680930234,169056.92699729,,E05000408,Grove,,E09000021,12/27/2020
Kingston upon Thames,Pubs,Henry's,"Unit 6 Charter Quay, 22â28 High Street",Kingston,,E09000021,Kingston upon Thames,51.40830992266451,-0.3075633481913263,517806.9680930234,169056.92699729,,E05000408,Grove,,E09000021,12/27/2020
Kingston upon Thames,Pubs,Mill,"58-62, High Street",Kingston,,E09000021,Kingston upon Thames,51.4072473938802,-0.3080913981045701,517772.9681020141,168937.92702984193,,E05000408,Grove,,E09000021,12/27/2020
Kingston upon Thames,Pubs,Stein's,"56 High Street,",Kingston,,E09000021,Kingston upon Thames,51.4072473938802,-0.3080913981045701,517772.9681020141,168937.92702984193,,E05000408,Grove,,E09000021,12/27/2020
Kingston upon Thames,Pubs,Browns,"3, Jerome Place, Charter Quay",Kingston,,E09000021,Kingston upon Thames,51.409249854825816,-0.30788814083956056,517781.96810020646,169160.92696901958,,E05000408,Grove,,E09000021,12/27/2020
Kingston upon Thames,Pubs,7000 Jars of Beer,1 Crown Passage/ Unit H Crown Arcade,Kingston,,E09000021,Kingston upon Thames,51.40961878344506,-0.30541564528714205,517952.9680532005,169205.92695643334,,E05000408,Grove,,E09000021,12/27/2020
Kingston upon Thames,Pubs,Druids Head,2-3 Market Place,Kingston,,E09000021,Kingston upon Thames,51.40915235745145,-0.3067414073233768,517861.9680781315,169151.92697130085,,E05000408,Grove,,E09000021,12/27/2020
Kingston upon Thames,Pubs,Wheelwrights Arms,"60, Clarence Street",Kingston,,E09000021,Kingston upon Thames,51.410518827309794,-0.301744294360616,518205.96798389306,169311.92692698736,,E05000408,Grove,,E09000021,12/27/2020
Kingston upon Thames,Pubs,Cornerstone,"The Rotunda Centre, Clarence Street",Kingston,,E09000021,Kingston upon Thames,51.41170694687227,-0.2993418794085,518369.96793997067,169447.92689036264,,E05000408,Grove,,E09000021,12/27/2020
Kingston upon Thames,Pubs,Gazebo,Thames Walk,Kingston,,E09000021,Kingston upon Thames,51.41067743806704,-0.3077347480289204,517788.96809864877,169319.926925843,,E05000408,Grove,,E09000021,12/27/2020
Kingston upon Thames,Pubs,Kings Tun,153-157 Clarence Street,Kingston,,E09000021,Kingston upon Thames,51.41138710746132,-0.30084928963426383,518265.9679679883,169409.92690039205,,E05000408,Grove,,E09000021,12/27/2020
Kingston upon Thames,Pubs,Albion,45 Fairfield Road,Kingston,,E09000021,Kingston upon Thames,51.40924730964928,-0.2977795808947405,518484.9679081044,169176.9269644227,,E05000408,Grove,,E09000021,12/27/2020
Kingston upon Thames,Pubs,Cocoanut,"16, Mill Street",Kingston,,E09000021,Kingston upon Thames,51.40635275378982,-0.29847648009909367,518443.96791856806,168853.92705222114,,E05000408,Grove,,E09000021,12/27/2020
Kingston upon Thames,Pubs,Spring Grove,"13, Bloomfield Road",Kingston,,E09000021,Kingston upon Thames,51.4032462102092,-0.29943990143051386,518384.967933795,168506.92714650987,,E05000408,Grove,,E09000021,12/27/2020
Kingston upon Thames,Pubs,Antoinette Hotel,Beaufort Road,Kingston,,E09000021,Kingston upon Thames,51.40166235957546,-0.3012238085469959,518264.9679655612,168327.9271949237,,E05000408,Grove,,E09000021,12/27/2020
Kingston upon Thames,Pubs,Cricketers,"20, Fairfield South",Kingston,,E09000021,Kingston upon Thames,51.407675271445434,-0.2966588417238209,518566.9678857378,169003.9270116968,,E05000408,Grove,,E09000021,12/27/2020
Kingston upon Thames,Pubs,Duke of Buckingham,"104, Villiers Road",Kingston,,E09000021,Kingston upon Thames,51.402504441881796,-0.29480914542309145,518708.9678469488,168431.92716773145,,E05000408,Grove,,E09000021,12/27/2020
Kingston upon Thames,Pubs,Bricklayers Arms,"53, Hawks Road",Kingston,,E09000021,Kingston upon Thames,51.408725357600645,-0.29280935497999344,518831.9678145779,169126.9269788586,,E05000409,Norbiton,,E09000021,12/27/2020
Kingston upon Thames,Pubs,Willow,"16, The Triangle",Kingston,,E09000021,Kingston upon Thames,51.408767656114975,-0.27421531857798637,520124.96746214584,169161.92697070242,,E05000407,Coombe Vale,,E09000021,12/27/2020
Kingston upon Thames,Pubs,Star,Leatherhead Road,Leatherhead Common,,E09000021,Kingston upon Thames,51.32715751096081,-0.3274013978987725,516632.9684110599,160000.92946044853,,E05000405,Chessington South,,E09000021,12/27/2020
Kingston upon Thames,Pubs,Boaters Inn,"Canbury Gardens, Lower Ham Rd",Kingston,,E09000021,Kingston upon Thames,51.41894662824948,-0.3056025969542347,517915.9680658294,170242.92667481466,,E05000415,Tudor,,E09000021,12/27/2020
Kingston upon Thames,Pubs,Hawker Centre,Lower Ham Road,Kingston,,E09000021,Kingston upon Thames,51.42692075905933,-0.30919138873487717,517645.96813843434,171123.92643649655,,E05000415,Tudor,,E09000021,12/27/2020
Kingston upon Thames,Pubs,Whelans,"20, Richmond Road",Kingston,,E09000021,Kingston upon Thames,51.412592091351776,-0.30022935791200495,518305.9679576404,169544.92686374608,,E05000408,Grove,,E09000021,12/27/2020
Kingston upon Thames,Pubs,Grey Horse,"46, Richmond Road",Kingston,,E09000021,Kingston upon Thames,51.414205038314925,-0.30045710297773554,518285.96796370717,169723.92681492795,,E05000403,Canbury,,E09000021,12/27/2020
Kingston upon Thames,Pubs,Cardinal,"174, Tudor Drive",Kingston,,E09000021,Kingston upon Thames,51.42696528854956,-0.29922089130194407,518338.96794971067,171144.9264294157,,E05000415,Tudor,,E09000021,12/27/2020
Kingston upon Thames,Pubs,Park Tavern,19 New Road,Kingston,,E09000021,Kingston upon Thames,51.419505774522165,-0.28777617046354537,519153.9677270778,170333.92665159586,,E05000403,Canbury,,E09000021,12/27/2020
Kingston upon Thames,Pubs,Pottery,"20, Park Road",Kingston,,E09000021,Kingston upon Thames,51.41626590686643,-0.28821373400591316,519131.96773346956,169972.92675069108,,E05000403,Canbury,,E09000021,12/27/2020
Kingston upon Thames,Pubs,Wych Elm,93 Elm Road,Kingston,,E09000021,Kingston upon Thames,51.41682591187795,-0.29454956428702406,518689.96785428154,170024.9267347164,,E05000403,Canbury,,E09000021,12/27/2020
Kingston upon Thames,Pubs,Willoughby Arms,47 Willoughby Road,Kingston,,E09000021,Kingston upon Thames,51.415522444587765,-0.29211012942458525,518862.9678068731,169883.92677368678,,E05000403,Canbury,,E09000021,12/27/2020
Kingston upon Thames,Pubs,Norbiton,"16, Clifton Road",Kingston,,E09000021,Kingston upon Thames,51.41390638649155,-0.28858955589952856,519111.96773904137,169709.92682175722,,E05000403,Canbury,,E09000021,12/27/2020
Kingston upon Thames,Pubs,Fighting Cocks,"56, Old London Road",Kingston,,E09000021,Kingston upon Thames,51.410679048566955,-0.2979133022539651,518471.9679120482,169335.92692114285,,E05000408,Grove,,E09000021,12/27/2020
Kingston upon Thames,Pubs,Black Horse,204 London Road,Kingston,,E09000021,Kingston upon Thames,51.413544696219546,-0.28722251563341344,519207.96771297784,169671.92683237657,,E05000403,Canbury,,E09000021,12/27/2020
Kingston upon Thames,Pubs,Kingston Lodge Hotel,"94, Kingston Hill",Kingston,,E09000021,Kingston upon Thames,51.41843489010424,-0.2791292919297358,519757.96756152913,170228.92668058176,,E05000406,Coombe Hill,,E09000021,12/27/2020
Kingston upon Thames,Pubs,Albert,"57, Kingston Hill",Kingston,,E09000021,Kingston upon Thames,51.41706864808522,-0.28284803561140986,519502.9676317626,170070.92672477197,,E05000406,Coombe Hill,,E09000021,12/27/2020
Kingston upon Thames,Pubs,Han,1 High Street,New Malden,,E09000021,Kingston upon Thames,51.403119311214994,-0.2571459851760459,521326.9671359076,168561.92713411758,,E05000402,Beverley,,E09000021,12/27/2020
Kingston upon Thames,Pubs,Watchman,184 High Street,New Malden,,E09000021,Kingston upon Thames,51.39910656019209,-0.25519949145038023,521472.9670973095,168118.92725431197,,E05000402,Beverley,,E09000021,12/27/2020
Kingston upon Thames,Pubs,Bar Malden,1-3 St George's Square,New Malden,,E09000021,Kingston upon Thames,51.403565067178285,-0.2562807644938948,521385.9671196774,168612.92712032428,,E05000402,Beverley,,E09000021,12/27/2020
Kingston upon Thames,Pubs,Glasshouse,14 Coombe Road,New Malden,,E09000021,Kingston upon Thames,51.4054229202562,-0.25784925962733585,521271.9671499698,168816.92706496798,,E05000407,Coombe Vale,,E09000021,12/27/2020
Kingston upon Thames,Pubs,Woodies,Thetford Road,New Malden,,E09000021,Kingston upon Thames,51.39323104849274,-0.2683166984839916,520575.9673413542,167443.92743731535,,E05000411,St. James,,E09000021,12/27/2020
Kingston upon Thames,Pubs,Plough,Church Road,Worcester Park,,E09000021,Kingston upon Thames,51.38487678579137,-0.2537714636722098,521609.9670573392,166538.92768335465,,E05000410,Old Malden,,E09000021,12/27/2020
Kingston upon Thames,Pubs,Berrylands,"108, Chiltern Drive",Surbiton,,E09000021,Kingston upon Thames,51.398426076618975,-0.2803402749854388,519725.96757294255,168001.92728546314,,E05000401,Berrylands,,E09000021,12/27/2020
Kingston upon Thames,Pubs,Castle,"108, King Charles Road",Surbiton,,E09000021,Kingston upon Thames,51.38957351630587,-0.2930040153404165,518867.9678065064,166996.92755641905,,E05000401,Berrylands,,E09000021,12/27/2020
Kingston upon Thames,Pubs,Brave New World,"22-26, Berrylands Road",Surbiton,,E09000021,Kingston upon Thames,51.3930813140875,-0.29613653654378824,518640.9678681685,167381.92745124613,,E05000401,Berrylands,,E09000021,12/27/2020
Kingston upon Thames,Pubs,Gordon Bennett,"75, Maple Road",Surbiton,,E09000021,Kingston upon Thames,51.394626484565265,-0.30844139511613483,517780.9681003588,167533.92741137266,,E05000412,St. Mark's,,E09000021,12/27/2020
Kingston upon Thames,Pubs,Antelope,87 Maple Road,Surbiton,,E09000021,Kingston upon Thames,51.39524506698586,-0.30768549950885127,517831.968086264,167603.92739231803,,E05000412,St. Mark's,,E09000021,12/27/2020
Kingston upon Thames,Pubs,Grove,"9, Grove Road",Surbiton,,E09000021,Kingston upon Thames,51.39692250432847,-0.3073936851772435,517847.968081037,167790.92734170292,,E05000408,Grove,,E09000021,12/27/2020
Kingston upon Thames,Pubs,Harts Boatyard,Portsmouth Road,Surbiton,,E09000021,Kingston upon Thames,51.39696537547629,-0.3122365990764439,517510.96817242843,167787.92734347912,,E05000408,Grove,,E09000021,12/27/2020
Kingston upon Thames,Pubs,Fox & Hounds,"60, Portsmouth Road",Surbiton,,E09000021,Kingston upon Thames,51.395825431448735,-0.31176098480267445,517546.9681630926,167661.92737739254,,E05000412,St. Mark's,,E09000021,12/27/2020
Kingston upon Thames,Pubs,Victoria,"28, Victoria Road",Surbiton,,E09000021,Kingston upon Thames,51.39208384433969,-0.3073563791964269,517862.9680795228,167252.92748720577,,E05000412,St. Mark's,,E09000021,12/27/2020
Kingston upon Thames,Pubs,Coronation Hall,St Marks Hill,Surbiton,,E09000021,Kingston upon Thames,51.3936673143484,-0.30367570795231846,518114.9680108244,167434.92743736965,,E05000412,St. Mark's,,E09000021,12/27/2020
Kingston upon Thames,Pubs,Bosco Lounge,9 St Marks Hill,Surbiton,,E09000021,Kingston upon Thames,51.3936673143484,-0.30367570795231846,518114.9680108244,167434.92743736965,,E05000412,St. Mark's,,E09000021,12/27/2020
Kingston upon Thames,Pubs,Surbiton Flyer,84 Victoria Road,Surbiton,,E09000021,Kingston upon Thames,51.39259031885428,-0.30506663440812676,518020.96803682577,167312.92747060797,,E05000412,St. Mark's,,E09000021,12/27/2020
Kingston upon Thames,Pubs,Blue Orchid,12 Claremont Road,Surbiton,,E09000021,Kingston upon Thames,51.39367334408801,-0.30409233955355963,518085.96801863617,167434.92743743636,,E05000412,St. Mark's,,E09000021,12/27/2020
Kingston upon Thames,Pubs,Waggon & Horses,"1, Surbiton Hill Road",Surbiton,,E09000021,Kingston upon Thames,51.39897827894516,-0.30155313257163696,518248.9679707183,168028.92727604858,,E05000412,St. Mark's,,E09000021,12/27/2020
Kingston upon Thames,Pubs,Maypole,"2, Hook Road",Surbiton,,E09000021,Kingston upon Thames,51.3805931836171,-0.301902485323363,518271.9679685857,165983.92783370853,,E05000413,Surbiton Hill,,E09000021,12/27/2020
Kingston upon Thames,Pubs,Wags N Tales,"7-9, Brighton Road",Surbiton,,E09000021,Kingston upon Thames,51.39093884569817,-0.30902277029732683,517749.96810979286,167122.92752294953,,E05000412,St. Mark's,,E09000021,12/27/2020
Kingston upon Thames,Pubs,Lamb,73 Brighton Road,Surbiton,,E09000021,Kingston upon Thames,51.392214098521215,-0.31202306359135185,517537.9681668457,167259.92748593318,,E05000412,St. Mark's,,E09000021,12/27/2020
Kingston upon Thames,Pubs,Black Lion,"58, Brighton Road",Surbiton,,E09000021,Kingston upon Thames,51.39192044637154,-0.3103665053014808,517653.9681356639,167229.92749388074,,E05000412,St. Mark's,,E09000021,12/27/2020
Kingston upon Thames,Pubs,Prince of Wales,117 Ewell Road,Surbiton,,E09000021,Kingston upon Thames,51.38948718616307,-0.2975778600121639,518549.9678934782,166979.92756146606,,E05000401,Berrylands,,E09000021,12/27/2020
Kingston upon Thames,Pubs,Royal Oak,261 Ewell Road,Surbiton,,E09000021,Kingston upon Thames,51.385359480594815,-0.2951008620734985,518732.9678434747,166524.92768645345,,E05000401,Berrylands,,E09000021,12/27/2020
Kingston upon Thames,Pubs,Broadway Bar Cafe,"43-51 Tolworth Broadway, Tolworth",Surbiton,,E09000021,Kingston upon Thames,51.38057009049925,-0.28181370562237307,519669.96758618724,166013.9278250276,,E05000400,Alexandra,,E09000021,12/27/2020
Kingston upon Thames,Pubs,North Star,"271 Hook Road, Hook",Chessington,,E09000021,Kingston upon Thames,51.37185124413398,-0.3049409510169807,518082.96801739396,165006.92809697712,,E05000404,Chessington North and Hook,,E09000021,12/27/2020
Kingston upon Thames,Pubs,Chessington Oak,"116, Moor Lane",Chessington,,E09000021,Kingston upon Thames,51.36425106279427,-0.29740682561230314,518626.96787003113,164173.9283234793,,E05000404,Chessington North and Hook,,E09000021,12/27/2020
Kingston upon Thames,Pubs,Cricketers,"81, Clayton Road, Hook",Chessington,,E09000021,Kingston upon Thames,51.36773594860136,-0.31078147105174797,517686.9681235761,164539.92822381243,,E05000404,Chessington North and Hook,,E09000021,12/27/2020
Kingston upon Thames,Pubs,Lucky Rover,"312, Hook Road, Hook",Chessington,,E09000021,Kingston upon Thames,51.36794882052516,-0.30683748556210866,517960.968049183,164569.9282154527,,E05000404,Chessington North and Hook,,E09000021,12/27/2020
Kingston upon Thames,Pubs,William Bourne,"273, Moor Lane",Chessington,,E09000021,Kingston upon Thames,51.362534123721204,-0.2894262498234303,519186.9677197825,163995.92837293434,,E05000405,Chessington South,,E09000021,12/27/2020
Kingston upon Thames,Pubs,Monkey Puzzle,Leatherhead Road,Chessington,,E09000021,Kingston upon Thames,51.348602956633755,-0.3147590890189326,517458.96818708314,162405.92880627298,,E05000405,Chessington South,,E09000021,12/27/2020
Kingston upon Thames,Pubs,Shy Horse,423 Leatherhead Road,Malden Rushett,,E09000021,Kingston upon Thames,51.33866826780096,-0.31927270200057367,517169.96826453035,161293.92910832085,,E05000405,Chessington South,,E09000021,12/27/2020
Kingston upon Thames,Set and exhibition building,Parallel Notion Limited,5 Chestnut Road,,,E09000021,Kingston upon Thames,51.41817975913427,-0.3023230675587725,518145.9680031651,170162.92669546598,100000000000,E05000415,Tudor,http://www.parallelnotion.co.uk,E09000021,12/27/2020
Kingston upon Thames,Skate Parks,Tolworth,,,,E09000021,Kingston upon Thames,51.371778533492645,-0.28396846877505616,519542.879790716,165032.79149490298,0,E05000414,Tolworth and Hook Rise,,E09000021,12/27/2020
Kingston upon Thames,Theatres,"Assembly Rooms, Surbiton",138 Maple Road, Surbiton,NA,E09000021,Kingston upon Thames,51.396239372785324,-0.3084259634104032,517777.90937828174,167713.3055407884,128012933,E05000408,Grove,NA,E09000021,12/27/2020
Kingston upon Thames,Theatres,the cornerHOUSE Community Arts Centre,116 Douglas Rd, Surbiton,NA,E09000021,Kingston upon Thames,51.3814061155264,-0.29561325729915205,518707.5248274937,166084.48148434644,100023000000,E05000413,Surbiton Hill,http://www.thech.org/,E09000021,12/27/2020
