BOROUGH,Cultural Venue Type,site_name,address1,address2,address3,borough_code,borough_name,latitude,longitude,easting,northing,os_addressbase_uprn,ward_2018_code,ward_2018_name,website,gss_code,runtime
Lambeth,Archives,The Wyndham Ashworth Archive,2 Salamanca Place ,Albert Embankment,,E09000022,Lambeth,51.49154783169798,-0.12055552226890828,530574.9644984191,178629.92427195504,10008789585,E05000427,Prince's,http://www.wyndhamashworth.org/,E09000022,12/27/2020
Lambeth,Archives,Prospect,Prospect House ,75-79 York Street,,E09000022,Lambeth,51.50217833214983,-0.11632906851380032,530837.9244263013,179819.58395197772,10023851808,E05000416,Bishop's,https://www.prospect.org.uk/,E09000022,12/27/2020
Lambeth,Archives,"Cinema Museum, Ronald Grant Archive",The Master's House ,The Old Lambeth Workhouse ,2 Dugard Way Off Renfrew Road,E09000022,Lambeth,51.49228045223704,-0.1051689132149127,531640.9642086462,178738.92424213805,10023852579,E05000427,Prince's,http://www.ronaldgrantarchive.com/,E09000022,12/27/2020
Lambeth,Archives,Topolski Century,150-152 Hungerford Bridge, Concert Hall Approach ,Waterloo,E09000022,Lambeth,51.50484917658799,-0.11576900213455753,530869.1444174072,180117.58386958286,10091117071,E05000416,Bishop's,http://www.topolskicentury.org.uk/,E09000022,12/27/2020
Lambeth,Archives,Black Cultural Archives,1 Windrush Square ,Brixton,,E09000022,Lambeth,51.46051637848736,-0.11457231558598271,531079.1243602448,175189.87520920509,10091118537,E05000420,Coldharbour,https://blackculturalarchives.org/,E09000022,12/27/2020
Lambeth,Archives,Lambeth Archives,Minet Library ,52 Knatchbull Road,,E09000022,Lambeth,51.47129501124588,-0.10539023539149628,531685.9641963433,176404.92487947224,100022000000,E05000436,Vassall,https://www.lambeth.gov.uk/places/lambeth-archives,E09000022,12/27/2020
Lambeth,Archives,European Movement,Southbank House, Black Prince Road,,E09000022,Lambeth,51.49222021263968,-0.1198652096701199,530620.9644861078,178705.9242509636,100023000000,E05000427,Prince's,http://www.europeanmovement.co.uk/,E09000022,12/27/2020
Lambeth,Archives,International Fund for Animal Welfare Charitable Trust,87-90 Albert Embankment,,,E09000022,Lambeth,51.48796534325724,-0.12371333545372953,530365.9645548416,178225.9243831623,100023000000,E05000427,Prince's,https://www.ifaw.org/united-kingdom/frontpage,E09000022,12/27/2020
Lambeth,Archives,Ramblers Association,2nd Floor Camelford House ,87-90 Albert Embankment,,E09000022,Lambeth,51.48796534325724,-0.12371333545372953,530365.9645548416,178225.9243831623,100023000000,E05000427,Prince's,https://www.ramblers.org.uk/,E09000022,12/27/2020
Lambeth,Archives,King's College London: St Thomas' House Library,St Thomas' Hospital ,Lambeth Palace Road,,E09000022,Lambeth,51.499489579934334,-0.11838448317934318,530702.9644633527,179516.9240347147,100023000000,E05000416,Bishop's,https://www.kcl.ac.uk/library/visiting/stthomas.aspx,E09000022,12/27/2020
Lambeth,Archives,Marine Society,202 Lambeth Road,,,E09000022,Lambeth,51.49554588840226,-0.11640035737263116,530851.9644231814,179081.92415055982,100023000000,E05000416,Bishop's,https://www.marine-society.org/,E09000022,12/27/2020
Lambeth,Archives,Sea Cadet Association,202 Lambeth Road,,,E09000022,Lambeth,51.49554588840226,-0.11640035737263116,530851.9644231814,179081.92415055982,100023000000,E05000416,Bishop's,https://www.sea-cadets.org/,E09000022,12/27/2020
Lambeth,Archives,Garden Museum Archives,Garden Museum ,5 Lambeth Palace Road,,E09000022,Lambeth,51.49504922675156,-0.12019535992693732,530589.9644942671,179019.92416723835,100023000000,E05000416,Bishop's,https://gardenmuseum.org.uk/archive/,E09000022,12/27/2020
Lambeth,Archives,Rambert Dance Company Archives,99 Upper Ground,,,E09000022,Lambeth,51.5061740428866,-0.11352326943298152,531021.1943757858,180268.9238279881,100023000000,E05000416,Bishop's,http://www.rambert.org.uk/explore/rambert-archive/,E09000022,12/27/2020
Lambeth,Archives,Countryside Alliance,The Old Town ,367 Kennington Road,,E09000022,Lambeth,51.486819080378886,-0.11112809627267999,531242.9643173442,178120.92441161652,100023000000,E05000427,Prince's,http://www.countryside-alliance.org/,E09000022,12/27/2020
Lambeth,Archives,D'Oyly Carte Opera Company,N302 North Block Vox Studios,,,E09000022,Lambeth,51.48847861282862,-0.11087225991589794,531255.9643137476,178305.9243607886,100023000000,E05000427,Prince's,http://www.doylycarte.org.uk/,E09000022,12/27/2020
Lambeth,Archives,Sir Arthur Sullivan Society,9 Killieser Avenue,,,E09000022,Lambeth,51.44132765097172,-0.12812830357582133,530191.9646029212,173031.9257957643,100023000000,E05000430,Streatham Hill,http://www.sullivansociety.org.uk/,E09000022,12/27/2020
Lambeth,Archives,Society for Cooperation in Russian and Soviet Studies,320 Brixton Road,,,E09000022,Lambeth,51.469284904018586,-0.11290302876996165,531169.9643363632,176167.92494303186,100023000000,E05000421,Ferndale,http://www.scrss.org.uk/,E09000022,12/27/2020
Lambeth,Archives,World Development Movement,25 Beehive Place,,,E09000022,Lambeth,51.46394243027067,-0.11397275385476398,531110.9643522602,175571.9251050534,100023000000,E05000420,Coldharbour,https://www.globaljustice.org.uk/,E09000022,12/27/2020
Lambeth,Archives,Catholic Truth Society,40-46 Harleyford Road,,,E09000022,Lambeth,51.485315836586985,-0.12055249297556045,530592.964492556,177936.9244633175,100024000000,E05000426,Oval,http://www.ctsbooks.org/,E09000022,12/27/2020
Lambeth,Archives,Type Museum,100 Hackford Road,,,E09000022,Lambeth,51.47344230717261,-0.11587070216389726,530951.9643945205,176624.92481876456,100024000000,E05000436,Vassall,http://www.typearchive.org/,E09000022,12/27/2020
Lambeth,Archives,Socialist Party of Great Britain,52 Clapham High Street,,,E09000022,Lambeth,51.46389204373956,-0.1327336834472956,529807.9647073292,175532.92511472234,200000000000,E05000419,Clapham Town,https://www.worldsocialism.org/spgb/,E09000022,12/27/2020
Lambeth,Archives,Musicians Union,National Office ,60/62 Clapham Road,,E09000022,Lambeth,51.47964474340337,-0.11515442761616188,530983.9643859898,177315.92463182274,200000000000,E05000426,Oval,https://www.musiciansunion.org.uk/,E09000022,12/27/2020
Lambeth,Archives,United Medical and Dental Schools: St Thomas's Hospital,The Library Block 9 St Thomas's Hospital ,Lambeth Palace Road,,E09000022,Lambeth,51.496992224379134,-0.12023064399827306,530581.9644962868,179235.92410962377,200000000000,E05000416,Bishop's,http://www.kingscollections.org/catalogues/kclca/collection/u/10un50-1/,E09000022,12/27/2020
Lambeth,Archives,"British Film Institute, Special Collections",BFI Southbank ,Belvedere Road,,E09000022,Lambeth,51.50694620257215,-0.11593736629366731,530851.4544219159,180350.4738051867,200000000000,E05000416,Bishop's,https://www.bfi.org.uk/archive-collections/introduction-bfi-collections/exploring-collections/special-collections,E09000022,12/27/2020
Lambeth,Archives,Hayward Gallery Library and Archives,Belvedere Road,,,E09000022,Lambeth,51.50613298936228,-0.11544481722201892,530887.9644120898,180260.92382999504,200000000000,E05000416,Bishop's,https://www.southbankcentre.co.uk/about/what-we-do/archives-collections/hayward-gallery-archive,E09000022,12/27/2020
Lambeth,Archives,Southbank Centre Archive,Royal Festival Hall South Bank Centre ,Belvedere Road,,E09000022,Lambeth,51.5057680666473,-0.11680000551389069,530794.9644374794,180217.92384175293,200000000000,E05000416,Bishop's,https://www.southbankcentre.co.uk/venues/archive-studio,E09000022,12/27/2020
Lambeth,Archives,National Theatre Archive,NT Studio 83-101, The Cut,,E09000022,Lambeth,51.502339941599985,-0.10885802977387268,531355.9642852539,179850.92394309363,200000000000,E05000416,Bishop's,https://www.nationaltheatre.org.uk/about-the-national-theatre/archive,E09000022,12/27/2020
Lambeth,Artists workspaces,Stockwell Road,3rd Floor,246 Stockwell Road,,E09000022,Lambeth,51.46469069280385,-0.1146473546903638,531061.9643656553,175653.92508277332,10091846274,E05000421,Ferndale,www.ascstudios.co.uk,E09000022,12/27/2020
Lambeth,Artists workspaces,,241 Coldharbour Lane,,,E09000022,Lambeth,51.46498994472037,-0.10254158812044459,531901.9641380649,175708.9250669048,200000459971,E05000420,Coldharbour,http://www.warriorstudios.org/,E09000022,12/27/2020
Lambeth,Artists workspaces,Arch 258,Arch 258 Hardess St,,,E09000022,Lambeth,51.46508929942816,-0.1014576932614554,531976.9641176984,175721.92506332177,10023854148,E05000423,Herne Hill,www.artcoreint.net,E09000022,12/27/2020
Lambeth,Artists workspaces,STUDIO 27,Southwell Road,,,E09000022,Lambeth,51.46634830193853,-0.09868434292908623,532165.9640658251,175866.92502422258,10093379709,E05000423,Herne Hill,http://www.clockworkstudios.co.uk/,E09000022,12/27/2020
Lambeth,Artists workspaces,coldharbour studios,26 - 34 Southwell Road,,,E09000022,Lambeth,51.46634830193853,-0.09868434292908623,532165.9640658251,175866.92502422258,100000000000,E05000423,Herne Hill,http://www.coldharbourlondon.com/,E09000022,12/27/2020
Lambeth,Artists workspaces,Bread & Roses,68 Clapham Manor Street,,,E09000022,Lambeth,51.46766400727399,-0.13762338653446454,529457.6648042826,175943.72500368935,10025175738,E05000419,Clapham Town,http://www.studiostrike.com/contact/,E09000022,12/27/2020
Lambeth,Artists workspaces,,336 Brixton Road,,,E09000022,Lambeth,51.46814798541814,-0.11322347338270798,531150.9643417245,176040.92497744056,10091845237,E05000421,Ferndale,http://block336.com/,E09000022,12/27/2020
Lambeth,Artists workspaces,Glassyard,276 Oak Square,Stockwell,,E09000022,Lambeth,51.468841704971965,-0.12058116199260899,530637.9644812031,176104.9249600013,10090201945,E05000425,Larkhall,www.acme.org.uk,E09000022,12/27/2020
Lambeth,Artists workspaces,,"401 - 403, Wandsworth Road",,,E09000022,Lambeth,51.47371046634028,-0.13248182007575612,529797.6347080808,176625.1948193477,200000524037,E05000425,Larkhall,www.401studios.org,E09000022,12/27/2020
Lambeth,Artists workspaces,,155 Vauxhall Street,,,E09000022,Lambeth,51.485134747081844,-0.11543230965334147,530948.9643961326,177925.924466211,100000000000,E05000426,Oval,www.gasworks.org.uk,E09000022,12/27/2020
Lambeth,Artists workspaces,Studio 180,180 Lambeth Road,,,E09000022,Lambeth,51.49568915181546,-0.11587465267157684,530888.044413347,179098.79414603888,200000469749,E05000416,Bishop's,www.makespacestudios.com,E09000022,12/27/2020
Lambeth,Artists workspaces,Makespace studios,Newnham Terrace,,,E09000022,Lambeth,51.49863390807638,-0.1132617822696378,531060.9643660138,179430.92405721586,10001114119,E05000416,Bishop's,www.makespacestudios.com,E09000022,12/27/2020
Lambeth,Artists workspaces,Empire Arches,1 Watts Mews,off Conyers Road,,E09000022,Lambeth,51.42278226404213,-0.138149047905805,529547.9647772086,170951.92635903723,10093058949,E05000428,St. Leonard's,https://www.instagram.com/empirearches/?hl=en,E09000022,12/27/2020
Lambeth,Artists workspaces,Carlew House,East Place,West Norwood,,E09000022,Lambeth,51.43040236186219,-0.10080981631502804,532121.9640794295,171865.92611002678,100000000000,E05000422,Gipsy Hill,www.acme.org.uk,E09000022,12/27/2020
Lambeth,Artists workspaces,,"1 Sydenham Place, Off Lansdowne Hill",,,E09000022,Lambeth,51.43431390625766,-0.10467605143130287,531841.9641548492,172293.92599410668,200000470223,E05000424,Knight's Hill,www.bainbridgeprint.com,E09000022,12/27/2020
Lambeth,Artists workspaces,Streatham Hill,"47 Streatham Hill, ",Streatham ,,E09000022,Lambeth,51.44056664042074,-0.12496501682323069,530413.9645422171,172952.92581725155,10000445647,E05000430,Streatham Hill,www.ascstudios.co.uk,E09000022,12/27/2020
Lambeth,Artists workspaces,Ongean Studios,1 Park Mews,,,E09000022,Lambeth,51.44959481144274,-0.10035900067094537,532097.9640843188,174000.92553305818,10090196587,E05000434,Thurlow Park,-,E09000022,12/27/2020
Lambeth,Artists workspaces,,1a Nelsons Row,,,E09000022,Lambeth,51.46197332973245,-0.1342227612333063,529709.9647328861,175316.92517298926,100000000000,E05000419,Clapham Town,www.studiovoltaire.org,E09000022,12/27/2020
Lambeth,Artists workspaces,Brixton Village,1st Floors,Brixton Village Market,,E09000022,Lambeth,51.4625492819401,-0.111784377236087,531266.9643099229,175420.92514590552,10090196125,E05000420,Coldharbour,www.ascstudios.co.uk,E09000022,12/27/2020
Lambeth,Artists workspaces,Bureau Of Silly Ideas,Arches 17 & 555 Valentia Place,,,E09000022,Lambeth,51.462831529106005,-0.11144161590449995,531289.9643037398,175452.92513716128,100023573059,E05000420,Coldharbour,www.artcoreint.net,E09000022,12/27/2020
Lambeth,Arts centres,Southbank Centre ,Belvedere Road,,,E09000022,Lambeth,51.5057680666473,-0.11680000551389069,530794.9644374794,180217.92384175293,200000480101,E05000416,Bishop's,https://www.southbankcentre.co.uk/,E09000022,12/27/2020
Lambeth,Arts centres,Streatham Space Project ,Sternhold Ave,,,E09000022,Lambeth,51.438784937894916,-0.12765539995908956,530232.0545913933,172750.01587254187,10093376788,E05000430,Streatham Hill,,E09000022,12/27/2020
Lambeth,Cinemas,Odeon Streatham,,47-49 High Road,,E09000022,Lambeth,51.4320905064939,-0.12803104569782592,530224.9647144872,172004.9261970173,200000481977,E05000432,Streatham Wells,,E09000022,12/27/2020
Lambeth,Cinemas,West Norwood Library And Picturehouse,1-7 Norwood High St,West Norwood,,E09000022,Lambeth,51.43320346613575,-0.10329769884791265,531940.9642503322,172172.92614886502,010000446790,E05000422,Gipsy Hill,,E09000022,12/27/2020
Lambeth,Cinemas,Ritzy Picturehouse,,Brixton Oval,Coldharbour Lane,E09000022,Lambeth,51.461272917832936,-0.11461542433051525,531073.9644838762,175273.92530841072,100023570920,E05000420,Coldharbour,,E09000022,12/27/2020
Lambeth,Cinemas,Clapham Picturehouse,,76 Venn Street,,E09000022,Lambeth,51.46254063065165,-0.13823059650269745,529429.9649319783,175372.92528013117,100023362688,E05000419,Clapham Town,,E09000022,12/27/2020
Lambeth,Cinemas,Whirled Cinema,259-260 Hardess Street,Loughborough Junction,,E09000022,Lambeth,51.46508930049699,-0.10145769145922888,531976.9642397987,175721.92518542212,010023854149,E05000423,Herne Hill,https://www.whirledcinema.com/,E09000022,12/27/2020
Lambeth,Cinemas,BFI IMAX,1 Charlie Chaplin Walk,Lambeth,,E09000022,Lambeth,51.504817787684445,-0.11362585304950085,531017.9644989789,180117.92399171443,200000488784,E05000416,Bishop's,,E09000022,12/27/2020
Lambeth,Cinemas,BFI Southbank,,Belvedere Road,Southbank,E09000022,Lambeth,51.506946203533744,-0.11593736463574636,530851.4545342138,180350.47391507734,200000480097,E05000416,Bishop's,,E09000022,12/27/2020
Lambeth,Commercial galleries,Space Station 65,373 Kennington Road,NA,NA,E09000022,Lambeth,51.48652547728556,-0.1107657251007168,531268.9644324739,178088.92454243364,10000445110,E05000427,Prince's,http://spacestationsixtyfive.com/#,E09000022,12/27/2020
Lambeth,Commercial galleries,Amstel Art Gallery,7 St George Wharf,NA,NA,E09000022,Lambeth,51.485357728719826,-0.12654262874979363,530176.9647287838,177930.92458573863,10091846195,E05000426,Oval,http://amstelart.com/#,E09000022,12/27/2020
Lambeth,Commercial galleries,Newport Street,3 Newport Street,NA,NA,E09000022,Lambeth,51.49343133765147,-0.11697736301353054,530817.9645547344,178845.7542916488,10093376049,E05000427,Prince's,http://www.newportstreetgallery.com/#,E09000022,12/27/2020
Lambeth,Commercial galleries,Danielle Arnaud,123 Kennington Road,NA,NA,E09000022,Lambeth,51.49480273222897,-0.11045230748700753,531266.9644323696,179009.92429169634,100021856991,E05000427,Prince's,http://www.daniellearnaud.com/#,E09000022,12/27/2020
Lambeth,Commercial galleries,Caroline Wiseman,26 Lansdowne Gardens,NA,NA,E09000022,Lambeth,51.47657880376012,-0.12641249902809137,530210.9647172565,176954.92485149874,100021862472,E05000429,Stockwell,http://www.carolinewiseman.com/#,E09000022,12/27/2020
Lambeth,Commercial galleries,Morley College Gallery,61 Westminster Bridge Road,NA,NA,E09000022,Lambeth,51.49787915868336,-0.10995042883092149,531292.964425035,179352.92419991316,100023225348,E05000416,Bishop's,https://www.morleycollege.ac.uk/facilities/the-gallery#,E09000022,12/27/2020
Lambeth,Commercial galleries,Gasworks Gallery,155 Vauxhall Street,NA,NA,E09000022,Lambeth,51.48513474815089,-0.11543230785060589,530948.9645182329,177925.92458831135,100023230142,E05000426,Oval,http://www.gasworks.org.uk/#,E09000022,12/27/2020
Lambeth,Commercial galleries,Photofusion Gallery,17A Electric Ln,Brixton,NA,E09000022,Lambeth,51.46187314367182,-0.113914084319503,531120.9644713178,175341.925289787,100023388443,E05000420,Coldharbour,http://www.photofusion.org/photography-exhibitions/#,E09000022,12/27/2020
Lambeth,Commercial galleries,Brixton Art Gallery,35 Brixton Station Road,NA,NA,E09000022,Lambeth,51.46382046394568,-0.11309958925357058,531171.9644578417,175559.9252303372,100023388518,E05000420,Coldharbour,http://www.brixtonartgallery.co.uk/#,E09000022,12/27/2020
Lambeth,Commercial galleries,Brocket Gallery,16 Windmill Row,NA,NA,E09000022,Lambeth,51.48701892950183,-0.11181123104353391,531194.964452343,178141.92452806805,200000468294,E05000426,Oval,http://www.brocketgallery.com/#,E09000022,12/27/2020
Lambeth,Commercial galleries,Orso Major Gallery,19 Lower Marsh,NA,NA,E09000022,Lambeth,51.50059923215463,-0.11300767919654284,531072.964484671,179649.92412070575,200000471760,E05000416,Bishop's,http://www.orsomajor.com/#,E09000022,12/27/2020
Lambeth,Commercial galleries,Man & Eve,119-120 Lower Marsh,NA,NA,E09000022,Lambeth,51.50080870809423,-0.11317192306399733,531060.9644879028,179672.92411438318,200000471832,E05000416,Bishop's,http://www.manandeve.co.uk/#,E09000022,12/27/2020
Lambeth,Commercial galleries,Clapham Art Gallery,Unit 02,40-48 Bromellâs Road,NA,E09000022,Lambeth,51.46264961539353,-0.13829814587409206,529424.9649333975,175384.92527689255,200000520874,E05000419,Clapham Town,http://www.claphamartgallery.com/#,E09000022,12/27/2020
Lambeth,Community centres,Stockwell Centre,1 Studley Road,Lambeth,NA,E09000022,Lambeth,51.47245462460168,-0.12381665625365314,530402.9646660618,176500.92497456283,200000491228,E05000429,Stockwell,https://www.morleycollege.ac.uk/morley-matters/stockwell-centre,E09000022,12/27/2020
Lambeth,Community centres,Wheatsheaf Hall,Wheatsheaf Lane,Lambeth,NA,E09000022,Lambeth,51.48089548201229,-0.12529959285092088,530275.9647008714,177436.9247205899,100023573213,E05000426,Oval,wheatsheafhall.org.uk,E09000022,12/27/2020
Lambeth,Community centres,Notre Dame Community Hall,1 Worsopp Drive,Lambeth,NA,E09000022,Lambeth,51.45932812378632,-0.13866353237201506,529408.964936333,175014.92537692207,100023677209,E05000418,Clapham Common,https://notredametra.my-free.website/about-us,E09000022,12/27/2020
Lambeth,Community centres,Heath Road Community Hall,117 Heath Road,Lambeth,NA,E09000022,Lambeth,51.46861328828803,-0.14691047492511242,528809.9651011832,176032.92510195548,200000466063,E05000419,Clapham Town,https://www.facebook.com/heathbrook.hall.9,E09000022,12/27/2020
Lambeth,Community centres,Jubilee Community Halls,Tulse Hill,Lambeth,NA,E09000022,Lambeth,51.44968497827301,-0.11597067837323095,531012.9645042582,173982.92566064792,200000484897,E05000435,Tulse Hill,,E09000022,12/27/2020
Lambeth,Community centres,Chandler Hall,15 Lambeth Walk,Lambeth,NA,E09000022,Lambeth,51.49528892901973,-0.1127228509631775,531107.9644756143,179059.92427839816,200000489602,E05000416,Bishop's,https://www.facebook.com/pages/Chandler-Community-Hall/700659773316783,E09000022,12/27/2020
Lambeth,Community centres,St Matthew's Tenants Hall,10 St Matthew'S Road,Lambeth,NA,E09000022,Lambeth,51.45760569065176,-0.11640749367243618,530959.9645147505,174862.9254208132,10008785856,E05000435,Tulse Hill,https://twitter.com/stmatthewstra?lang=en,E09000022,12/27/2020
Lambeth,Community centres,Hawksworth Hall,Poynders Road,Lambeth,NA,E09000022,Lambeth,51.4520203815037,-0.14170968723390842,529217.9649887829,174196.92560074566,10090197025,E05000418,Clapham Common,https://sites.google.com/site/oaklandscommunityassociagbbo00/hawkesworth-hall,E09000022,12/27/2020
Lambeth,Community centres,Myatts Field South Community Hall,Urlwin Walk,Lambeth,NA,E09000022,Lambeth,51.47186899296784,-0.10801130925125366,531502.2843754215,176464.04498049978,10090203232,E05000436,Vassall,,E09000022,12/27/2020
Lambeth,Community centres,Vernon Hall,Vauxhall Street,Lambeth,NA,E09000022,Lambeth,51.48709119879577,-0.11753170429882362,530797.6145226215,178139.734527138,10090203233,E05000427,Prince's,,E09000022,12/27/2020
Lambeth,Community centres,Renton Close Community Centre,Brixton Hill,Lambeth,NA,E09000022,Lambeth,51.451704297834155,-0.12239061758876262,530561.1346091288,174196.01556790003,10090203264,E05000417,Brixton Hill,https://rentonclose.org/hire-the-centre/,E09000022,12/27/2020
Lambeth,Community centres,Southwyck House Community Hall,Moorland Road,Lambeth,NA,E09000022,Lambeth,51.462424765590896,-0.10710904654513083,531592.0843393737,175415.46524688776,10090203265,E05000420,Coldharbour,https://southwyckhouse.wordpress.com/community-hall/,E09000022,12/27/2020
Lambeth,Community centres,Edmundsbury Community Hall,171 Ferndale Road,Lambeth,NA,E09000022,Lambeth,51.46208388947516,-0.11901468835666437,530766.0545330188,175356.24529366387,10090203277,E05000421,Ferndale,https://edmundsbury.org.uk/edmundsbury-community-hall/,E09000022,12/27/2020
Lambeth,Community centres,Drew House Meeting Room,Leigham Avenue,Lambeth,NA,E09000022,Lambeth,51.433677147832704,-0.12490177434253939,530437.9646568391,172186.92614769103,10090203572,E05000432,Streatham Wells,,E09000022,12/27/2020
Lambeth,Community centres,Holland Town Community Hall,11 Vassall Road,Lambeth,NA,E09000022,Lambeth,51.4770716165492,-0.11140644947747909,531251.5844308655,177036.49483715708,10091117047,E05000436,Vassall,https://www.facebook.com/Holland-Town-Residents-Association-282329735288935/,E09000022,12/27/2020
Lambeth,Community centres,St Martin's Community Centre,Abbots Park,Lambeth,NA,E09000022,Lambeth,51.442780085886476,-0.11327612414352099,531219.9644445926,173219.9258662858,200000466451,E05000435,Tulse Hill,,E09000022,12/27/2020
Lambeth,Community centres,Ashmole Estate Tenants' Hall,2 Meadow Road,Lambeth,NA,E09000022,Lambeth,51.482831019510805,-0.11757243379811261,530806.9645558435,177665.92465990456,100023383267,E05000426,Oval,https://www.metropolitan.org.uk,E09000022,12/27/2020
Lambeth,Community centres,Stockwell Park Community Centre,21 Aytoun Place,Lambeth,NA,E09000022,Lambeth,51.46929432329278,-0.11572471388955613,530973.9645116429,176163.92506612814,200000490474,E05000421,Ferndale,http://www.thetrust.org.uk/,E09000022,12/27/2020
Lambeth,Community centres,Roupell Park RMC Community Office,Brockham Drive,Lambeth,NA,E09000022,Lambeth,51.44818801946735,-0.12075273699942478,530684.9645927948,173807.9257076907,10008786573,E05000417,Brixton Hill,http://www.roupellpark.co.uk/,E09000022,12/27/2020
Lambeth,Community centres,Springfield Community Health Centre,110 Union Road,Lambeth,NA,E09000022,Lambeth,51.47057797823639,-0.13300805690812692,529769.9648396616,176275.92503587733,10008789148,E05000425,Larkhall,,E09000022,12/27/2020
Lambeth,Community centres,"Elmworth Grove Community Hall, Elmworth Grove Community Hall",Elmworth Grove,Lambeth,NA,E09000022,Lambeth,51.43696911200121,-0.09373191662865304,532594.9640712243,172608.92603173573,10023850989,E05000434,Thurlow Park,,E09000022,12/27/2020
Lambeth,Community centres,Tulse Hill Youth and Play Project,Tulse Hill,Lambeth,NA,E09000022,Lambeth,51.45008178872956,-0.11604069825298721,531006.9645060877,174026.92564877245,10090196121,E05000435,Tulse Hill,,E09000022,12/27/2020
Lambeth,Community centres,Kennington Park Centre,40 St Agnes Place,Lambeth,NA,E09000022,Lambeth,51.482066655727294,-0.10795651860746242,531476.8043424402,177598.1346371558,10091119527,E05000426,Oval,,E09000022,12/27/2020
Lambeth,Community centres,The Old Laundry,6 Stockwell Gardens,London,NA,E09000022,Lambeth,51.47286202972794,-0.12117923087765296,530584.9646163397,176550.92496082792,100021893475,E05000429,Stockwell,,E09000022,12/27/2020
Lambeth,Community centres,Peabody Hill Community Hall,Peabody Hill,Lambeth,NA,E09000022,Lambeth,51.44234441789858,-0.10133616874868624,532050.9642175923,173192.92587198212,200000463114,E05000434,Thurlow Park,https://www.peabody.org.uk/neighbourhoods/community-centres,E09000022,12/27/2020
Lambeth,Community centres,Rosendale Centre,Rosendale Road,Lambeth,NA,E09000022,Lambeth,51.44605250496714,-0.10040771022605964,532104.7941598119,173606.93570957036,10091120998,E05000434,Thurlow Park,,E09000022,12/27/2020
Lambeth,Community centres,The Salvation Army,246 Norwood Road,Lambeth,NA,E09000022,Lambeth,51.43767244259947,-0.1060478174054532,531736.9643044923,172664.92601575336,100023265855,E05000434,Thurlow Park,https://www.salvationarmy.org.uk/west-norwood,E09000022,12/27/2020
Lambeth,Community centres,Lansdowne Green Community Centre,283-291 Wandsworth Road,Lambeth,NA,E09000022,Lambeth,51.4777017942825,-0.12916032824029477,530016.964770484,177074.92481886654,200000485937,E05000429,Stockwell,https://www.3va.org.uk/sites/default/files/AmicusHorizon%20Free%20Community%20Space%20Poster.pdf,E09000022,12/27/2020
Lambeth,Community centres,Connect & Do,105-109 Railton Road,Lambeth,NA,E09000022,Lambeth,51.45796533721301,-0.10802937278110229,531540.9643582597,174917.92540428188,10008789005,E05000420,Coldharbour,http://www.connectanddo.org/,E09000022,12/27/2020
Lambeth,Community centres,Bolney Meadow Community Centre,31 Bolney Street,Lambeth,NA,E09000022,Lambeth,51.479344259150324,-0.12164753564503232,530533.9646299243,177270.92476592422,10090197815,E05000429,Stockwell,https://www.bolneymeadow.com/,E09000022,12/27/2020
Lambeth,Community centres,Myatts Field North Centre,24 Crawshay Road,Lambeth,NA,E09000022,Lambeth,51.47437604532119,-0.10955887423682063,531387.6143622962,176740.05491559335,10091120500,E05000436,Vassall,www.regentermyattsfieldnorth.com/community,E09000022,12/27/2020
Lambeth,Community centres,Yellow Qube,63 Christchurch Road,Lambeth,NA,E09000022,Lambeth,51.44091499349408,-0.11081052778726673,531396.6543987757,173016.94587940176,10093377637,E05000435,Tulse Hill,http://yellowqube.org/,E09000022,12/27/2020
Lambeth,Community centres,Vauxhall Gardens Community Centre,5 Glasshouse Walk,Lambeth,NA,E09000022,Lambeth,51.488937303672444,-0.12207452011448253,530476.964646765,178336.9244748582,100023230451,E05000427,Prince's,http://vgcc.org.uk/,E09000022,12/27/2020
Lambeth,Community centres,St John The Divine Community Centre,Frederick Crescent,Lambeth,NA,E09000022,Lambeth,51.47745782033893,-0.10500537381147157,531694.9643166831,177090.92481562833,200000463930,E05000436,Vassall,,E09000022,12/27/2020
Lambeth,Community centres,Goodliffe Hall,Highland Road,Lambeth,NA,E09000022,Lambeth,51.42164079642272,-0.08408566908153196,533309.9638761193,170921.92649104766,200000466564,E05000422,Gipsy Hill,http://www.gipsyhill.org.uk/church-hall/,E09000022,12/27/2020
Lambeth,Community centres,Archbishop Davidson Institute,218 Lambeth Road,Lambeth,NA,E09000022,Lambeth,51.495260217063255,-0.11765110752730679,530765.9645687185,179047.924281772,200000469752,E05000416,Bishop's,,E09000022,12/27/2020
Lambeth,Community centres,Hammerton Memorial Hall,Lingham Street,Lambeth,NA,E09000022,Lambeth,51.467883585187444,-0.12139799489664904,530583.9646184267,175996.92511146062,200000471128,E05000425,Larkhall,,E09000022,12/27/2020
Lambeth,Community centres,The Harry Caddick Community Centre,63 Lilford Road,Lambeth,NA,E09000022,Lambeth,51.470528059058985,-0.10078559682801877,532007.9642310685,176327.92502245243,200000483080,E05000423,Herne Hill,https://www.watmos.org.uk/thorlands-tmo,E09000022,12/27/2020
Lambeth,Community centres,Brixton St Vincents Community Centre,Talma Road,Lambeth,NA,E09000022,Lambeth,51.45889640220621,-0.11111458856606568,531323.9644163593,175015.9253780028,200000483133,E05000420,Coldharbour,http://www.brixtoncommunitybase.org/,E09000022,12/27/2020
Lambeth,Community centres,PEDLARS ACRE COMMUNITY HALL,1 Opal Street, North Lambeth,NA,E09000022,Lambeth,51.47611939076468,-0.12130469571482234,530566.9646203801,176912.92486254894,200000476675,E05000429,Stockwell,,E09000022,12/27/2020
Lambeth,Community centres,LOUGHBOROUGH ESTATE,105 Angell Road, London,NA,E09000022,Lambeth,51.46660415067314,-0.10559888298421564,531684.9643188128,175882.92514212476,10008787179,E05000420,Coldharbour,,E09000022,12/27/2020
Lambeth,Community centres,FENWICK ESTATE,128 Willington Road, London,NA,E09000022,Lambeth,51.46367214887082,-0.12627857483381358,530256.9647067074,175519.9252409566,100023389658,E05000425,Larkhall,,E09000022,12/27/2020
Lambeth,Community centres,DERONDA ESTATE,Jarrett Close ,NA,NA,E09000022,Lambeth,51.442223561770554,-0.10832020886878857,531565.9643499192,173166.9258798989,200000524644,E05000434,Thurlow Park,,E09000022,12/27/2020
Lambeth,Community centres,"Rotunda, CRESSINGHAM GARDENS ESTATE",Cressingham Gardens estate, Tulse Hill, London,E09000022,Lambeth,51.447074330159424,-0.11189027061086311,531303.9644232697,173699.92573677213,10008787389,E05000435,Tulse Hill,,E09000022,12/27/2020
Lambeth,Community centres,BERRIDGE ROAD ESTATE,13 -17 Bridgetown Close,,NA,E09000022,Lambeth,51.4250961429682,-0.08641527423328757,533137.963922113,171301.92638739233,200000455711,E05000422,Gipsy Hill,,E09000022,12/27/2020
Lambeth,Community centres,Patmore Clubroom,Thessaly Road, London, SW8 4HT,E09000022,Lambeth,51.47437337247737,-0.13449093021573688,529656.2348267,176695.3549153529,200000483613,E05000425,Larkhall,,E09000022,12/27/2020
Lambeth,Community centres,Moorlands Community Centre,Moorlands Community Centre,50a Corry Drive,London,E09000022,Lambeth,51.46021166422118,-0.10679925452761752,531619.9643368872,175169.92533538846,10023850557,E05000420,Coldharbour,,E09000022,12/27/2020
Lambeth,Community centres,High Trees Community Development Centre,High Trees Community Development Centre,High Trees,London,E09000022,Lambeth,51.44455290737965,-0.11167767290467737,531325.9644163041,173419.92581219657,100023351563,E05000435,Tulse Hill,http://www.high-trees.org/,E09000022,12/27/2020
Lambeth,Community centres,Cheviot Gardens,36 Cheviot Rd, ,West Norwood,E09000022,Lambeth,51.42840962468082,-0.10565700798534658,531790.7542693334,171635.60628787277,10091120509,E05000424,Knight's Hill,https://www.nhhg.org.uk/communities/spaces-for-hire/cheviot-gardens/,E09000022,12/27/2020
Lambeth,Community centres,Streatham Stables Community Centre,The White Lion,Streatham High Road,London,E09000022,Lambeth,51.43075090168155,-0.1297401850982124,530109.9647458511,171852.92623794015,100021896046,E05000428,St. Leonard's,http://www.whitelionsw16.co.uk/?fbclid=IwAR25_e_kBt2rAwlueFStdNp8jn3_XIM2gWW995VB0cxY9FzKyOucnteahMc,E09000022,12/27/2020
Lambeth,Community centres,Clapham Park Community Resource Centre,Clapham Park Homes,1 Headlam Road,London,E09000022,Lambeth,51.44980855425982,-0.1315522379027729,529929.9647962975,173968.92566236068,200000522787,E05000433,Thornton,,E09000022,12/27/2020
Lambeth,Community centres,Community Flat,Community Flat,14 Saxonfield Close,London,E09000022,Lambeth,51.44591282392747,-0.11683108110605127,530963.9645159827,173561.9257743751,200000488552,E05000435,Tulse Hill,https://www.3va.org.uk/sites/default/files/AmicusHorizon%20Free%20Community%20Space%20Poster.pdf,E09000022,12/27/2020
Lambeth,Community centres,Lansdowne Green Family Centre,Lambeth Family Housing Centre,Benson Court,Hartington Road,E09000022,Lambeth,51.47620013962487,-0.12804087279194623,530098.9647475636,176909.92486384843,100023674971,E05000429,Stockwell,https://www.3va.org.uk/sites/default/files/AmicusHorizon%20Free%20Community%20Space%20Poster.pdf,E09000022,12/27/2020
Lambeth,Community centres,Kennington Park Community Centre,8 Harleyford Street,Lambeth,NA,E09000022,Lambeth,51.48254682777262,-0.11275924245533353,531141.964466278,177642.92466501246,100023230387,E05000426,Oval,http://kpccoval.org/,E09000022,12/27/2020
Lambeth,Creative co-working desk space,Biz Space,Lilford Business Centre,61 Lilford Road,,E09000022,Lambeth,51.47056444531151,-0.10192158472147173,531928.9642526126,176329.92502197018,100021865796,E05000436,Vassall,www.bizspace.co.uk/spaces/brixton,E09000022,12/27/2020
Lambeth,Creative co-working desk space,The Handbag Factory,The Handbag Factory,3 Loughborough Street,,E09000022,Lambeth,51.48725149491353,-0.1156475254856553,530927.9645241888,178160.9245234722,100023230368,E05000427,Prince's,http://www.handbag-factory.com,E09000022,12/27/2020
Lambeth,Creative co-working desk space,Canvas Coworking,Canvas Coworking,215 Lyham Road,,E09000022,Lambeth,51.45240835522201,-0.12653813455477353,530270.9647038621,174266.92558202258,100023353742,E05000417,Brixton Hill,www.canvasbrixton.space/,E09000022,12/27/2020
Lambeth,Creative co-working desk space,Tcn Uk,Piano House,9 Brighton Terrace,Brixton,E09000022,Lambeth,51.46163388383819,-0.11637124216243869,530950.9645170912,175310.92529858177,100023387855,E05000421,Ferndale,www.pianohousebrixton.co.uk/,E09000022,12/27/2020
Lambeth,Creative co-working desk space,Biz Space,The Work Lounge (Brixton),"Shakespeare Business Centre, 245a",Coldharbour Lane,E09000022,Lambeth,51.464717875901194,-0.10295598314277822,531873.9642678031,175677.925197415,100023387868,E05000420,Coldharbour,www.bizspace.co.uk/spaces/brixton,E09000022,12/27/2020
Lambeth,Creative workspaces,Makeshift,Pop Brixton,Pop Brixton,49 Brixton Station Road,E09000022,Lambeth,51.463458208952716,-0.11233294551710375,531226.2544211133,175521.015206645,10090199715,,,https://www.popbrixton.org/about/,E09000022,12/27/2020
Lambeth,Creative workspaces,Meanwhile Space,Granby Space,114-118 Lower Marsh,,E09000022,Southwark,51.50096102021983,-0.11313681222531453,531062.964487334,179689.9241096949,100023225341,,,https://www.granbyspace.co.uk,E09000022,12/27/2020
Lambeth,Creative workspaces,Meanwhile Space,Lj Space,Styles Gardens,Loughborough Road,E09000022,Lambeth,51.466264769481185,-0.1029638220359475,531868.9642688761,175849.9251509299,100023572524,,,https://www.meanwhilespace.com/single-post/2017/10/31/LJ-Works,E09000022,12/27/2020
Lambeth,Creative workspaces,Eat Work Art,Old Paradise Yard,Old Paradise Yard,20 Carlisle Lane,E09000022,Lambeth,51.498488288318455,-0.1165106722984097,530835.8845322818,179408.9241854553,200000457272,,,eatworkart.com,E09000022,12/27/2020
Lambeth,Dance performance venues,Bread and Roses,68 Clapham Manor St,,,E09000022,Lambeth,51.465868049389755,-0.1365403514061712,529537.9647821299,175745.92505708727,100021824058,E05000419,Clapham Town,https://www.breadandrosestheatre.co.uk,E09000022,12/27/2020
Lambeth,Dance performance venues,Lost Theatre,208 Wandsworth Road,,,E09000022,Lambeth,51.475523927124875,-0.13182128200627993,529838.3646959291,176828.02476444741,10023851231,E05000429,Stockwell,http://www.losttheatre.co.uk,E09000022,12/27/2020
Lambeth,Dance performance venues,White Bear Theatre,138 Kennington Park Road,,,E09000022,Lambeth,51.48690515526746,-0.10809969471258074,531452.9642608745,178135.92440696195,100021856679,E05000427,Prince's,http://www.whitebearkennington.co.uk,E09000022,12/27/2020
Lambeth,Dance performance venues,Waterloo East Theatre,19 Brad Street,,,E09000022,Lambeth,51.50406715666158,-0.11001128800792538,531270.9643080987,180040.92389095627,10000445872,E05000416,Bishop's,http://www.waterlooeast.co.uk,E09000022,12/27/2020
Lambeth,Dance performance venues,The Vaults,7AD Leake St,,,E09000022,Lambeth,51.501974877728024,-0.11528547932908231,530910.9344064576,179798.8239576755,10091121720,E05000416,Bishop's,https://www.thevaults.london,E09000022,12/27/2020
Lambeth,Dance performance venues,Electric Brixton,Town Hall Parade,,,E09000022,Lambeth,51.46019347340544,-0.11683360475708353,530922.9644021649,175149.9252204852,200000455751,E05000417,Brixton Hill,http://electricbrixton.uk.com,E09000022,12/27/2020
Lambeth,Dance performance venues,Landor Theatre,70 Landor Pub,,,E09000022,Lambeth,51.46566493006136,-0.126053012785492,530266.9645827875,175741.9250585385,100021861916,E05000425,Larkhall,http://www.thelandorpub.com,E09000022,12/27/2020
Lambeth,Dance performance venues,The Young Vic,66 The Cut,,,E09000022,Lambeth,51.50327690512558,-0.10729184890900656,531461.9642562263,179957.92391375004,100023226258,E05000416,Bishop's,https://www.youngvic.org,E09000022,12/27/2020
Lambeth,Dance performance venues,Rambert,99 Upper Ground,,,E09000022,Lambeth,51.5061740428866,-0.11352326943298152,531021.1943757858,180268.9238279881,100023226975,E05000416,Bishop's,http://www.rambert.org.uk,E09000022,12/27/2020
Lambeth,Dance performance venues,Omnibus Arts Centre,1 Northside Clapham Common,,,E09000022,Lambeth,51.46375803853589,-0.14241370760161176,529135.9648906867,175500.92512376455,100023362765,E05000419,Clapham Town,http://omnibus-clapham.org,E09000022,12/27/2020
Lambeth,Dance performance venues,Flow Dance London,1-3 Brixton Rd,Unit 3,,E09000022,Lambeth,51.48048970371461,-0.10954604491438824,531370.9642824375,177419.92460317153,10090196810,E05000436,Vassall,https://flowdance-london.co.uk,E09000022,12/27/2020
Lambeth,Dance rehearsal studios,Alford House,12 Aveline Street,,,E09000022,Lambeth,51.487992230204945,-0.11417655529797544,531027.9643752433,178245.92437770573,100023230353,E05000427,Prince's,http://www.alfordhouse.org.uk/site/room-hire.php,E09000022,12/27/2020
Lambeth,Dance rehearsal studios,Brixton Community Base,32 Talma Road,,,E09000022,Lambeth,51.45865601847916,-0.11070706076697641,531352.9642865309,174989.92526293348,100021898740,E05000420,Coldharbour,http://www.brixtoncommunitybase.org,E09000022,12/27/2020
Lambeth,Dance rehearsal studios,Evelyn Grace Academy,255 Shakespeare Road,,,E09000022,Lambeth,51.46083334113362,-0.10353451961371954,531844.9641541977,175244.92519243312,10023851851,E05000420,Coldharbour,http://evelyngraceacademy.org/ega-dance-studio,E09000022,12/27/2020
Lambeth,Dance rehearsal studios,Love Dance Centre,8 Clapham Park Rd,,,E09000022,Lambeth,51.46105474476179,-0.13696660879584016,529521.9647838944,175209.92520198366,100021891189,E05000418,Clapham Common,,E09000022,12/27/2020
Lambeth,Dance rehearsal studios,The Shala,1 Chestnut Rd,,,E09000022,Lambeth,51.43454753023736,-0.10299745454768275,531957.9641233265,172322.9259860168,100023674227,E05000434,Thurlow Park,http://www.theshalalondon.com,E09000022,12/27/2020
Lambeth,Dance rehearsal studios,Studio B,130 Brixton Hill,,,E09000022,Lambeth,51.45289209827481,-0.12136560917581195,530628.9644851558,174329.92544369638,100023350695,E05000417,Brixton Hill,http://studioblondon.com,E09000022,12/27/2020
Lambeth,Dance rehearsal studios,Streatham Youth and Community Trust,16 Wellfield Road,,,E09000022,Lambeth,51.42965878422112,-0.12723849655506383,530286.964575943,171735.92614741507,200000486426,E05000432,Streatham Wells,http://www.syct.org.uk,E09000022,12/27/2020
Lambeth,Dance rehearsal studios,Wellfield Centre,16 Wellfield Road,,,E09000022,Lambeth,51.42965878422112,-0.12723849655506383,530286.964575943,171735.92614741507,200000486426,E05000432,Streatham Wells,http://www.syct.org.uk,E09000022,12/27/2020
Lambeth,Dance rehearsal studios,West Dulwich Health and Wellbeing Centre,1 Park Hall Road,,,E09000022,Lambeth,51.43516689916435,-0.09572048165362358,532461.963985722,172404.92596501147,100023252867,E05000434,Thurlow Park,https://aspirewellbeing.org,E09000022,12/27/2020
Lambeth,Dance rehearsal studios,South London Dance Studios,130 Herne Hil,,,E09000022,Lambeth,51.45353403756033,-0.10149089376418652,532007.9641094323,174436.9254137224,100023258077,E05000423,Herne Hill,http://southlondondancestudios.co.uk,E09000022,12/27/2020
Lambeth,Dance rehearsal studios,Ovalhouse,52-54 Kennington Oval,,,E09000022,Lambeth,51.48244458857655,-0.11367082656723823,531078.9643609984,177629.92454663746,200000468066,E05000426,Oval,http://www.ovalhouse.com,E09000022,12/27/2020
Lambeth,Dance rehearsal studios,Vinters Studios,1b Sunnyhill Road,,,E09000022,Lambeth,51.43094451508481,-0.1289122726204136,530166.9646082728,171875.92610966048,100023318812,E05000432,Streatham Wells,http://www.vintersstudios.co.uk,E09000022,12/27/2020
Lambeth,Dance rehearsal studios,Creation Box,Newnham Terrace,,,E09000022,Lambeth,51.4989021214431,-0.1131642543187109,531066.9643643578,179460.92404919345,10008788597,E05000416,Bishop's,https://www.creationboxlondon.com,E09000022,12/27/2020
Lambeth,Dance rehearsal studios,Arch 468 ,209a Coldharbour Lane ,,,E09000022,Lambeth,51.46580261861804,-0.10219114151842179,531923.9641319343,175799.9250422977,200001000000,E05000420,Coldharbour,https://www.arch468.com/rehearsalspacehire,E09000022,12/27/2020
Lambeth,Dance rehearsal studios,Electric Brixton,Town Hall Parade,,,E09000022,Lambeth,51.46019347340544,-0.11683360475708353,530922.9644021649,175149.9252204852,200000455751,E05000417,Brixton Hill,http://electricbrixton.uk.com,E09000022,12/27/2020
Lambeth,Dance rehearsal studios,Landor Theatre,70 Landor Pub,,,E09000022,Lambeth,51.46566493006136,-0.126053012785492,530266.9645827875,175741.9250585385,100021861916,E05000425,Larkhall,http://www.thelandorpub.com,E09000022,12/27/2020
Lambeth,Dance rehearsal studios,The Young Vic,66 The Cut,,,E09000022,Lambeth,51.50327690512558,-0.10729184890900656,531461.9642562263,179957.92391375004,100023226258,E05000416,Bishop's,https://www.youngvic.org,E09000022,12/27/2020
Lambeth,Dance rehearsal studios,Rambert,99 Upper Ground,,,E09000022,Lambeth,51.5061740428866,-0.11352326943298152,531021.1943757858,180268.9238279881,100023226975,E05000416,Bishop's,http://www.rambert.org.uk,E09000022,12/27/2020
Lambeth,Dance rehearsal studios,Omnibus Arts Centre,1 Northside Clapham Common,,,E09000022,Lambeth,51.46375803853589,-0.14241370760161176,529135.9648906867,175500.92512376455,100023362765,E05000419,Clapham Town,http://omnibus-clapham.org,E09000022,12/27/2020
Lambeth,Dance rehearsal studios,Flow Dance London,1-3 Brixton Rd,Unit 3,,E09000022,Lambeth,51.48048970371461,-0.10954604491438824,531370.9642824375,177419.92460317153,10090196810,E05000436,Vassall,https://flowdance-london.co.uk,E09000022,12/27/2020
Lambeth,Fashion and design,Bridget Bailey,Clockwork Studios,38 Southwell Road,,E09000022,Lambeth,51.466592695216505,-0.09822786476901821,532196.9640573196,175894.92501667142,1.00024E+11,E05000423,Herne Hill,https://bridgetbailey.co.uk/,E09000022,12/27/2020
Lambeth,Fashion and design,Hotmamas,11 Abbot Court,,,E09000022,Lambeth,51.477969413438004,-0.1273348397279223,530142.9646141542,177107.92468778143,1.00022E+11,E05000429,Stockwell,http://www.hotmamas.org/,E09000022,12/27/2020
Lambeth,Fashion and design,Just Pins Couture,21 Stretham Common Road,,,E09000022,Lambeth,51.42371992662687,-0.12476267171368044,530475.9645247146,171079.9263255439,1.00024E+11,E05000432,Streatham Wells,,E09000022,12/27/2020
Lambeth,Fashion and design,Victoria Richards,Clockwork Studios,38 Southwell Road,,E09000022,Lambeth,51.466592695216505,-0.09822786476901821,532196.9640573196,175894.92501667142,1.00024E+11,E05000423,Herne Hill,http://victoriarichards.com/contact/,E09000022,12/27/2020
Lambeth,Fashion and design,Guava London Ltd,Unit 58 Eurolink Business Centre,49 Effra Road,,E09000022,Lambeth,51.458441557254595,-0.11414188814469553,531114.9643505112,174959.92527180887,1.00024E+11,E05000420,Coldharbour,http://www.guavalondon.com/,E09000022,12/27/2020
Lambeth,Fashion and design,Earl of Bedlam,5 Walnut Tree Walk,Bedlam Mews,,E09000022,Lambeth,51.49430487253557,-0.11416092912558923,531010.9643800075,178947.924186252,10000444565,E05000416,Bishop's,http://www.earlofbedlam.co.uk/,E09000022,12/27/2020
Lambeth,Jewellery design,Bravo Art and Design Limited,83b Paulet Road,,,E09000022,Lambeth,51.47236286175498,-0.1013573783766206,531962.9642434975,176530.92496807664,100023275171,E05000436,Vassall,,E09000022,12/27/2020
Lambeth,Jewellery design,British Underground Limited,60-62 Clapham Road,,,E09000022,Lambeth,51.4796447444724,-0.11515442581366987,530983.9645080892,177315.9247539225,200000458845,E05000426,Oval,,E09000022,12/27/2020
Lambeth,Legal street art walls,The Stockwell Hall of Fame ,,,,E09000022,Lambeth,51.469739840914684,-0.11853915125221308,530777.2231428336,176208.44053182553,,E05000429,Stockwell,,E09000022,12/27/2020
Lambeth,Legal street art walls,Southbank Undercroft ,,,,E09000022,Lambeth,51.50746529966059,-0.11815929394578555,530695.7792642637,180404.23148998647,,E05000416,Bishop's,,E09000022,12/27/2020
Lambeth,LGBT+ night time venues,The Cock Tavern ,"340 Kennington Road
",,,E09000022,Lambeth,51.48640229488746,-0.11163793035359745,531208.764326548,178073.66442469304,,E05000426,Oval,,E09000022,12/27/2020
Lambeth,LGBT+ night time venues,Union,66 Albert Embankment,,,E09000022,Lambeth,51.48846919959006,-0.12531973807262844,530253.0076855998,178279.0970684049,,E05000427,Prince's,http://www.clubunion.co.uk,E09000022,12/27/2020
Lambeth,LGBT+ night time venues,Eagle London,349 Kennington Lane,,,E09000022,Lambeth,51.486717450403994,-0.12092690932289411,530562.9696009691,178092.11832040217,,E05000427,Prince's,,E09000022,12/27/2020
Lambeth,LGBT+ night time venues,Royal Vauxhall Tavern,372 Kennington Lane,,,E09000022,Lambeth,51.487037952111706,-0.12128819586115366,530536.9726081153,178127.11481068912,,E05000427,Prince's,,E09000022,12/27/2020
Lambeth,LGBT+ night time venues,The Two Brewers,114 Clapham High Street,,,E09000022,Lambeth,51.46369443496113,-0.1364252341766067,529552.106977065,175504.41932234954,,E05000419,Clapham Town,www.the2brewers.com,E09000022,12/27/2020
Lambeth,LGBT+ night time venues,The Bridge Bar,8 Voltaire Road,Clapham,,E09000022,Lambeth,51.466309434733354,-0.13519592452121587,529630.0959574156,175797.38454307494,,E05000419,Clapham Town,http://www.bridgewinebar.com/#menu,E09000022,12/27/2020
Lambeth,LGBT+ night time venues,Fire and Lightbox,39 (34-41) Parry Street,South Lambeth Road,Vauxhall,,,51.48448519545354,-0.12530100843836994,530265.6516824148,177836.10428992083,,,,http://firelondon.net/,E09000022,12/27/2020
Lambeth,LGBT+ night time venues,Oval House (Regular LGBTQ+ Programming),52-54 Kennington Oval,,,,,51.48258448337027,-0.11426996980237608,531036.9643722479,177644.40954284364,,,,www.ovalhouse.com,E09000022,12/27/2020
Lambeth,Libraries,Upper Norwood,Westow Hill,,,E09000022,Lambeth,51.420039987826705,-0.08133357149351181,533505.9638236926,170748.9265378251,10091838065,E05000422,Gipsy Hill,,E09000022,12/27/2020
Lambeth,Libraries,Streatham,Streatham High Road,,,E09000022,Lambeth,51.43157773246783,-0.1291453613712909,530148.9647351261,171945.92621292872,100023315960,E05000432,Streatham Wells,,E09000022,12/27/2020
Lambeth,Libraries,Carnegie library (Herne Hill),Herne Hill Road,,,E09000022,Lambeth,51.460783602882024,-0.09658350441268682,532327.9641446387,175251.92531237466,10091838239,E05000423,Herne Hill,,E09000022,12/27/2020
Lambeth,Libraries,Brixton,Brixton Oval,,,E09000022,Lambeth,51.46110378780804,-0.11472316262723081,531066.9644857298,175254.92531360558,200000455963,E05000420,Coldharbour,,E09000022,12/27/2020
Lambeth,Libraries,Clapham,Clapham High Street,,,E09000022,Lambeth,51.463106902941135,-0.13364921719709352,529746.5948506027,175443.99526808847,10090197569,E05000421,Ferndale,,E09000022,12/27/2020
Lambeth,Libraries,Minet,Knatchbull Road,,,E09000022,Lambeth,51.471295012314776,-0.1053902335891044,531685.9643184426,176404.9250015731,100021859495,E05000436,Vassall,,E09000022,12/27/2020
Lambeth,Libraries,Tate South Lambeth,South Lambeth Road,,,E09000022,Lambeth,51.47920138584308,-0.12395765282230707,530373.9646736038,177250.92477117362,100023383422,E05000426,Oval,,E09000022,12/27/2020
Lambeth,Libraries,Durning,Kennington Lane,,,E09000022,Lambeth,51.48878961220636,-0.1100815555249121,531309.9644212418,178341.92447292397,100023229223,E05000427,Prince's,,E09000022,12/27/2020
Lambeth,Libraries,Waterloo,Kennington Road,,,E09000022,Lambeth,51.498180532469874,-0.111911792731906,531155.9644622987,179382.9241920344,100023225318,E05000416,Bishop's,,E09000022,12/27/2020
Lambeth,Libraries,West Norwood Library and Picturehouse,1-7 Norwood High St,,,E09000022,Lambeth,51.43280264110468,-0.10409118172877142,531886.9642649955,172126.9261614668,010000446790,E05000424,Knight's Hill,,E09000022,12/27/2020
Lambeth,Makerspaces,Artichoke,Artichoke Print Workshop,Unit S1,245a Coldharbour Lane,E09000022,Lambeth,51.46471787483233,-0.10295598494496043,531873.9641457032,175677.92507531442,100023000000,E05000420,Coldharbour,www.facebook.com/artichokeprintmaking/,E09000022,12/27/2020
Lambeth,Makerspaces,Bainbridge Print,,1 Sydenham Place,Lansdowne Hille,E09000022,Lambeth,51.43439246171123,-0.10452892782785053,531851.9641521145,172302.92599164753,10008789269,E05000424,Knight's Hill,www.bainbridgeprint.com,E09000022,12/27/2020
Lambeth,Makerspaces,Clapham Pottery,Clapham Pottery,4a Rectory Grove,Clapham,E09000022,Lambeth,51.46819321484284,-0.1391237306527448,529351.9648325696,175999.9249885435,100023000000,E05000419,Clapham Town,www.northstreetpotters.com/,E09000022,12/27/2020
Lambeth,Makerspaces,Fotofusion,Fotofusion,17a Electric Lane,London,E09000022,Lambeth,51.46187314260279,-0.11391408612131228,531120.9643492186,175341.92516768503,100023000000,E05000420,Coldharbour,www.photofusion.org,E09000022,12/27/2020
Lambeth,Makerspaces,Meanwhile Space,Loughborough Junction Arches,Loughborough Junction Arches,Ridgeway Road,E09000022,Lambeth,51.46626476841234,-0.10296382383819205,531868.9641467752,175849.9250288314,100024000000,E05000420,Coldharbour,https://www.meanwhilespace.com/single-post/2017/08/16/Loughborough-Junction-Arches,E09000022,12/27/2020
Lambeth,Makerspaces,Parade Mews Pottery,Parade Mews Pottery,7 Parade Mews,Tulse Hill,E09000022,Lambeth,51.439818125966646,-0.1069375210447165,531668.9642003195,172901.92582948686,200001000000,E05000430,Streatham Hill,www.parademewspottery.co.uk/,E09000022,12/27/2020
Lambeth,Makerspaces,The Camera Club,The Camera Club,16 Bowden Street,,E09000022,Lambeth,51.48766563246298,-0.11064658257435137,531273.9643089506,178215.92438546073,100023000000,E05000427,Prince's,www.thecameraclub.co.uk,E09000022,12/27/2020
Lambeth,Makerspaces,The Remakery,The Remakery,4-20 Paulet Road,Loughborough Junction,E09000022,Lambeth,51.47054969023066,-0.10323248805183086,531837.9641551654,176325.92490086198,10001110677,E05000436,Vassall,www.remakery.org/,E09000022,12/27/2020
Lambeth,Making and manufacturing,Creatives Inc. (UK) Limited,11A Streatham Common South ,,,E09000022,Lambeth,51.42045999018281,-0.12503989230116175,530465.9646492888,170716.92654682073,1.00022E+11,E05000431,Streatham South,https://www.creativesinc.com,E09000022,12/27/2020
Lambeth,Museums and public galleries,Cinema Museum,"The Masterâs House, The Old Lambeth Workhouse",2 Dugard Way,Kennington,E09000022,Lambeth,51.492280453305916,-0.10516891141163312,531640.964330746,178738.92436423805,10023852579,E05000427,Prince's,http://www.rmg.co.uk/cuttysark,E09000022,12/27/2020
Lambeth,Museums and public galleries,Black Cultural Archives,1 Windrush Square,NA,NA,E09000022,Lambeth,51.460516379123135,-0.1145723141893383,531079.1244554447,175189.87528240157,10091118537,E05000420,Coldharbour,www.bcaheritage.org.uk,E09000022,12/27/2020
Lambeth,Museums and public galleries,The Garden Museum,5 Lambeth Palace Rd,Lambeth,NA,E09000022,Lambeth,51.49504922782068,-0.12019535812389283,530589.9646163671,179019.92428933864,100023225605,E05000416,Bishop's,www.​gardenmuseum.​org.​uk,E09000022,12/27/2020
Lambeth,Museums and public galleries,Hayward Gallery,Southbank Centre,Belvedere Road,NA,E09000022,Lambeth,51.50613299043132,-0.11544481541841825,530887.9645341901,180260.92395209556,200000480099,E05000416,Bishop's,http://ticketing.southbankcentre.co.uk/venues/hayward-gallery#,E09000022,12/27/2020
Lambeth,Museums and public galleries,Florence Nightingale Museum,St. Thomas Hospital,2 Lambeth Palace Road,NA,E09000022,Lambeth,51.50005200097535,-0.11700694165560173,530796.9645598343,179581.92413936724,200000488107,E05000416,Bishop's,http://www.florence-nightingale.co.uk/,E09000022,12/27/2020
Lambeth,Museums and public galleries,Migration Museum and the London Fire Brigade Museum,26 Lambeth High St,,,,,51.49308936141581,-0.12039991354780981,530581.3642159238,178801.62112487975,,,,https://www.london-fire.gov.uk/museum/   https://www.migrationmuseum.org/,E09000022,12/27/2020
Lambeth,Music (office based businesses),Fire,Arch 39-43 Parry Street,Lambeth,,E09000022,LAMBETH,51.484720185172655,-0.12378892078627918,530369.9645537378,177864.92448238883,100023383445,E05000426,Oval,www.firelondon.net/,E09000022,12/27/2020
Lambeth,Music (office based businesses),Pieces Of 8 Music,32b Stockwell Park Cres ,,,E09000022,Lambeth,51.47134896028175,-0.11823193679868692,530793.9645599802,176387.92500454077,0,E05000429,Stockwell,,E09000022,12/27/2020
Lambeth,Music (office based businesses),Westbury Music Ltd,2 Tunstall Road,Lambeth,,E09000022,Lambeth,51.462867790893995,-0.11537029571650838,531016.9644996633,175449.92526003777,200000000000,E05000421,Ferndale,http://www.westburymusic.net,E09000022,12/27/2020
Lambeth,Music (office based businesses),Liquid Management,The Westbury 418,Wandsworth Road,Lambeth,E09000022,Lambeth,51.47014707853354,-0.140412164375825,529256.9649794454,176214.92505182914,100000000000,E05000419,Clapham Town,,E09000022,12/27/2020
Lambeth,Music recording studios,Red Mastering Studio,Ashley Lodge 122a Thurlow Park Rd,,,E09000022,Lambeth,51.44067554834561,-0.0943690170075238,532539.9640856383,173019.92591864156,0,E05000434,Thurlow Park,onlinemastering.org.uk,E09000022,12/27/2020
Lambeth,Music recording studios,Sonica Studios Ltd,17a Welmar Mews,Lambeth,,E09000022,Lambeth,51.458950740488696,-0.1318987799280193,529879.964806999,174984.92538478255,10093378271,E05000418,Clapham Common,www.sonicastudios.co.uk,E09000022,12/27/2020
Lambeth,Music recording studios,The Dairy Studios,43 Tunstall Road,Lambeth,,E09000022,Lambeth,51.462249204531425,-0.11772793399320054,530854.9645432346,175376.92528024764,100000000000,E05000421,Ferndale,http://www.thedairy.co.uk,E09000022,12/27/2020
Lambeth,Music rehearsal studios,Octagon (formally known as Artspace Studio),Flat 130,Brixton Hill,Lambeth,E09000022,Lambeth,51.45289209933938,-0.12136560737332315,530628.9646073524,174329.92556528893,100000000000,E05000417,Brixton Hill,www.artspacestudio.co.uk,E09000022,12/27/2020
Lambeth,Music venues (all),Fire,Arch 39-43 Parry Street,Lambeth,,E09000022,LAMBETH,51.484720185172655,-0.12378892078627918,530369.9645537378,177864.92448238883,100023383445,E05000426,Oval,www.firelondon.net/,E09000022,12/27/2020
Lambeth,Music venues (all),Railway,2 Greyhound Lane,Lambeth,,E09000022,Lambeth,51.418292541532765,-0.13460641861353012,529806.9648274761,170458.9266147326,100000000000,E05000431,Streatham South,www.therailwaysw16.co.uk,E09000022,12/27/2020
Lambeth,Music venues (all),Earl Ferrers,22 Ellora Road,Lambeth,,E09000022,Lambeth,51.423739039456116,-0.13271617506710534,529922.9647977136,171067.92644872185,100000000000,E05000428,St. Leonard's,,E09000022,12/27/2020
Lambeth,Music venues (all),The Hideaway,2 Empire Mews,Lambeth,,E09000022,Lambeth,51.426606974694415,-0.13041281030387686,530074.9647564064,171390.92636150663,100000000000,E05000428,St. Leonard's,http://www.hideawaylive.co.uk/,E09000022,12/27/2020
Lambeth,Music venues (all),Pratts & Payne,103 Streatham High Road,Lambeth,,E09000022,Lambeth,51.43014579472934,-0.12957787198954002,530122.9647425516,171785.92625544785,200000000000,E05000428,St. Leonard's,,E09000022,12/27/2020
Lambeth,Music venues (all),The White Lion,234 Streatham High Road,Lambeth,,E09000022,Lambeth,51.43062554385583,-0.12977407495730645,530107.964746516,171838.92624119652,100000000000,E05000428,St. Leonard's,www.whitelionsw16.co.uk,E09000022,12/27/2020
Lambeth,Music venues (all),The Portico Gallery,23 Knights Hill,Lambeth,,E09000022,Lambeth,51.43102209243487,-0.10409294646012204,531891.9642639116,171928.92621473194,200000000000,E05000424,Knight's Hill,,E09000022,12/27/2020
Lambeth,Music venues (all),Five Bells,68-70 Streatham High Road,Lambeth,,E09000022,Lambeth,51.43629474673781,-0.1283196233337309,530192.9647235762,172471.92606991518,100000000000,E05000428,St. Leonard's,www.fivebellspub.co.uk,E09000022,12/27/2020
Lambeth,Music venues (all),Porky's Wine Bar,23-27 Sternhold Avenue,Lambeth,,E09000022,Lambeth,51.43858273636055,-0.12799589665956698,530208.9647198159,172726.9260004356,100000000000,E05000430,Streatham Hill,,E09000022,12/27/2020
Lambeth,Music venues (all),The White Hart,367 Norwood Road,Lambeth,,E09000022,Lambeth,51.43993619774154,-0.10589662845623204,531740.9643028709,172916.92594686913,100000000000,E05000434,Thurlow Park,www.whitehart-tulsehill.com,E09000022,12/27/2020
Lambeth,Music venues (all),The Railway Tavern,7 Station Rise,Lambeth,,E09000022,Lambeth,51.440152731881206,-0.10538405315845671,531775.9642932734,172941.92594002164,100000000000,E05000434,Thurlow Park,www.therailwaytulsehill.co.uk,E09000022,12/27/2020
Lambeth,Music venues (all),Florence,131-133 Dulwich Road,Lambeth,,E09000022,Lambeth,51.45277594506903,-0.10299043322130534,531905.9642593109,174349.92555940774,100000000000,E05000423,Herne Hill,www.florencehernehill.com,E09000022,12/27/2020
Lambeth,Music venues (all),Gigalum,42954 Cavendish Parade,Clapham Common South Side,Lambeth,E09000022,Lambeth,51.45364982141842,-0.14636459562055165,528889.9650786184,174369.9255535981,200000000000,E05000418,Clapham Common,www.gigalum.com,E09000022,12/27/2020
Lambeth,Music venues (all),Off The Cuff,301-303 Railton Road,Lambeth,,E09000022,Lambeth,51.4529771892171,-0.10208971703526047,531967.9642424079,174373.92555273452,100000000000,E05000423,Herne Hill,www.offthecuffbar.com,E09000022,12/27/2020
Lambeth,Music venues (all),The White Horse,94 Brixton Hill,Lambeth,,E09000022,Lambeth,51.45481343393497,-0.12004888052231824,530714.9645829145,174545.9255066681,100000000000,E05000417,Brixton Hill,,E09000022,12/27/2020
Lambeth,Music venues (all),The Hootananny Brixton,95 Effra Road,Lambeth,,E09000022,Lambeth,51.45543226131768,-0.11322953940023604,531186.9644546539,174626.92548430397,100000000000,E05000423,Herne Hill,www.hootanannybrixton.co.uk,E09000022,12/27/2020
Lambeth,Music venues (all),Effra Social,89 Effra Road,Lambeth,,E09000022,Lambeth,51.45566939349145,-0.11343567210046981,531171.9644586137,174652.92547721748,100000000000,E05000423,Herne Hill,www.effrasocial.com,E09000022,12/27/2020
Lambeth,Music venues (all),Gremio De Brixton,Lambeth ,,,E09000022,Lambeth,51.45967772582018,-0.11607748385161518,530976.9645097248,175093.92535721982,10090196516,E05000435,Tulse Hill,,E09000022,12/27/2020
Lambeth,Music venues (all),Upstairs At The Ritzy,Brixton Rd London,,,E09000022,Lambeth,51.46140471168854,-0.11442284890869181,531086.964480496,175288.92530378787,100023387982,E05000420,Coldharbour,www.picturehouses.com/cinema/Ritzy_Picturehouse/Whats_On?filter=Upstairs,E09000022,12/27/2020
Lambeth,Music venues (all),So.uk,165 Clapham High Street,Lambeth,,E09000022,Lambeth,51.46195366186845,-0.13694442168223775,529520.9649068386,175309.92529654893,100000000000,E05000419,Clapham Town,www.soukclapham.co.uk/,E09000022,12/27/2020
Lambeth,Music venues (all),The Prince Of Wales,467-469 Brixton Road,Lambeth,,E09000022,Lambeth,51.46160153521044,-0.11491859316370416,531051.9644899636,175309.9252981383,100000000000,E05000420,Coldharbour,,E09000022,12/27/2020
Lambeth,Music venues (all),Dogstar,389 Coldharbour Lane,Lambeth,,E09000022,Lambeth,51.46160682454843,-0.11189524610879871,531261.9644333741,175315.92529606813,100000000000,E05000420,Coldharbour,www.dogstarbrixton.com/,E09000022,12/27/2020
Lambeth,Music venues (all),Studio Voltaire,1a Nelsons Row,Lambeth,,E09000022,Lambeth,51.46197333079722,-0.13422275943075884,529709.9648550838,175316.92529458326,100000000000,E05000419,Clapham Town,,E09000022,12/27/2020
Lambeth,Music venues (all),Stane Street Syndicate,196 Clapham High Street,Lambeth,,E09000022,Lambeth,51.46218694402101,-0.1380434337305076,529443.9649280746,175333.92529014836,100000000000,E05000419,Clapham Town,www.thestanestreetsyndicate.co.uk,E09000022,12/27/2020
Lambeth,Music venues (all),Chip Shop Brixton,380 Coldharbour Lane,Lambeth,,E09000022,Lambeth,51.46194304538005,-0.112111707856067,531245.9644377225,175352.92528603505,200000000000,E05000420,Coldharbour,www.chipshopbxtn.com/home,E09000022,12/27/2020
Lambeth,Music venues (all),Revolution,95-97 Clapham High Street,Lambeth,,E09000022,Lambeth,51.4629902201434,-0.13426769197631916,529703.9648573596,175429.92526402627,100000000000,E05000419,Clapham Town,,E09000022,12/27/2020
Lambeth,Music venues (all),Infernos,146 Clapham High Street,Lambeth,,E09000022,Lambeth,51.463132908955345,-0.13588867609488106,529590.9648883236,175442.92526052025,100000000000,E05000419,Clapham Town,www.infernos.co.uk,E09000022,12/27/2020
Lambeth,Music venues (all),Lotus,76 Clapham High Street,Lambeth,,E09000022,Lambeth,51.46372651152362,-0.13363302462919216,529745.9648463553,175512.92524164414,100000000000,E05000419,Clapham Town,www.lotusbar.co.uk,E09000022,12/27/2020
Lambeth,Music venues (all),Pop Brixton,Unit S05 Pop Brixton,49,Brixton Station Road,E09000022,Lambeth,51.46345746763181,-0.112337150753087,531225.9644432903,175520.92524036457,10093056849,E05000420,Coldharbour,www.popbrixton.org,E09000022,12/27/2020
Lambeth,Music venues (all),Simulacra Studio,302-304 Barrington Road,Lambeth,,E09000022,Lambeth,51.463624247809626,-0.10762261245280373,531552.9643548931,175547.92523253453,100000000000,E05000420,Coldharbour,www.simulacrastudio.com,E09000022,12/27/2020
Lambeth,Music venues (all),Fu Manchu,15-16 Lendal Terrace,Lambeth,,E09000022,Lambeth,51.46439483668228,-0.12986259588450472,530005.9647757225,175593.9252200403,200000000000,E05000425,Larkhall,,E09000022,12/27/2020
Lambeth,Music venues (all),Phonox,418 Brixton Road,Lambeth,,E09000022,Lambeth,51.46444874354095,-0.11470051302165256,531058.9644886206,175626.9252117285,100000000000,E05000421,Ferndale,www.phonox.co.uk/,E09000022,12/27/2020
Lambeth,Music venues (all),Landor,70 Landor Road,Lambeth,,E09000022,Lambeth,51.465664931126,-0.12605301098259292,530266.9647049839,175741.92518013122,100000000000,E05000425,Larkhall,www.thelandorpub.com,E09000022,12/27/2020
Lambeth,Music venues (all),Bread & Roses,68 Clapham Manor Street,Lambeth,,E09000022,Lambeth,51.46586805045457,-0.13654034960350986,529537.964904327,175745.92517868086,100000000000,E05000419,Clapham Town,www.breadandrosespub.com,E09000022,12/27/2020
Lambeth,Music venues (all),O2 Academy Brixton,211 Stockwell Road,Lambeth,,E09000022,Lambeth,51.46565139752463,-0.1151116647233831,531026.9644975244,175759.92517551314,100000000000,E05000421,Ferndale,www.academymusicgroup.com/o2academybrixton,E09000022,12/27/2020
Lambeth,Music venues (all),Cafe Cairo,88 Landor Road,Lambeth,,E09000022,Lambeth,51.46587304046033,-0.12500788042525068,530338.9646853729,175766.92517339357,100000000000,E05000425,Larkhall,,E09000022,12/27/2020
Lambeth,Music venues (all),Block 336,336 Brixton Road,Lambeth,,E09000022,Lambeth,51.468147986482585,-0.11322347157943403,531150.9644639213,176040.9250990359,10091845237,E05000421,Ferndale,www.block336.com,E09000022,12/27/2020
Lambeth,Music venues (all),Phoenix,348 Clapham Road,Lambeth,,E09000022,Lambeth,51.46883930868983,-0.12717568038331165,530179.9647286909,176092.9250848326,200000000000,E05000425,Larkhall,www.phoenixclapham.com,E09000022,12/27/2020
Lambeth,Music venues (all),Brixton Jamm,261 Brixton Road,Lambeth,,E09000022,Lambeth,51.4707969001147,-0.11186154991326022,531237.9644398823,176337.9250186375,100000000000,E05000436,Vassall,www.brixtonjamm.org/,E09000022,12/27/2020
Lambeth,Music venues (all),Longfield Hall,50 Knatchbull Road,Lambeth,,E09000022,Lambeth,51.47174705795402,-0.104982733746071,531712.964311232,176455.92498738604,10091908880,E05000436,Vassall,,E09000022,12/27/2020
Lambeth,Music venues (all),Bar 48,48 Brixton Road,Lambeth,,E09000022,Lambeth,51.47939587003646,-0.11198191436261899,531204.9644488775,177293.92475926684,100000000000,E05000426,Oval,,E09000022,12/27/2020
Lambeth,Music venues (all),Brown Derby,336 Kennington Park Road,Lambeth,,E09000022,Lambeth,51.48124518892448,-0.11346103798314205,531096.9644781693,177496.92470425402,100000000000,E05000426,Oval,www.thebrownderby.co.uk,E09000022,12/27/2020
Lambeth,Music venues (all),The Eagle,349 Kennington Lane,Lambeth,,E09000022,Lambeth,51.486204349892894,-0.11932044598435741,530675.9645921639,178037.92455725285,100000000000,E05000426,Oval,www.eaglelondon.com/,E09000022,12/27/2020
Lambeth,Music venues (all),Royal Vauxhall Tavern,372 Kennington Lane,Lambeth,,E09000022,Lambeth,51.48638804730302,-0.12180475219054171,530502.9646395418,178053.92455237964,100000000000,E05000427,Prince's,www.vauxhalltavern.com,E09000022,12/27/2020
Lambeth,Music venues (all),The Old Dairy At Vauxhall City Farm,Vauxhall City Farm165 Tyers Street,,,E09000022,Lambeth,51.48740900068809,-0.11926199830958932,530676.5813524486,178171.98732538265,0,E05000427,Prince's,https://www.facebook.com/musicatthefarm,E09000022,12/27/2020
Lambeth,Music venues (all),Old Red Lion,42 Kennington Park Road,Lambeth,,E09000022,Lambeth,51.489484192353345,-0.1051984065445971,531646.9643300953,178427.9244484465,100000000000,E05000427,Prince's,www.theoldredlion.com,E09000022,12/27/2020
Lambeth,Music venues (all),Brasserie & Wine Bar Toulouse Lautrec,140 Newington Butts,Lambeth,,E09000022,Lambeth,51.49109254733166,-0.10344630435145945,531763.9642977985,178609.9243988057,200000000000,E05000427,Prince's,www.toulouselautrec.co.uk,E09000022,12/27/2020
Lambeth,Music venues (all),Iklectik,The Grey Studio 20,Carlisle Lane,Lambeth,E09000022,Lambeth,51.49848826981217,-0.11650952020154536,530835.9645494607,179408.92418494687,10091119428,E05000416,Bishop's,www.iklectikartlab.com,E09000022,12/27/2020
Lambeth,Music venues (all),Primo Bar,200 Westminster Bridge Road,Lambeth,,E09000022,Lambeth,51.50072485463852,-0.11690715366355847,530801.964558496,179656.924118613,10008793643,E05000416,Bishop's,,E09000022,12/27/2020
Lambeth,Music venues (all),The Vaults,Arch 236 Leake Street,Lambeth,,E09000022,Lambeth,51.501975770530606,-0.11528500845229545,530910.964528647,179798.92407924274,10091121720,E05000416,Bishop's,,E09000022,12/27/2020
Lambeth,Music venues (all),Old Vic Theatre,103 The Cut,Lambeth,,E09000022,Lambeth,51.50193785961511,-0.10901876895994957,531345.9644102422,179805.92407703603,200000000000,E05000416,Bishop's,www.oldvictheatre.com,E09000022,12/27/2020
Lambeth,Music venues (all),Young Vic,66 The Cut,Lambeth,,E09000022,Lambeth,51.503276906189924,-0.10729184710412847,531461.9643784248,179957.92403534387,100023226258,E05000416,Bishop's,www.youngvic.org/,E09000022,12/27/2020
Lambeth,Music venues (all),Purcell Room,Southbank Centre Belvedere Rd,Lambeth,London,E09000022,Lambeth,51.50608349919258,-0.11628264048859617,530829.9645500954,180253.92395343713,0,E05000416,Bishop's,www.southbankcentre.co.uk/venues/purcell-room,E09000022,12/27/2020
Lambeth,Music venues (all),Royal Festival Hall,Southbank Centre Belvedere Road,Lambeth,,E09000022,Lambeth,51.50608349919258,-0.11628264048859617,530829.9645500954,180253.92395343713,200000000000,E05000416,Bishop's,www.southbankcentre.co.uk/venues/royal-festival-hall,E09000022,12/27/2020
Lambeth,Music venues (all),Rambert,99 Upper Ground,Lambeth,,E09000022,Lambeth,51.50617409721971,-0.11352657974243688,531020.9644980449,180268.92394958116,100000000000,E05000416,Bishop's,,E09000022,12/27/2020
Lambeth,Music venues (all),"Olivier Theatre, National",Upper Ground Lambeth,,,E09000022,Lambeth,51.507158409876716,-0.11546012516383546,530883.9645352225,180374.92392008693,200000000000,E05000416,Bishop's,www.nationaltheatre.org.uk/your-visit/national-theatre-venues/olivier-theatre,E09000022,12/27/2020
Lambeth,Music venues (grassroots),The Hideaway,2 Empire Mews,Lambeth,,E09000022,Lambeth,51.426606974694415,-0.13041281030387686,530074.9647564064,171390.92636150663,100000000000,E05000428,St. Leonard's,http://www.hideawaylive.co.uk/,E09000022,12/27/2020
Lambeth,Music venues (grassroots),The White Lion,234 Streatham High Road,Lambeth,,E09000022,Lambeth,51.43062554385583,-0.12977407495730645,530107.964746516,171838.92624119652,100000000000,E05000428,St. Leonard's,www.whitelionsw16.co.uk,E09000022,12/27/2020
Lambeth,Music venues (grassroots),Off The Cuff,301-303 Railton Road,Lambeth,,E09000022,Lambeth,51.4529771892171,-0.10208971703526047,531967.9642424079,174373.92555273452,100000000000,E05000423,Herne Hill,www.offthecuffbar.com,E09000022,12/27/2020
Lambeth,Music venues (grassroots),The Hootananny Brixton,95 Effra Road,Lambeth,,E09000022,Lambeth,51.45543226131768,-0.11322953940023604,531186.9644546539,174626.92548430397,100000000000,E05000423,Herne Hill,www.hootanannybrixton.co.uk,E09000022,12/27/2020
Lambeth,Music venues (grassroots),Upstairs At The Ritzy,Brixton Rd London,,,E09000022,Lambeth,51.46140471168854,-0.11442284890869181,531086.964480496,175288.92530378787,100023387982,E05000420,Coldharbour,www.picturehouses.com/cinema/Ritzy_Picturehouse/Whats_On?filter=Upstairs,E09000022,12/27/2020
Lambeth,Music venues (grassroots),Brasserie & Wine Bar Toulouse Lautrec,140 Newington Butts,Lambeth,,E09000022,Lambeth,51.49109254733166,-0.10344630435145945,531763.9642977985,178609.9243988057,200000000000,E05000427,Prince's,www.toulouselautrec.co.uk,E09000022,12/27/2020
Lambeth,Outdoor spaces for cultural use,Brockwell Park,Norwood Rd,,,E09000022,Lambeth,51.451350588316885,-0.10908046047139286,531486.9337343229,174180.48157597275,,E05000423,Herne Hill,,E09000022,12/27/2020
Lambeth,Pubs,Blues Kitchen,40 Acre Lane,Brixton,,E09000022,Lambeth,51.460313880106504,-0.12041312354054397,530673.9645917199,175156.9253405594,,E05000421,Ferndale,,E09000022,12/27/2020
Lambeth,Pubs,White Bear,138 Kennington Park Road,Kennington,London,E09000022,Lambeth,51.48670651951157,-0.10805029810478682,531456.9643819374,178113.92453507066,,E05000427,Prince's,,E09000022,12/27/2020
Lambeth,Pubs,Prince of Wales,48 Cleaver Square,Kennington,London,E09000022,Lambeth,51.48812005783403,-0.10871201200290603,531406.9643951524,178269.92449248635,,E05000427,Prince's,,E09000022,12/27/2020
Lambeth,Pubs,Tommyfield,185 Kennington Lane,Kennington,London,E09000022,Lambeth,51.488938503020506,-0.11039230177969278,531287.9644271719,178357.92446856643,,E05000427,Prince's,,E09000022,12/27/2020
Lambeth,Pubs,Cock,340 Kennington Road,Kennington,London,E09000022,Lambeth,51.48673065841575,-0.11177992664919248,531197.9644515422,178109.92453685595,,E05000426,Oval,,E09000022,12/27/2020
Lambeth,Pubs,Hanover Arms,326 Kennington Park Road,Kennington,London,E09000022,Lambeth,51.48167029896342,-0.1130546439728184,531123.9644709246,177544.92469167657,,E05000426,Oval,,E09000022,12/27/2020
Lambeth,Pubs,Brown Derby,336 Kennington Park Road,Kennington,London,E09000022,Lambeth,51.48167029896342,-0.1130546439728184,531123.9644709246,177544.92469167657,,E05000426,Oval,,E09000022,12/27/2020
Lambeth,Pubs,Brasserie Toulouse Lautrec,140 Newington Butts,Kennington,London,E09000022,Lambeth,51.49097069090635,-0.10369625102974502,531746.964302367,178595.92440312402,,E05000427,Prince's,,E09000022,12/27/2020
Lambeth,Pubs,Mansion House,48 Kennington Park Road,Kennington,London,E09000022,Lambeth,51.48934296329865,-0.10536271385893271,531635.9643330183,178411.92445332778,,E05000427,Prince's,,E09000022,12/27/2020
Lambeth,Pubs,Old Red Lion,42 Kennington Park Road,Kennington,London,E09000022,Lambeth,51.48934296329865,-0.10536271385893271,531635.9643330183,178411.92445332778,,E05000427,Prince's,,E09000022,12/27/2020
Lambeth,Pubs,King's Arms,98 Kennington Lane,Kennington,London,E09000022,Lambeth,51.49000859455019,-0.10815850262900074,531439.9643859032,178480.9244346922,,E05000427,Prince's,,E09000022,12/27/2020
Lambeth,Pubs,Black Dog,112 Vauxhall Walk,Kennington,Vauxhall,E09000022,Lambeth,51.48874995342292,-0.12104508805892808,530548.9646271598,178317.92448017182,,E05000427,Prince's,,E09000022,12/27/2020
Lambeth,Pubs,Royal Vauxhall Tavern,372 Kennington Lane,Kennington,Vauxhall,E09000022,Lambeth,51.486524888566024,-0.11968175913688346,530649.9645992457,178072.92454801442,,E05000427,Prince's,,E09000022,12/27/2020
Lambeth,Pubs,Beehive,51 Durham Street,Kennington,Vauxhall,E09000022,Lambeth,51.48512591892345,-0.11880307933010334,530714.9645811405,177918.9245907956,,E05000426,Oval,,E09000022,12/27/2020
Lambeth,Pubs,Pilgrim,247 Kennington Lane,Kennington,London,E09000022,Lambeth,51.48671055643582,-0.11388373457106639,531051.9644907801,178103.92453889182,,E05000426,Oval,,E09000022,12/27/2020
Lambeth,Pubs,Royal Oak,355 Kennington Lane,Kennington,Vauxhall,E09000022,Lambeth,51.48620434989746,-0.11932044598556453,530675.964592066,178037.9245577581,,E05000426,Oval,,E09000022,12/27/2020
Lambeth,Pubs,Duchy Arms,63 Sancroft Street,Kennington,London,E09000022,Lambeth,51.488897258165935,-0.11285720094361278,531116.9644733735,178348.9244712856,,E05000427,Prince's,,E09000022,12/27/2020
Lambeth,Pubs,Jolly Gardeners,49 Black Prince Road,Kennington,Lambeth South,E09000022,Lambeth,51.49163973438917,-0.11899594859061521,530682.9645913572,178642.9243903946,,E05000427,Prince's,,E09000022,12/27/2020
Lambeth,Pubs,Dog House,293 Kennington Road,Kennington,Lambeth South,E09000022,Lambeth,51.49002294099849,-0.11072199894256107,531261.9644341202,178477.9244356663,,E05000427,Prince's,,E09000022,12/27/2020
Lambeth,Pubs,Black Prince,6 Black Prince Road,Kennington,Lambeth South,E09000022,Lambeth,51.48964838848243,-0.11203392011449204,531171.964458506,178433.9244478366,,E05000427,Prince's,,E09000022,12/27/2020
Lambeth,Pubs,Oxymoron at the Royal Oak,78 Fitzalan Street,Kennington,Lambeth South,E09000022,Lambeth,51.49324110244771,-0.1128794950677523,531102.9644771549,178831.92433931993,,E05000416,Bishop's,,E09000022,12/27/2020
Lambeth,Pubs,Tankard,111 Kennington Road,Kennington,Lambeth South,E09000022,Lambeth,51.49420061912476,-0.1104772167190194,531266.9644324206,178942.92430961912,,E05000427,Prince's,,E09000022,12/27/2020
Lambeth,Pubs,Walcot 1830,171 Kennington Road,Kennington,Lambeth South,E09000022,Lambeth,51.49420061912476,-0.1104772167190194,531266.9644324206,178942.92430961912,,E05000427,Prince's,,E09000022,12/27/2020
Lambeth,Pubs,Horse & Stables,122-124 Westminster Bridge Road,London,Lambeth North,E09000022,Lambeth,51.49913104324951,-0.11174282344831385,531164.964459767,179488.92416368594,,E05000416,Bishop's,,E09000022,12/27/2020
Lambeth,Pubs,Camel & Artichoke,121 Lower Marsh,London,Waterloo,E09000022,Lambeth,51.50065940706271,-0.11339421770602205,531045.9644920088,179655.92411908717,,E05000416,Bishop's,,E09000022,12/27/2020
Lambeth,Pubs,Duke of Sussex,23 Baylis Road,London,Waterloo,E09000022,Lambeth,51.50106743122007,-0.11025072002131502,531262.964432887,179706.9241047926,,E05000416,Bishop's,,E09000022,12/27/2020
Lambeth,Pubs,Hercules,2 Kennington Road,London,Lambeth North,E09000022,Lambeth,51.49759273642486,-0.11226746357190584,531132.9644686091,179316.9242097006,,E05000416,Bishop's,,E09000022,12/27/2020
Lambeth,Pubs,Steam Engine,41-42 Cosser Street,London,Lambeth North,E09000022,Lambeth,51.497109768206755,-0.11243149895728087,531122.964471372,179262.92422414146,,E05000416,Bishop's,,E09000022,12/27/2020
Lambeth,Pubs,Pineapple,53-55 Hercules Road,London,Lambeth North,E09000022,Lambeth,51.497220251837284,-0.11370917873713891,531033.9644955872,179272.92422154837,,E05000416,Bishop's,,E09000022,12/27/2020
Lambeth,Pubs,Waterloo Tap,"Arch 147, Sutton Walk",London,Waterloo,E09000022,Lambeth,51.49199024974827,-0.12010515874546826,530604.9646124924,178679.9243802206,,E05000427,Prince's,,E09000022,12/27/2020
Lambeth,Pubs,Crown & Cushion,133 Westminster Bridge Road,London,Lambeth North,E09000022,Lambeth,51.499128413180834,-0.11325575780747293,531059.9644883435,179485.9241646235,,E05000416,Bishop's,,E09000022,12/27/2020
Lambeth,Pubs,Windmill,44 Lambeth High Street,London,Lambeth North,E09000022,Lambeth,51.49312997167441,-0.1205192466443169,530572.9646210949,178805.9243464418,,E05000427,Prince's,,E09000022,12/27/2020
Lambeth,Pubs,Flag & Whistle,113 Lambeth Road,London,Lambeth North,E09000022,Lambeth,51.494494766550055,-0.11870550737991288,530694.964588052,178960.92430499993,,E05000416,Bishop's,,E09000022,12/27/2020
Lambeth,Pubs,Beer House Waterloo,"Unit 4, Waterloo Mainline Railway Station",London,Waterloo,E09000022,Lambeth,51.503147820822306,-0.11323375867709715,531049.9644905273,179932.9240427282,,E05000416,Bishop's,,E09000022,12/27/2020
Lambeth,Pubs,Sports Bar & Grill,"Unit B1, The Balcony, Waterloo Railway Station",London,Waterloo,E09000022,Lambeth,51.503147820822306,-0.11323375867709715,531049.9644905273,179932.9240427282,,E05000416,Bishop's,,E09000022,12/27/2020
Lambeth,Pubs,Slug & Lettuce,5 Chicheley Street,London,Waterloo,E09000022,Lambeth,51.50259249113028,-0.116729262924791,530808.964556226,179864.9240615446,,E05000416,Bishop's,,E09000022,12/27/2020
Lambeth,Pubs,All Bar One,1-3 Chicheley Street,London,Waterloo,E09000022,Lambeth,51.5026319062128,-0.11694377143778392,530793.9645603041,179868.9240604416,,E05000416,Bishop's,,E09000022,12/27/2020
Lambeth,Pubs,Three Stags,67 Kennington Road,London,Lambeth North,E09000022,Lambeth,51.49689398006495,-0.1113166591107206,531200.9644501591,179240.92422995652,,E05000416,Bishop's,,E09000022,12/27/2020
Lambeth,Pubs,Vaulty Towers,34 Lower Marsh,London,Waterloo,E09000022,Lambeth,51.50103855608173,-0.11180802946422286,531154.9644622846,179700.92410656298,,E05000416,Bishop's,,E09000022,12/27/2020
Lambeth,Pubs,Walrus,172 Westminster Bridge Road,London,Waterloo,E09000022,Lambeth,51.499738401144455,-0.1137204292570632,531025.9644975421,179552.92414677131,,E05000416,Bishop's,,E09000022,12/27/2020
Lambeth,Pubs,Rose,35 Albert Embankment,London,Lambeth North,E09000022,Lambeth,51.489602558720506,-0.12262338044615208,530436.9646576825,178409.92445471947,,E05000427,Prince's,,E09000022,12/27/2020
Lambeth,Pubs,Mother Kelly's,"Arch 76, 89 Albert Embankment",London,Lambeth North,E09000022,Lambeth,51.48795635752326,-0.12371370255174262,530365.9646769414,178224.92450553545,,E05000427,Prince's,,E09000022,12/27/2020
Lambeth,Pubs,Tamesis Dock,Albert Embankment,London,Lambeth,E09000022,Lambeth,51.48795635752326,-0.12371370255174262,530365.9646769414,178224.92450553545,,E05000427,Prince's,,E09000022,12/27/2020
Lambeth,Pubs,Anchor & Hope,36 The Cut,London,Waterloo,E09000022,Lambeth,51.50350932293203,-0.10664820562404388,531505.9643663035,179984.92402846314,,E05000416,Bishop's,,E09000022,12/27/2020
Lambeth,Pubs,Windmill,86 The Cut,London,Waterloo,E09000022,Lambeth,51.50301845472087,-0.10799419724287738,531413.9643914422,179927.92404407,,E05000416,Bishop's,,E09000022,12/27/2020
Lambeth,Pubs,Cut,"Young Vic, 66 The Cut",London,Waterloo,E09000022,Lambeth,51.50327690619449,-0.10729184710533429,531461.9643783269,179957.9240358505,,E05000416,Bishop's,,E09000022,12/27/2020
Lambeth,Pubs,Stage Door,30 Webber Street,London,Waterloo,E09000022,Lambeth,51.50125720779106,-0.10751965193384873,531451.9643814155,179732.9240974586,,E05000416,Bishop's,,E09000022,12/27/2020
Lambeth,Pubs,Fire Station,150 Waterloo Road,London,Waterloo,E09000022,Lambeth,51.502485778375714,-0.110653102833473,531230.9644413575,179863.92406167876,,E05000416,Bishop's,,E09000022,12/27/2020
Lambeth,Pubs,Hole in the Wall,5 Mepham Street,London,Waterloo,E09000022,Lambeth,51.50364969094051,-0.11312656306184753,531055.964488814,179988.92402729334,,E05000416,Bishop's,,E09000022,12/27/2020
Lambeth,Pubs,Kings Arms,25 Roupell Street,London,Waterloo,E09000022,Lambeth,51.504566936195175,-0.10977445349789358,531285.9644260264,180096.92399768974,,E05000416,Bishop's,,E09000022,12/27/2020
Lambeth,Pubs,White Hart,29 Cornwall Road,London,Waterloo,E09000022,Lambeth,51.50508457990585,-0.1106464251998368,531223.9644428259,180152.92398226057,,E05000416,Bishop's,,E09000022,12/27/2020
Lambeth,Pubs,Wellington,81-83 Waterloo Road,London,Waterloo,E09000022,Lambeth,51.50401202137423,-0.11161301164527826,531159.964460436,180031.92401548632,,E05000416,Bishop's,,E09000022,12/27/2020
Lambeth,Pubs,Waterloo Bar & Kitchen,131 Waterloo Road,London,Waterloo,E09000022,Lambeth,51.50181204482591,-0.10902397948539719,531345.9644101679,179791.92408138327,,E05000416,Bishop's,,E09000022,12/27/2020
Lambeth,Pubs,BFI IMAX,1 Charlie Chaplin Walk,London,Waterloo,E09000022,Lambeth,51.504817787684445,-0.11362585304950085,531017.9644989789,180117.92399171443,,E05000416,Bishop's,,E09000022,12/27/2020
Lambeth,Pubs,Riverfront Bar,"BFI Southbank, Belvedere Road",London,Waterloo,E09000022,Lambeth,51.50695036103757,-0.11594425395717141,530850.9645441491,180350.92392715922,,E05000416,Bishop's,,E09000022,12/27/2020
Lambeth,Pubs,Festival Square,"Basement, Royal Festival Hall, Belvedere Road",London,South Bank,E09000022,Lambeth,51.50576806771635,-0.11680000371033648,530794.9645595793,180217.92396385322,,E05000416,Bishop's,,E09000022,12/27/2020
Lambeth,Pubs,Railway Bell,14 Cawnpore Street,Gipsy Hill,London,E09000022,Lambeth,51.422643873501315,-0.08273481139676607,533400.963851177,171035.92645984644,,E05000422,Gipsy Hill,,E09000022,12/27/2020
Lambeth,Pubs,Gipsy Hill Tavern,79 Gipsy Hill,Gipsy Hill,London,E09000022,Lambeth,51.42306426786736,-0.08369531457078017,533332.9638694442,171080.92644769675,,E05000422,Gipsy Hill,,E09000022,12/27/2020
Lambeth,Pubs,Walker Briggs,23 Westow Hill,Crystal Palace,London,E09000022,Lambeth,51.41988171786112,-0.0821024866282724,533452.9638380599,170729.92654309585,,E05000422,Gipsy Hill,,E09000022,12/27/2020
Lambeth,Pubs,Faber Fox,25-27 Westow Hill,Crystal Palace,London,E09000022,Lambeth,51.41988171786112,-0.0821024866282724,533452.9638380599,170729.92654309585,,E05000422,Gipsy Hill,,E09000022,12/27/2020
Lambeth,Pubs,Westow House,79 Westow Hill,Crystal Palace,London,E09000022,Lambeth,51.41989018011323,-0.07932625317046268,533645.9637859464,170735.92654111044,,E05000422,Gipsy Hill,,E09000022,12/27/2020
Lambeth,Pubs,Green Room,101 Upper Ground,London,Waterloo,E09000022,Lambeth,51.5075333285233,-0.11025686975396046,531243.9644369613,180425.9239072961,,E05000416,Bishop's,,E09000022,12/27/2020
Lambeth,Pubs,Mulberry Bush,89 Upper Ground,London,South Bank,E09000022,Lambeth,51.5075333285233,-0.11025686975396046,531243.9644369613,180425.9239072961,,E05000416,Bishop's,,E09000022,12/27/2020
Lambeth,Pubs,Studio 6,"Gabriel's Wharf, 56 Upper Ground",London,South Bank,E09000022,Lambeth,51.5075333285233,-0.11025686975396046,531243.9644369613,180425.9239072961,,E05000416,Bishop's,,E09000022,12/27/2020
Lambeth,Pubs,Understudy,"National Theatre, South Bank",London,Waterloo,E09000022,Lambeth,51.506866123975605,-0.11405998371663133,530981.9645084671,180344.92392906273,,E05000416,Bishop's,,E09000022,12/27/2020
Lambeth,Pubs,Alleyns Head,100 Park Hall Road,Dulwich,West Dulwich,E09000022,Lambeth,51.43589287824239,-0.0905970180042894,532815.9640111355,172494.92606365163,,E05000422,Gipsy Hill,,E09000022,12/27/2020
Lambeth,Pubs,Rosendale,65 Rosendale Road,Dulwich,West Dulwich,E09000022,Lambeth,51.436822083547895,-0.09464448552906797,532531.9640884076,172590.92603649443,,E05000434,Thurlow Park,,E09000022,12/27/2020
Lambeth,Pubs,Commercial,210-212 Railton Road,Herne Hill,London,E09000022,Lambeth,51.45295861377894,-0.102608640223633,531931.9642521407,174370.92555410252,,E05000423,Herne Hill,,E09000022,12/27/2020
Lambeth,Pubs,Agile Rabbit,216 Railton Road,Herne Hill,London,E09000022,Lambeth,51.45295861377894,-0.102608640223633,531931.9642521407,174370.92555410252,,E05000423,Herne Hill,,E09000022,12/27/2020
Lambeth,Pubs,Florence,131-133 Dulwich Road,Herne Hill,London,E09000022,Lambeth,51.45277873899149,-0.10316303434859453,531893.9642624937,174349.92555992445,,E05000423,Herne Hill,,E09000022,12/27/2020
Lambeth,Pubs,Prince Regent,69 Dulwich Road,Herne Hill,London,E09000022,Lambeth,51.45424332252706,-0.10753554019256327,531585.9643465133,174504.92551762535,,E05000423,Herne Hill,,E09000022,12/27/2020
Lambeth,Pubs,Tulse Hill Hotel,150 Norwood Road,Herne Hill,Tulse Hill,E09000022,Lambeth,51.44184745153326,-0.1061916939283628,531714.9643093308,173128.92588991084,,E05000434,Thurlow Park,,E09000022,12/27/2020
Lambeth,Pubs,Bullfinch Brewery Tap,"Railway Arches 886-887, Rosendale Road",Herne Hill,London,E09000022,Lambeth,51.44841974236153,-0.10109856778806792,532049.9642190773,173868.92569066532,,E05000434,Thurlow Park,,E09000022,12/27/2020
Lambeth,Pubs,Great North Wood,3 Knights Hill,West Norwood,London,E09000022,Lambeth,51.43098567988855,-0.10406568116434388,531893.9642632774,171924.926216321,,E05000424,Knight's Hill,,E09000022,12/27/2020
Lambeth,Pubs,Horns Tavern,40 Knights Hill,West Norwood,London,E09000022,Lambeth,51.432659550448825,-0.10414026458009241,531883.9642658209,172110.92616581876,,E05000424,Knight's Hill,,E09000022,12/27/2020
Lambeth,Pubs,Knowles of Norwood,294-296 Norwood Road,London,West Norwood,E09000022,Lambeth,51.435253106353976,-0.10436381731358743,531860.9642715148,172398.92608768307,,E05000424,Knight's Hill,,E09000022,12/27/2020
Lambeth,Pubs,Railway,7 Station Rise,West Norwood,Tulse Hill,E09000022,Lambeth,51.43988777655286,-0.10568279635088026,531755.9642987008,172911.92594870465,,E05000434,Thurlow Park,,E09000022,12/27/2020
Lambeth,Pubs,Hope,49 Norwood High Street,West Norwood,London,E09000022,Lambeth,51.43069679739325,-0.10177586278058531,532053.964220084,171896.92622356408,,E05000422,Gipsy Hill,,E09000022,12/27/2020
Lambeth,Pubs,Park,56 Elder Road,West Norwood,London,E09000022,Lambeth,51.424353717921036,-0.09825564468143122,532316.9641479566,171197.92641393258,,E05000424,Knight's Hill,,E09000022,12/27/2020
Lambeth,Pubs,Paxton,255 Gipsy Road,West Norwood,London,E09000022,Lambeth,51.4275287693961,-0.08779532517744446,533034.9639506583,171569.9263148554,,E05000422,Gipsy Hill,,E09000022,12/27/2020
Lambeth,Pubs,Two Towers,201 Gipsy Road,West Norwood,London,E09000022,Lambeth,51.4275287693961,-0.08779532517744446,533034.9639506583,171569.9263148554,,E05000422,Gipsy Hill,,E09000022,12/27/2020
Lambeth,Pubs,Bricklayers Arms,1 Hamilton Road,West Norwood,London,E09000022,Lambeth,51.43008921282893,-0.09150071201587999,532769.9640237073,171847.9262391447,,E05000422,Gipsy Hill,,E09000022,12/27/2020
Lambeth,Pubs,London Beer Factory Brewery Tap Room,160 Hamilton Road,West Norwood,London,E09000022,Lambeth,51.42826319391511,-0.08871410170420421,532968.9639688967,171649.92629313027,,E05000422,Gipsy Hill,,E09000022,12/27/2020
Lambeth,Pubs,Golden Goose,146 Camberwell New Road,Camberwell,London,E09000022,Lambeth,51.47739715983307,-0.1018108566842795,531916.964256989,177089.9248162296,,E05000436,Vassall,,E09000022,12/27/2020
Lambeth,Pubs,Kennington,60 Camberwell New Road,Camberwell,London,E09000022,Lambeth,51.479072098597705,-0.1058458115225258,531631.9643341491,177268.92476652854,,E05000436,Vassall,,E09000022,12/27/2020
Lambeth,Pubs,Cambria,40 Kemerton Road,Camberwell,London,E09000022,Lambeth,51.46461151607062,-0.09750400218944641,532252.9641644917,175675.9251979047,,E05000423,Herne Hill,,E09000022,12/27/2020
Lambeth,Pubs,Sun of Camberwell,61-63 Coldharbour Lane,Camberwell,London,E09000022,Lambeth,51.46967255176423,-0.09572408036551631,532361.9641342859,176241.92504519294,,E05000423,Herne Hill,,E09000022,12/27/2020
Lambeth,Pubs,Junction,171 Coldharbour Lane,Camberwell,London,E09000022,Lambeth,51.46701051903637,-0.09959265800007977,532100.9642055295,175938.92512686783,,E05000423,Herne Hill,,E09000022,12/27/2020
Lambeth,Pubs,Amaryllis,66 Coldharbour Lane,Camberwell,London,E09000022,Lambeth,51.46974657039724,-0.09695926429180268,532275.9641577863,176247.92504365573,,E05000423,Herne Hill,,E09000022,12/27/2020
Lambeth,Pubs,White Lion,232 Streatham High Road,Streatham,London,E09000022,Lambeth,51.43113825703789,-0.1297819157007445,530105.9647468519,171895.92622638214,,E05000428,St. Leonard's,,E09000022,12/27/2020
Lambeth,Pubs,Rebel Inn,78a Streatham High Road,Streatham,Streatham Hill,E09000022,Lambeth,51.435200868319214,-0.12852258793443358,530181.9647261659,172349.9261036747,,E05000428,St. Leonard's,,E09000022,12/27/2020
Lambeth,Pubs,Five Bells,68/70 Streatham High Road,Streatham,Streatham Hill,E09000022,Lambeth,51.43653555601878,-0.12819467889403444,530200.9647213772,172498.92606305896,,E05000428,St. Leonard's,,E09000022,12/27/2020
Lambeth,Pubs,Horse & Groom,60 Streatham High Road,Streatham,Streatham Hill,E09000022,Lambeth,51.43653555601878,-0.12819467889403444,530200.9647213772,172498.92606305896,,E05000428,St. Leonard's,,E09000022,12/27/2020
Lambeth,Pubs,Hamlet,10 Streatham High Road,Streatham,Streatham Hill,E09000022,Lambeth,51.437605945283075,-0.12764734221824123,530235.9647121554,172618.92603034276,,E05000428,St. Leonard's,,E09000022,12/27/2020
Lambeth,Pubs,Exhibit B,5 Streatham High Road,Streatham,Streatham Hill,E09000022,Lambeth,51.43697111571933,-0.127313595208011,530260.9647052332,172548.92604938883,,E05000432,Streatham Wells,,E09000022,12/27/2020
Lambeth,Pubs,Perfect Blend,8/9 Streatleigh Parade,Streatham,Streatham Hill,E09000022,Lambeth,51.437514490912406,-0.12698922378476185,530281.9646996608,172609.92603276158,,E05000432,Streatham Wells,,E09000022,12/27/2020
Lambeth,Pubs,Chalkpit,"The High Parade, 20-21 Streatham High Rd",Streatham,London,E09000022,Lambeth,51.43460546201266,-0.12784193945183345,530230.964712787,172284.92612132436,,E05000432,Streatham Wells,,E09000022,12/27/2020
Lambeth,Pubs,Holland Tringham,107-109 Streatham High Road,Streatham,London,E09000022,Lambeth,51.42982085184368,-0.13006586958582342,530089.9647514772,171748.92626588116,,E05000428,St. Leonard's,,E09000022,12/27/2020
Lambeth,Pubs,Pratts & Payne,103 Streatham High Road,Streatham,London,E09000022,Lambeth,51.42982085184368,-0.13006586958582342,530089.9647514772,171748.92626588116,,E05000428,St. Leonard's,,E09000022,12/27/2020
Lambeth,Pubs,Leigham Well,1 Wellfield Road,Streatham,London,E09000022,Lambeth,51.42933761921214,-0.1257123600536672,530393.9646690259,171702.92627850972,,E05000432,Streatham Wells,,E09000022,12/27/2020
Lambeth,Pubs,Mere Scribbler,426-428 Streatham High Road,Streatham,Streatham Common,E09000022,Lambeth,51.421288209446274,-0.12903328108924486,530185.9647254358,170801.92652271764,,E05000431,Streatham South,,E09000022,12/27/2020
Lambeth,Pubs,Bull,498 Streatham High Road,Streatham,Streatham Common,E09000022,Lambeth,51.419433725481014,-0.12834671486427582,530238.9647107141,170596.92657890066,,E05000431,Streatham South,,E09000022,12/27/2020
Lambeth,Pubs,Rabbit Hole,151-153 Greyhound Lane,Streatham,Streatham Common,E09000022,Lambeth,51.4218817680881,-0.1295987630451883,530144.964736698,170866.92650483025,,E05000428,St. Leonard's,,E09000022,12/27/2020
Lambeth,Pubs,Railway,"2 Greyhound Lane,",Streatham,London,E09000022,Lambeth,51.418547900413174,-0.13426523331531523,529829.9648212431,170487.92660738848,,E05000431,Streatham South,,E09000022,12/27/2020
Lambeth,Pubs,Earl Ferrers,22 Ellora Road,Streatham,London,E09000022,Lambeth,51.423585115974525,-0.13265052832477,529927.9647962088,171050.92645388842,,E05000428,St. Leonard's,,E09000022,12/27/2020
Lambeth,Pubs,Manor Arms,13 Mitcham Lane,Streatham,London,E09000022,Lambeth,51.42795781046518,-0.1327887858569992,529905.9648019957,171536.92632253485,,E05000428,St. Leonard's,,E09000022,12/27/2020
Lambeth,Pubs,Elm Park Tavern,76 Elm Park,Brixton,London,E09000022,Lambeth,51.44992590014635,-0.11865209428885883,530825.9645556194,174004.92565470625,,E05000435,Tulse Hill,,E09000022,12/27/2020
Lambeth,Pubs,Effra Social,89 Effra Road,Brixton,London,E09000022,Lambeth,51.45566939349603,-0.11343567210167532,531171.9644585175,174652.92547772557,,E05000423,Herne Hill,,E09000022,12/27/2020
Lambeth,Pubs,Hootananny,95 Effra Road,Brixton,London,E09000022,Lambeth,51.45566939349603,-0.11343567210167532,531171.9644585175,174652.92547772557,,E05000423,Herne Hill,,E09000022,12/27/2020
Lambeth,Pubs,Effra Hall,38A Kellett Road,Brixton,London,E09000022,Lambeth,51.45967803950341,-0.11386060523223088,531130.9644682633,175097.92535622593,,E05000420,Coldharbour,,E09000022,12/27/2020
Lambeth,Pubs,Gremio De Brixton,"The Crypt, St Matthews Church, Effra Rd,",Brixton,,E09000022,Lambeth,51.459677725824754,-0.1160774838528211,530976.9645096269,175093.92535772646,,E05000435,Tulse Hill,,E09000022,12/27/2020
Lambeth,Pubs,Ritzy Cinema Bar,"1 Brixton Oval, Coldharbour Lane",Brixton,London,E09000022,Lambeth,51.461272917832936,-0.11461542433051525,531073.9644838762,175273.92530841072,,E05000420,Coldharbour,,E09000022,12/27/2020
Lambeth,Pubs,White Horse,94 Brixton Hill,Brixton,London,E09000022,Lambeth,51.45489362381666,-0.12000240522004854,530717.9645819541,174554.92550473026,,E05000417,Brixton Hill,,E09000022,12/27/2020
Lambeth,Pubs,Crown & Sceptre,2A Streatham Hill,Streatham Hill,London,E09000022,Lambeth,51.44496078511653,-0.12475627666897893,530415.9646646007,173441.92580651428,,E05000430,Streatham Hill,,E09000022,12/27/2020
Lambeth,Pubs,Sultan,37 New Park Road,Brixton,London,E09000022,Lambeth,51.44894591566731,-0.12427640377181724,530437.964659591,173885.92568606802,,E05000417,Brixton Hill,,E09000022,12/27/2020
Lambeth,Pubs,Hand In Hand,61 New Park Road,Brixton,London,E09000022,Lambeth,51.44740792491852,-0.12707377734046657,530247.9647105415,173709.92573350453,,E05000417,Brixton Hill,,E09000022,12/27/2020
Lambeth,Pubs,Windmill,22 Blenheim Gardens,Brixton,London,E09000022,Lambeth,51.454519426174784,-0.12246469347817396,530547.9646280777,174508.925516809,,E05000417,Brixton Hill,,E09000022,12/27/2020
Lambeth,Pubs,Prince of Wales,169-171 Lyham Road,Brixton,London,E09000022,Lambeth,51.45349761183393,-0.12660869802882466,530262.9647054839,174387.92554902477,,E05000417,Brixton Hill,,E09000022,12/27/2020
Lambeth,Pubs,Barrio,30 Acre Lane,Brixton,London,E09000022,Lambeth,51.461103022157175,-0.11747277032055316,530875.9645371559,175249.92531539255,,E05000421,Ferndale,,E09000022,12/27/2020
Lambeth,Pubs,Hope & Anchor,123 Acre Lane,Brixton,London,E09000022,Lambeth,51.459536771009134,-0.12748431764152926,530184.964724353,175057.92536629766,,E05000417,Brixton Hill,,E09000022,12/27/2020
Lambeth,Pubs,Picture House Bar,76 Venn Street,Clapham,London,E09000022,Lambeth,51.46357275080662,-0.13810224092130768,529435.9649308149,175487.92524903925,,E05000419,Clapham Town,,E09000022,12/27/2020
Lambeth,Pubs,Rectory,87 Rectory Grove,Clapham,London,E09000022,Lambeth,51.46582918193053,-0.1408899252702912,529235.9649861449,175733.9251827706,,E05000419,Clapham Town,,E09000022,12/27/2020
Lambeth,Pubs,No 32 The Old Town,32 The Pavement,Clapham,London,E09000022,Lambeth,51.46302764436241,-0.14058620289505686,529264.9649773332,175422.92526680214,,E05000419,Clapham Town,,E09000022,12/27/2020
Lambeth,Pubs,Rose & Crown,2 The Polygon,Clapham,London,E09000022,Lambeth,51.46348999092247,-0.14138802869080563,529207.964993057,175472.92525335227,,E05000419,Clapham Town,,E09000022,12/27/2020
Lambeth,Pubs,Sun,47 Old Town,Clapham,London,E09000022,Lambeth,51.46412951992444,-0.14088696918249127,529240.9649842434,175544.92523385322,,E05000419,Clapham Town,,E09000022,12/27/2020
Lambeth,Pubs,Jam Tree,13-19 Old Town,Clapham,London,E09000022,Lambeth,51.46540009258145,-0.14105132427563324,529225.9649887242,175685.9251957569,,E05000419,Clapham Town,,E09000022,12/27/2020
Lambeth,Pubs,Prince of Wales,38 Old Town,Clapham,London,E09000022,Lambeth,51.464151962894704,-0.14173546851897034,529181.9650003369,175545.92523364985,,E05000419,Clapham Town,,E09000022,12/27/2020
Lambeth,Pubs,Bobbin,1-3 Lillieshall Road,Clapham,London,E09000022,Lambeth,51.466076458563585,-0.14344261949201378,529057.9650344833,175756.9251767528,,E05000419,Clapham Town,,E09000022,12/27/2020
Lambeth,Pubs,Stonhouse,165 Stonhouse Street,Clapham,London,E09000022,Lambeth,51.46440822090262,-0.13691650877848074,529515.9649094129,175582.92522327031,,E05000419,Clapham Town,,E09000022,12/27/2020
Lambeth,Pubs,Bridge Wine Bar,8 Voltaire Road,Clapham,,E09000022,Lambeth,51.465794176343444,-0.13359190791724285,529742.9648483508,175742.92517994234,,E05000419,Clapham Town,,E09000022,12/27/2020
Lambeth,Pubs,Bread & Roses,68 Clapham Manor Street,Clapham,London,E09000022,Lambeth,51.466395004645335,-0.13687883453927885,529512.9649112981,175803.92516353785,,E05000419,Clapham Town,,E09000022,12/27/2020
Lambeth,Pubs,Clapham Tap,128 Clapham Manor Street,Clapham,London,E09000022,Lambeth,51.46450446818276,-0.13561686925087943,529605.9648849529,175595.9252196548,,E05000419,Clapham Town,,E09000022,12/27/2020
Lambeth,Pubs,WC Wine & Charcuterie,Underneath Clapham Common tube station,Clapham,,E09000022,Lambeth,51.461553749916085,-0.13781005891470108,529461.9649227376,175263.9253095556,,E05000418,Clapham Common,,E09000022,12/27/2020
Lambeth,Pubs,Alexandra,14 Clapham Common South Side,Clapham,London,E09000022,Lambeth,51.461553749916085,-0.13781005891470108,529461.9649227376,175263.9253095556,,E05000418,Clapham Common,,E09000022,12/27/2020
Lambeth,Pubs,Belle Vue,1 Clapham Common South Side,Clapham,London,E09000022,Lambeth,51.461553749916085,-0.13781005891470108,529461.9649227376,175263.9253095556,,E05000418,Clapham Common,,E09000022,12/27/2020
Lambeth,Pubs,King & Co,100 Clapham Park Road,Clapham,London,E09000022,Lambeth,51.459181906603625,-0.1339910346265016,529733.9648467015,175006.9253789499,,E05000418,Clapham Common,,E09000022,12/27/2020
Lambeth,Pubs,Coach & Horses,173/175 Clapham Park Road,Clapham,London,E09000022,Lambeth,51.459848094813296,-0.13121437217267531,529924.9647951924,175085.92535805592,,E05000421,Ferndale,,E09000022,12/27/2020
Lambeth,Pubs,Red Dog South,27-31 Bedford Rd,Clapham,London,E09000022,Lambeth,51.464931557689056,-0.1291208140458485,530055.964762243,175654.9252040611,,E05000425,Larkhall,,E09000022,12/27/2020
Lambeth,Pubs,Falcon,33 Bedford Road,Clapham,London,E09000022,Lambeth,51.46432829030663,-0.1290734895903443,530060.9647605619,175587.92522223905,,E05000425,Larkhall,,E09000022,12/27/2020
Lambeth,Pubs,Bodean's,169 Clapham High St,Clapham,London,E09000022,Lambeth,51.462159286602656,-0.13630262205580224,529564.9648947844,175333.9252905182,,E05000419,Clapham Town,,E09000022,12/27/2020
Lambeth,Pubs,Revolution,95/97 Clapham High Street,Clapham,London,E09000022,Lambeth,51.4628756805047,-0.13441632357044161,529693.9648599189,175416.92526803032,,E05000419,Clapham Town,,E09000022,12/27/2020
Lambeth,Pubs,Stane Street Syndicate,196 Clapham High Street,Clapham,London,E09000022,Lambeth,51.462186944025596,-0.13804343373171601,529443.9649279767,175333.9252906557,,E05000419,Clapham Town,,E09000022,12/27/2020
Lambeth,Pubs,Two Brewers,114 Clapham High Street,Clapham,London,E09000022,Lambeth,51.463178885720914,-0.1348214635715817,529664.9648680241,175449.9252590678,,E05000419,Clapham Town,,E09000022,12/27/2020
Lambeth,Pubs,64th & Social,64 Clapham High Street,Clapham,London,E09000022,Lambeth,51.46359147957078,-0.13362413359343986,529746.9648459026,175497.9252462082,,E05000419,Clapham Town,,E09000022,12/27/2020
Lambeth,Pubs,La Rueda,66 Clapham High St,Clapham,London,E09000022,Lambeth,51.46359147957078,-0.13362413359343986,529746.9648459026,175497.9252462082,,E05000419,Clapham Town,,E09000022,12/27/2020
Lambeth,Pubs,Railway,18 Clapham High Street,Clapham,London,E09000022,Lambeth,51.46440159367544,-0.13197865619858376,529858.9648157974,175590.925221188,,E05000419,Clapham Town,,E09000022,12/27/2020
Lambeth,Pubs,Fifty Five at the Oak,8-10 Clapham High Street,Clapham,London,E09000022,Lambeth,51.465006593637675,-0.13044227517492868,529963.9647874373,175660.92520234053,,E05000425,Larkhall,,E09000022,12/27/2020
Lambeth,Pubs,Rookery,69 Clapham Common South Side,Clapham,London,E09000022,Lambeth,51.45707359771248,-0.14280007005005355,529127.9650137689,174756.92544766114,,E05000418,Clapham Common,,E09000022,12/27/2020
Lambeth,Pubs,Windmill on the Common,Clapham Common South Side,Clapham,London,E09000022,Lambeth,51.45758566232579,-0.14503926347283058,528970.9650571413,174809.92543336138,,E05000418,Clapham Common,,E09000022,12/27/2020
Lambeth,Pubs,Perky Nel,"7/8 Cavendish Parade, Clapham Common South Side",Clapham,London,E09000022,Lambeth,51.45374731356925,-0.14627428787176674,528895.9650769061,174380.9255510767,,E05000418,Clapham Common,,E09000022,12/27/2020
Lambeth,Pubs,Abbeville,67-69 Abbeville Road,Clapham,London,E09000022,Lambeth,51.45483890692971,-0.1396809037238796,529350.964952429,174513.92551376316,,E05000418,Clapham Common,,E09000022,12/27/2020
Lambeth,Pubs,33 Abbeville Road,33 Abbeville Road,Clapham,,E09000022,Lambeth,51.453531653452366,-0.1411733642418312,529250.9649798269,174365.92555443465,,E05000418,Clapham Common,,E09000022,12/27/2020
Lambeth,Pubs,SW9,11 Dorrell Place,Brixton,London,E09000022,Lambeth,51.463268300982996,-0.1156705198662722,530994.9645055956,175493.92524858238,,E05000421,Ferndale,,E09000022,12/27/2020
Lambeth,Pubs,Fentiman Arms,64 Fentiman Road,South Lambeth,London,E09000022,Lambeth,51.48121552653917,-0.11889189771393545,530719.9645792664,177483.9247088516,,E05000426,Oval,,E09000022,12/27/2020
Lambeth,Pubs,Tia Maria,126 South Lambeth Road,South Lambeth,London,E09000022,Lambeth,51.48072635642002,-0.12484565731472705,530307.9646920585,177418.92472553998,,E05000426,Oval,,E09000022,12/27/2020
Lambeth,Pubs,Estrela Bar,111-115 South Lambeth Rd,South Lambeth,London,E09000022,Lambeth,51.47926291715203,-0.12330705825394926,530418.9646613249,177258.92476905236,,E05000429,Stockwell,,E09000022,12/27/2020
Lambeth,Pubs,Canton Arms,177 South Lambeth Road,South Lambeth,London,E09000022,Lambeth,51.476755842169595,-0.12286265337393028,530456.9646504057,176980.9248442725,,E05000429,Stockwell,,E09000022,12/27/2020
Lambeth,Pubs,Duke of Cambridge,74 Lansdowne Way,South Lambeth,London,E09000022,Lambeth,51.47473980673958,-0.12331975839269284,530430.9646575032,176755.92490527598,,E05000429,Stockwell,,E09000022,12/27/2020
Lambeth,Pubs,Cavendish Arms,128 Hartington Road,South Lambeth,London,E09000022,Lambeth,51.47654488071828,-0.12766675142736508,530123.9647408997,176948.92485319747,,E05000429,Stockwell,,E09000022,12/27/2020
Lambeth,Pubs,Riverside,"Hamilton House, 5 St George Wharf",Vauxhall,London,E09000022,Lambeth,51.48566582812531,-0.12612670075750687,530204.9647210689,177965.9245762403,,E05000426,Oval,,E09000022,12/27/2020
Lambeth,Pubs,Cottons,"Unit 12, Flagstaff House, 9 St George Wharf",Vauxhall,London,E09000022,Lambeth,51.48566582812531,-0.12612670075750687,530204.9647210689,177965.9245762403,,E05000426,Oval,,E09000022,12/27/2020
Lambeth,Pubs,Brunswick House,30 Wandsworth Road,Vauxhall,,E09000022,Lambeth,51.48587465032826,-0.12287731472308502,530429.9646593995,177994.92456893524,,E05000426,Oval,,E09000022,12/27/2020
Lambeth,Pubs,Nott,257 Wandsworth Road,South Lambeth,London,E09000022,Lambeth,51.47869221030703,-0.12867338868426695,530047.9647624413,177185.92478858016,,E05000426,Oval,,E09000022,12/27/2020
Lambeth,Pubs,Priory Arms,83 Lansdowne Way,South Lambeth,London,E09000022,Lambeth,51.474988468287016,-0.12931446008781722,530013.9647706494,176772.92490121303,,E05000429,Stockwell,,E09000022,12/27/2020
Lambeth,Pubs,Surprise,16 Southville,South Lambeth,London,E09000022,Lambeth,51.47452929753842,-0.131536444321891,529860.9648124715,176717.92491629766,,E05000425,Larkhall,,E09000022,12/27/2020
Lambeth,Pubs,Feeleys Free House,99 Union Road,South Lambeth,London,E09000022,Lambeth,51.47148244662299,-0.13503023370693382,529626.964878084,176372.92500973353,,E05000425,Larkhall,,E09000022,12/27/2020
Lambeth,Pubs,Griffin Belle,8 Wyvil Road,Vauxhall,London,E09000022,Lambeth,51.48172847719928,-0.12565432308664934,530248.9647085207,177528.92469554924,,E05000426,Oval,,E09000022,12/27/2020
Lambeth,Pubs,Mawbey Arms,7 Mawbey Street,South Lambeth,London,E09000022,Lambeth,51.47825013349983,-0.12576801198660928,530250.9647069039,177141.92480066355,,E05000426,Oval,,E09000022,12/27/2020
Lambeth,Pubs,Nolans,33 Wilcox Road,South Lambeth,London,E09000022,Lambeth,51.479785457284855,-0.12674204561784885,530178.9647270669,177310.9247546604,,E05000426,Oval,,E09000022,12/27/2020
Lambeth,Pubs,24 The Oval,24 Clapham Road,Stockwell,London,E09000022,Lambeth,51.480863159015044,-0.11375043133646748,531077.9644830931,177453.9247164572,,E05000426,Oval,,E09000022,12/27/2020
Lambeth,Pubs,Crown & Anchor,246 Brixton Road,Brixton,London,E09000022,Lambeth,51.47110254754424,-0.11297205533156408,531159.9644608594,176369.92501039407,,E05000436,Vassall,,E09000022,12/27/2020
Lambeth,Pubs,Phonox,418 Brixton Road,Brixton,London,E09000022,Lambeth,51.4643054169838,-0.1147352121900161,531056.9644890382,175610.92521659966,,E05000421,Ferndale,,E09000022,12/27/2020
Lambeth,Pubs,Beehive,407-409 Brixton Road,Brixton,London,E09000022,Lambeth,51.463758106140986,-0.11425388425682187,531091.9644794692,175550.92523290095,,E05000420,Coldharbour,,E09000022,12/27/2020
Lambeth,Pubs,Clarkshaw Tap Room,497 Ridgway Road,Loughborough Junction,,E09000022,Lambeth,51.465291586407,-0.10395438346137477,531802.9642869498,175739.92518073,,E05000420,Coldharbour,,E09000022,12/27/2020
Lambeth,Pubs,Hero Of Switzerland,142 Loughborough Road,Brixton,London,E09000022,Lambeth,51.466967958512825,-0.10529586545371745,531704.9643133364,175923.92513101368,,E05000420,Coldharbour,,E09000022,12/27/2020
Lambeth,Pubs,Duke Of Edinburgh,204 Ferndale Road,Brixton,London,E09000022,Lambeth,51.463411103324844,-0.11952289124985817,530726.9645783007,175502.92524626962,,E05000421,Ferndale,,E09000022,12/27/2020
Lambeth,Pubs,Canova Hall,250 Ferndale Road,Brixton,,E09000022,Lambeth,51.46410751222559,-0.11529043937365029,531018.9644992833,175587.92522291705,,E05000421,Ferndale,,E09000022,12/27/2020
Lambeth,Pubs,Trinity Arms,45 Trinity Gardens,Brixton,London,E09000022,Lambeth,51.46192387154306,-0.11874903606946866,530784.9645620198,175338.9252911334,,E05000421,Ferndale,,E09000022,12/27/2020
Lambeth,Pubs,Prince of Wales,467-469 Brixton Road,Brixton,London,E09000022,Lambeth,51.46184556828572,-0.11499491551760413,531045.9644915328,175336.9252912983,,E05000420,Coldharbour,,E09000022,12/27/2020
Lambeth,Pubs,Ekcovision,Arch 15 Atlantic Road,Brixton,London,E09000022,Lambeth,51.46287249145461,-0.11342660740167441,531151.9644631105,175453.9252592264,,E05000420,Coldharbour,,E09000022,12/27/2020
Lambeth,Pubs,Prince Albert,418 Coldharbour Lane,Brixton,London,E09000022,Lambeth,51.461832288953424,-0.11305201277455104,531180.9644551362,175338.9252904817,,E05000420,Coldharbour,,E09000022,12/27/2020
Lambeth,Pubs,Market House,443 Coldharbour Lane,Brixton,London,E09000022,Lambeth,51.461474481377984,-0.11372897508221086,531134.9644674796,175297.92530174204,,E05000420,Coldharbour,,E09000022,12/27/2020
Lambeth,Pubs,Satay Bar,447 Coldharbour Lane,Brixton,London,E09000022,Lambeth,51.46140471169312,-0.11442284890989775,531086.9644803999,175288.9253042952,,E05000420,Coldharbour,,E09000022,12/27/2020
Lambeth,Pubs,Dogstar,389 Coldharbour Lane,Brixton,London,E09000022,Lambeth,51.46167575768152,-0.11226669452536028,531235.9644402923,175322.92529472464,,E05000420,Coldharbour,,E09000022,12/27/2020
Lambeth,Pubs,Craft Beer Co.,11-13 Brixton Station Road,Brixton,London,E09000022,Lambeth,51.46355831238461,-0.11413255017940457,531100.9644770012,175528.92523888114,,E05000420,Coldharbour,,E09000022,12/27/2020
Lambeth,Pubs,Ghost Whale,70 Atlantic Road,Brixton,London,E09000022,Lambeth,51.460723511503275,-0.11121191478380289,531311.9644197323,175218.92532284156,,E05000420,Coldharbour,,E09000022,12/27/2020
Lambeth,Pubs,Lounge,56-58 Atlantic Road,Brixton,London,E09000022,Lambeth,51.46158676493228,-0.11176651118639082,531270.964430851,175313.92529709975,,E05000420,Coldharbour,,E09000022,12/27/2020
Lambeth,Pubs,Phoenix,348 Clapham Road,Stockwell,London,E09000022,Lambeth,51.467892884150906,-0.1281646732803162,530113.9647471415,175985.92511432612,,E05000425,Larkhall,,E09000022,12/27/2020
Lambeth,Pubs,Swan,215 Clapham Road,Stockwell,London,E09000022,Lambeth,51.47188616266035,-0.1225728261534826,530490.9646423137,176439.92499107082,,E05000425,Larkhall,,E09000022,12/27/2020
Lambeth,Pubs,La Fonda de Maria,273A Clapham Road,Stockwell,London,E09000022,Lambeth,51.470964436226446,-0.12341698064424635,530434.9646579564,176335.9250193542,,E05000425,Larkhall,,E09000022,12/27/2020
Lambeth,Pubs,Clapham North,409 Clapham Road,Stockwell,London,E09000022,Lambeth,51.466564670425214,-0.128334174832204,530105.9647493939,175837.92515445186,,E05000425,Larkhall,,E09000022,12/27/2020
Lambeth,Pubs,CafÃ© Cairo,88 Landor Road,Stockwell,London,E09000022,Lambeth,51.46396140172624,-0.12356015062799561,530444.9646554952,175556.92523115122,,E05000425,Larkhall,,E09000022,12/27/2020
Lambeth,Pubs,Porto,82 Landor Road,Stockwell,London,E09000022,Lambeth,51.4658739608165,-0.12506543208910076,530334.9646863696,175766.9251738976,,E05000425,Larkhall,,E09000022,12/27/2020
Lambeth,Pubs,Landor,70 Landor Road,Stockwell,London,E09000022,Lambeth,51.46570526576547,-0.12576341359892948,530286.9646994321,175746.92517929646,,E05000425,Larkhall,,E09000022,12/27/2020
Lambeth,Pubs,Marquis Of Lorne,49 Dalyell Road,Stockwell,London,E09000022,Lambeth,51.465972355731296,-0.11941762738544268,530726.9645791125,175787.92516848724,,E05000421,Ferndale,,E09000022,12/27/2020
Lambeth,Pubs,Queen's Head,144 Stockwell Road,Stockwell,London,E09000022,Lambeth,51.46707054423221,-0.11780313843263937,530835.964549649,175912.92513439385,,E05000421,Ferndale,,E09000022,12/27/2020
Lambeth,Set and exhibition building,Metro Broadcast,6 Camberwell New Road,,,E09000022,Lambeth,51.48048970478357,-0.10954604311173256,531370.964404538,177419.92472527275,10090201545,E05000436,Vassall,http://www.metrobroadcast.com,E09000022,12/27/2020
Lambeth,Skate Parks,Clapham-Common,,,,E09000022,Lambeth,51.46087069476694,-0.14365452810888701,529057.9094305158,175177.66251593223,0,E05000418,Clapham Common,,E09000022,12/27/2020
Lambeth,Skate Parks,House-of-Vans,,,,E09000022,Lambeth,51.500574297395076,-0.11414460721515574,530994.1282634225,179645.11790873628,0,E05000416,Bishop's,,E09000022,12/27/2020
Lambeth,Skate Parks,Kennington-Bowl,,,,E09000022,Lambeth,51.48531802268696,-0.1086206332511201,531421.3571529246,177958.49934571894,0,E05000426,Oval,,E09000022,12/27/2020
Lambeth,Skate Parks,Southbank,,,,E09000022,Lambeth,51.5064314233654,-0.11726452929152695,530760.8295589807,180290.8603449157,0,E05000416,Bishop's,,E09000022,12/27/2020
Lambeth,Skate Parks,Stockwell,,,,E09000022,Lambeth,51.46618076741324,-0.11629426613246373,530943.3093078453,175816.6771137021,0,E05000421,Ferndale,,E09000022,12/27/2020
Lambeth,Textile design,Alan Oliver Handwoven Rugs & Textiles,124 Kennington Road,,,E09000022,Lambeth,51.49406888970357,-0.11123179225579087,531214.9644465891,178926.9243139103,100021856992,E05000416,Bishop's,https://www.alanoliver.co.uk/handwoven-rugs,E09000022,12/27/2020
Lambeth,Textile design,Bridget Bailey,Clockwork Studios,38 Southwell Road,,E09000022,Lambeth,51.466592696285296,-0.09822786296665766,532196.9641794193,175894.92513877177,100023572637,E05000423,Herne Hill,https://bridgetbailey.co.uk/,E09000022,12/27/2020
Lambeth,Textile design,Victoria Richards,Clockwork Studios,38 Southwell Road,,E09000022,Lambeth,51.466592696285296,-0.09822786296665766,532196.9641794193,175894.92513877177,100023572637,E05000423,Herne Hill,http://victoriarichards.com/contact/,E09000022,12/27/2020
Lambeth,Theatre rehearsal studio,Alford House,Aveline Street,Kennington,,E09000022,Lambeth,51.48755415264956,-0.11377690645729922,531056.9643673948,178197.92439087544,100023230353,E05000427,Prince's,www.alfordhouse.org.uk,E09000022,12/27/2020
Lambeth,Theatre rehearsal studio,Oval House,52-54 Kennington Oval,,,E09000022,Lambeth,51.48375939969497,-0.11714535195390079,530833.9644266248,177769.92450970836,200000468066,E05000426,Oval,www.ovalhouse.com,E09000022,12/27/2020
Lambeth,Theatre rehearsal studio,Waterloo Creative Studio,20 Carlisle Lane,,,E09000022,Lambeth,51.49848826874769,-0.11650952200602004,530835.9644272642,179408.9240633545,10093059387,E05000416,Bishop's,http://www.waterloocreativestudio.com/,E09000022,12/27/2020
Lambeth,Theatre rehearsal studio,Shala Yoga,537 Norwood Road,,,E09000022,Lambeth,51.434736578306634,-0.10356511883891821,531917.9641341127,172342.92598066787,10091118696,E05000434,Thurlow Park,https://www.theshalalondon.com/,E09000022,12/27/2020
Lambeth,Theatre rehearsal studio,Brixton Community Base,Talma Road,Brixton,,E09000022,Lambeth,51.459047554236925,-0.11100758601457651,531330.964292393,175032.9252512604,200000483133,E05000420,Coldharbour,www.brixtoncommunitybase.org,E09000022,12/27/2020
Lambeth,Theatre rehearsal studio,SWC (Small World Centre),Unit 11 Eurolink Centre,49 Effra Rd,,E09000022,Lambeth,51.45843280187646,-0.11415664382239414,531113.9643507833,174958.9252720847,100023350649,E05000420,Coldharbour,www.swcbrixton.com,E09000022,12/27/2020
Lambeth,Theatre rehearsal studio,Electric Brixton,Brixton Hill,,,E09000022,Lambeth,51.46019347340544,-0.11683360475708353,530922.9644021649,175149.9252204852,200000455751,E05000417,Brixton Hill,http://electricbrixton.uk.com/,E09000022,12/27/2020
Lambeth,Theatre rehearsal studio,Clapham Community Project,St Anne's Hall,31-33 Bromells Road,,E09000022,Lambeth,51.46276308634552,-0.13921490001143008,529360.9648288682,175395.92515189317,100023362582,E05000419,Clapham Town,www.rehearseatccp.co.uk,E09000022,12/27/2020
Lambeth,Theatre rehearsal studio,Omnibus,1 Clapham Common North Side,,,E09000022,Lambeth,51.46315490615693,-0.14294205779100436,529100.9649001166,175432.92514218605,100023362765,E05000419,Clapham Town,www.omnibus-clapham.org,E09000022,12/27/2020
Lambeth,Theatre rehearsal studio,Lost Theatre,208 Wandsworth Road,,,E09000022,Lambeth,51.47597204622801,-0.131218325199531,529878.9646851317,176878.92475044524,10023851231,E05000429,Stockwell,www.losttheatre.co.uk,E09000022,12/27/2020
Lambeth,Theatre rehearsal studio,504,504 Ridgway Road,,,E09000022,Lambeth,51.46529158533812,-0.10395438526355617,531802.96416485,175739.9250586297,200000478109,E05000420,Coldharbour,https://www.504arch.org/,E09000022,12/27/2020
Lambeth,Theatres,Network Theatre,246A Lower Rd, Waterloo,NA,E09000022,Lambeth,51.502746116246115,-0.11388852202820463,531005.6752805491,179887.08323327126,10008787031,E05000416,Bishop's,https://networktheatre.org/,E09000022,12/27/2020
Lambeth,Theatres,The Scoop,Queen's Walk,NA,NA,E09000022,Lambeth,51.50417225193464,-0.12083181322246857,530519.7295126425,180033.27739295078,10013532078,E05000416,Bishop's,https://www.visitlondon.com/things-to-do/place/3720745-scoop,E09000022,12/27/2020
Lambeth,Theatres,Stockwell Playhouse,208 Wandsworth Road,NA,NA,E09000022,Lambeth,51.476485791651676,-0.13282344805855742,529766.0463160826,176933.21083566197,10023851231,E05000429,Stockwell,http://www.stockwellph.com/,E09000022,12/27/2020
Lambeth,Theatres,QEH Southbank Centre,Belvedere Rd, Lambeth,NA,E09000022,Lambeth,51.50717503787731,-0.11755264830887595,530738.7074526057,180373.03659871995,10090198178,E05000416,Bishop's,https://www.southbankcentre.co.uk/venues/queen-elizabeth-hall,E09000022,12/27/2020
Lambeth,Theatres,"St Johns, Waterloo",73 Waterloo Rd, Lambeth,NA,E09000022,Lambeth,51.50499811222206,-0.11357939838240583,531020.6712761126,180138.05926406366,10090199534,E05000416,Bishop's,NA,E09000022,12/27/2020
Lambeth,Theatres,The Vaults,Leake Street, Lamebth,NA,E09000022,Lambeth,51.50247047745965,-0.11755605740239879,530751.9330496698,179849.88014362543,10091121720,E05000416,Bishop's,https://www.thevaults.london/,E09000022,12/27/2020
Lambeth,Theatres,Waterloo East Theatre,Brad St, Lambeth,NA,E09000022,Lambeth,51.50460338652723,-0.11151769288476607,531164.8819368987,180097.85477525182,10091908867,E05000416,Bishop's,https://www.waterlooeast.co.uk/,E09000022,12/27/2020
Lambeth,Theatres,The Bread & Roses Theatre,68 Clapham Manor St,NA,NA,E09000022,Lambeth,51.466909694859254,-0.13848221865285104,529400.1457199897,175858.32772685942,100022000000,E05000419,Clapham Town,https://www.breadandrosestheatre.co.uk/,E09000022,12/27/2020
Lambeth,Theatres,The Royal Vauxhall Tavern,372 Kennington Lane, Vauxhall,NA,E09000022,Lambeth,51.48700390363328,-0.12140522218124666,530528.9452103052,178123.12011177174,100022000000,E05000427,Prince's,http://www.vauxhalltavern.com/,E09000022,12/27/2020
Lambeth,Theatres,White Bear Theatre,138 Kennington Park Rd, Kennington,NA,E09000022,Lambeth,51.487220086722886,-0.10965837054656741,531343.8489901775,178168.15009840572,100022000000,E05000427,Prince's,https://www.whitebeartheatre.co.uk/,E09000022,12/27/2020
Lambeth,Theatres,Landor Space,70 Landor Rd, Clapham North,NA,E09000022,Lambeth,51.46618085287746,-0.12763222771292285,530155.810013454,175796.49054363085,100022000000,E05000425,Larkhall,https://www.landorspace.com/,E09000022,12/27/2020
Lambeth,Theatres,Young Vic,66 The Cut, Waterloo,NA,E09000022,Lambeth,51.50378940848611,-0.10887473666188882,531350.6382864498,180012.07529890048,100023000000,E05000416,Bishop's,https://www.youngvic.org/,E09000022,12/27/2020
Lambeth,Theatres,Streatham Space Project,Sternhold Avenue,NA,NA,E09000022,Lambeth,51.43917353860401,-0.12847473262437734,530174.0077072696,172791.77266119228,100023000000,E05000430,Streatham Hill,https://www.streathamspaceproject.co.uk/,E09000022,12/27/2020
Lambeth,Theatres,Omnibus Theatre,1 Clapham Common North Side,NA,NA,E09000022,Lambeth,51.4636699274074,-0.14454540532480598,528988.1441310238,175487.37372759584,100023000000,E05000419,Clapham Town,https://omnibus-clapham.org/,E09000022,12/27/2020
Lambeth,Theatres,Ovalhouse,52-54 Kennington Oval, London,NA,E09000022,Lambeth,51.484273221589945,-0.11875235766670912,530720.922357208,177824.19419493113,200000000000,E05000426,Oval,http://www.ovalhouse.com/,E09000022,12/27/2020
Lambeth,Theatres,The Old Vic,The Cut, Lambeth,NA,E09000022,Lambeth,51.50244960180335,-0.1106267361802584,531232.8982187357,179859.94844066928,200000000000,E05000416,Bishop's,https://www.oldvictheatre.com/,E09000022,12/27/2020
Lambeth,Theatres,National Theatre,Upper Ground, Lambeth,NA,E09000022,Lambeth,51.507377052777706,-0.11566833815977796,530868.8894171017,180398.86519184633,200001000000,E05000416,Bishop's,NA,E09000022,12/27/2020
Lambeth,Theatres,The Calder Bookshop & Theatre,51 The Cut,NA,NA,E09000022,Lambeth,51.50354554098729,-0.10831998476935922,531389.8389758175,179985.9519060701,200003000000,E05000416,Bishop's,http://calderbookshop.com/,E09000022,12/27/2020
