BOROUGH,Cultural Venue Type,site_name,address1,address2,address3,borough_code,borough_name,latitude,longitude,easting,northing,os_addressbase_uprn,ward_2018_code,ward_2018_name,website,gss_code,runtime
Lewisham,Archives,Lewisham Local History and Archives Centre,Lewisham Library ,199-201 Lewisham High Street,,E09000023,Lewisham,51.459274496733315,-0.011657206843843812,538231.9624175789,175240.92519521737,10023235063,E05000448,Lewisham Central,https://www.lewisham.gov.uk/inmyarea/history/archives/Pages/default.aspx,E09000023,12/27/2020
Lewisham,Archives,IRIE! dance theatre,Moonshot Centre ,Fordham Park ,Angus Street,E09000023,Lewisham,51.477856808382086,-0.0353019716561354,536533.9628772199,177262.92464474705,10093394257,E05000449,New Cross,https://www.iriedancetheatre.org/,E09000023,12/27/2020
Lewisham,Archives,MAKE Resource Centre Collections (formerly the Women's Art Library),London University: Goldsmiths College The Library Lewisham Way ,,New Cross,E09000023,Lewisham,51.474143961065394,-0.03537519941363767,536539.9628752985,176849.9247571688,100023000000,E05000439,Brockley,https://www.gold.ac.uk/make/,E09000023,12/27/2020
Lewisham,Archives,London University: Goldsmiths Library: Special Collections and Archives,Goldsmiths University of London ,New Cross,,E09000023,Lewisham,51.474143961065394,-0.03537519941363767,536539.9628752985,176849.9247571688,100023000000,E05000439,Brockley,https://www.gold.ac.uk/library/collections/special-collections/,E09000023,12/27/2020
Lewisham,Archives,Horniman Museum and Gardens,100 London Road,,,E09000023,Lewisham,51.44113086862395,-0.060736392436844804,534875.963330574,173131.92576861434,100023000000,E05000444,Forest Hill,https://www.horniman.ac.uk/,E09000023,12/27/2020
Lewisham,Archives,Illustrated London News Picture Library,Mary Evans Picture Library ,59 Tranquil Vale,Blackheath,E09000023,Lewisham,51.46670535019201,0.006662793064093619,539481.9620774874,176101.92495935067,100023000000,E05000438,Blackheath,https://www.maryevans.com/collect.php,E09000023,12/27/2020
Lewisham,Archives,Bible Churchmens Missionary Society,BCMS Crosslinks, 251 Lewisham Way,,E09000023,Lewisham,51.46925434038013,-0.026960722085345355,537138.962713744,176321.92490170756,100023000000,E05000439,Brockley,https://missiology.org.uk/societies_bcms.php,E09000023,12/27/2020
Lewisham,Archives,Trinity Laban Conservatoire of Music and Dance: Laban Archive,Laban Creekside,,,E09000023,Lewisham,51.48032533091159,-0.019007985149250492,537657.9625746607,177567.92456245044,100024000000,E05000449,New Cross,https://www.trinitylaban.ac.uk/student-life/facilities/faculty-of-dance/laban-library-archive,E09000023,12/27/2020
Lewisham,Archives,Haberdashers' Aske's Federation Trust: Hatcham College,135 Pepys Road,,,E09000023,Lewisham,51.46768410717051,-0.04272219355445505,536048.9630091635,176117.92495710962,200001000000,E05000453,Telegraph Hill,https://www.haaf.org.uk/,E09000023,12/27/2020
Lewisham,Artists workspaces,,140 Lewisham Way,,,E09000023,Lewisham,51.471482983336436,-0.030608276519682055,536878.9627835893,176562.92483567778,100000000000,E05000439,Brockley,http://www.lewishamarthouse.org.uk,E09000023,12/27/2020
Lewisham,Artists workspaces,,Harold Wharf,6 Creekside,,E09000023,Lewisham,51.47640150768818,-0.02149665324236014,537496.962615969,177126.92468209827,100000000000,E05000449,New Cross,aptstudios.org,E09000023,12/27/2020
Lewisham,Artists workspaces,Art Hub Deptford,5-9 Creekside,,,E09000023,Lewisham,51.47711773617666,-0.020774388991739758,537544.9626033487,177207.92466012342,10093391623,E05000449,New Cross,www.arthub.org.uk,E09000023,12/27/2020
Lewisham,Artists workspaces,,Cockpit Arts Deptford,18 - 22 Creekside,,E09000023,Lewisham,51.47862646579653,-0.020651416477554294,537548.9626030873,177375.92461451323,200000000000,E05000449,New Cross,www.cockpitarts.com,E09000023,12/27/2020
Lewisham,Artists workspaces,The Old Police Station,114 Amersham Vale,,,E09000023,Lewisham,51.47944481587567,-0.03186368673615841,536767.9628141816,177445.92459509225,100000000000,E05000449,New Cross,www.theoldpolicestation.org/,E09000023,12/27/2020
Lewisham,Artists workspaces,Childers Street,165 Childers Street,Deptford,,E09000023,Lewisham,51.48215624226716,-0.034814615239131104,536554.962872009,177741.9245144645,200001000000,E05000443,Evelyn,www.acme.org.uk,E09000023,12/27/2020
Lewisham,Artists workspaces,"Unit 10, Elizabeth Trading Estate",Juno Way,South Bermondsey,,E09000023,Lewisham,51.48279792331752,-0.0446817498714416,535867.9630608687,177794.92450102523,10093390732,E05000449,New Cross,www.artistic-spaces.co.uk,E09000023,12/27/2020
Lewisham,Artists workspaces,JUNO ENTERPRISE CENTRE,"Unit 14 and 17, Block C",Juno Way,,E09000023,Lewisham,51.48373076482892,-0.04615415170099939,535762.9630898137,177895.92447396385,100023569547,E05000449,New Cross,ceramicsstudio.coop,E09000023,12/27/2020
Lewisham,Artists workspaces,GUILD HOUSE FIRST FLOOR FRONT,ROLLINS STREET,,,E09000023,Lewisham,51.4838955423485,-0.05010797366291832,535487.9631653929,177906.9244715153,200000557503,E05000449,New Cross,cellprojects.org,E09000023,12/27/2020
Lewisham,Artists workspaces,Forest Hill Library,Dartmouth Road,Forest Hill,,E09000023,Lewisham,51.43589344943565,-0.05618142973389783,535207.9632394613,172557.92592644203,100023257020,E05000444,Forest Hill,http://www.v22collection.com,E09000023,12/27/2020
Lewisham,Artists workspaces,Louise House,Dartmouth Road,Forest Hill,,E09000023,Lewisham,51.435933133270574,-0.05586321335401528,535229.9632334433,172562.92592508032,10023226836,E05000444,Forest Hill,http://www.v22collection.com,E09000023,12/27/2020
Lewisham,Artists workspaces,,18 London Road,,,E09000023,Lewisham,51.439700008215794,-0.05471045063347464,535298.963214542,172983.9258096604,100000000000,E05000444,Forest Hill,http://www.canvasandcream.com/,E09000023,12/27/2020
Lewisham,Artists workspaces,,118 Stansted Road,,,E09000023,Lewisham,51.441378194296185,-0.046393940083305885,535871.963058262,173185.92575400072,10093391224,E05000450,Perry Vale,http://www.whirledart.co.uk,E09000023,12/27/2020
Lewisham,Artists workspaces,Catford Dek,Old Town Hall,catford Road,,E09000023,Lewisham,51.44529430145055,-0.020380851387899346,537667.9625712847,173669.9256209621,10023226829,E05000451,Rushey Green,www.bowarts.org    www.artiststudiofinder.org   www.londonsartistquarter.org,E09000023,12/27/2020
Lewisham,Artists workspaces,Leegate Studios,Leegate House,Burnt Ash Road,,E09000023,Lewisham,51.45619314975248,0.011887676950051856,539876.961970753,174942.9252770095,10093393751,E05000447,Lee Green,www.bowarts.org    www.artiststudiofinder.org   www.londonsartistquarter.org,E09000023,12/27/2020
Lewisham,Artists workspaces,Ladywell Bridge,Vaults E1-E7,59 Ladywell Road,,E09000023,Lewisham,51.45683462540093,-0.01839909400882673,537770.9625419014,174956.92527292913,10023230358,E05000448,Lewisham Central,http://www.v22collection.com,E09000023,12/27/2020
Lewisham,Artists workspaces,Manor House,Manor House Library,34 Old Road,,E09000023,Lewisham,51.45731766994548,0.004509413029691234,539360.9621118451,175053.92524542654,100000000000,E05000447,Lee Green,http://www.v22collection.com,E09000023,12/27/2020
Lewisham,Arts centres,The Albany ,Douglas Way,,,E09000023,Lewisham,51.47787709615518,-0.027409246524924713,537081.962728939,177279.92464037123,100023569348,E05000449,New Cross,https://www.thealbany.org.uk/,E09000023,12/27/2020
Lewisham,Cinemas,Curzon Goldsmiths,Goldsmiths University of London,Richard Hoggart Building,"Lewisham Way, New Cross",E09000023,Lewisham,51.47414396213318,-0.03537519760949177,536539.962997398,176849.9248792684,100023238053,E05000439,Brockley,,E09000023,12/27/2020
Lewisham,Cinemas,Deptford Cinema,,39 Deptford Broadway,,E09000023,Lewisham,51.474395585048136,-0.02466513082015213,537282.9627959285,176897.92486653395,100021951303,E05000439,Brockley,,E09000023,12/27/2020
Lewisham,Commercial galleries,Blackheath Gallery,34a Tranquil Vale,NA,NA,E09000023,Lewisham,51.466396370195184,0.008952852318323917,539641.9621554753,176071.92508948193,100023267656,E05000438,Blackheath,http://www.blackheath-gallery.co.uk/#,E09000023,12/27/2020
Lewisham,Commercial galleries,Bearspace,152 Deptford High Street,NA,NA,E09000023,Lewisham,51.47949639915854,-0.025841546505554047,537185.9628235615,177462.92471279833,100023280386,E05000443,Evelyn,http://www.bearspace.co.uk/#,E09000023,12/27/2020
Lewisham,Community centres,Orchard Community Centre,Columbine Way, Lewisham Road, London,E09000023,Lewisham,51.46716765408979,-0.0125667033620667,538144.9625648971,176116.92507975595,10093390833,E05000448,Lewisham Central,http://www.thereapcentre.com/ ,E09000023,12/27/2020
Lewisham,Community centres,WG Grace Community Centre,1 Lions Close,Lewisham,NA,E09000023,Lewisham,51.42998080690933,0.03470364076045567,541542.9616392513,172071.92617947614,100023283496,E05000445,Grove Park,,E09000023,12/27/2020
Lewisham,Community centres,Lewington Centre,9 Eugenia Road,Lewisham,NA,E09000023,Lewisham,51.489552957390764,-0.05070192253023182,535429.9633024966,178534.9244238895,10023232830,E05000443,Evelyn,,E09000023,12/27/2020
Lewisham,Community centres,Leander Hall,Ship Street,Lewisham,NA,E09000023,Lewisham,51.47262136390928,-0.025576996650547017,537224.9628120076,176698.92492088518,100023281185,E05000439,Brockley,,E09000023,12/27/2020
Lewisham,Community centres,Haskins Community Hall,Bromley Road,Lewisham,NA,E09000023,Lewisham,51.43105854171084,-0.016651358713710887,537969.9626099978,172093.92617381178,10023226892,E05000454,Whitefoot,https://www.lewisham.gov.uk/inmyarea/Pages/venue-detail.aspx?directoryid=3551,E09000023,12/27/2020
Lewisham,Community centres,Newstead Community Hub ,33 Wildwood Close, Lee Green, Newstead,E09000023,Lewisham,51.44646385258162,0.013402993101712633,540011.9620557744,173863.9256915386,100022020950,E05000447,Lee Green,www.greenwichwest.org.uk,E09000023,12/27/2020
Lewisham,Community centres,Conrad Court,Conrad Court,1-78 Cary Avenue,London,E09000023,Lewisham,51.49152220588987,-0.03722068446220914,536359.9630494014,178778.9243554548,10090786135,E05000443,Evelyn,https://www.nhhg.org.uk/communities/spaces-for-hire/conrad-court/,E09000023,12/27/2020
Lewisham,Community centres,Langthorne Court Community Hall,Langthorne Community Hall,Bromley Road,Bromley,E09000023,Lewisham,51.428264609920326,-0.01203944809937831,538298.9625224723,171791.92625524197,100023680030,E05000454,Whitefoot,https://www.lewisham.gov.uk/inmyarea/Pages/venue-detail.aspx?directoryid=3556,E09000023,12/27/2020
Lewisham,Community centres,The Green Man,Phoenix Community Housing,The Green Man,355 Bromley Road,E09000023,Lewisham,51.42756069206779,-0.01083284784935499,538384.9624993512,171715.92627560976,100021938277,E05000454,Whitefoot,http://thegreenman.com/,E09000023,12/27/2020
Lewisham,Creative workspaces,Bow Arts,Catford Dek - Old Town Hall,2th Floor Old Town Hall,Catford Road,E09000023,Lewisham,51.44520200235641,-0.021305856722792536,537603.9627106712,173657.92574636277,10023230305,,,http://www.bowarts.org/studios/catford-dek-old-town-hall,E09000023,12/27/2020
Lewisham,Creative workspaces,Artistic Spaces Ltd,Elizabeth Tower,Unit 13,Elizabeth Tower,E09000023,Lewisham,51.48239939710824,-0.04451156922706931,535880.9631793583,177750.9246349804,10093394512,,,www.artistic-spaces.co.uk,E09000023,12/27/2020
Lewisham,Creative workspaces,Bow Arts,Catford Dek,Old Town Hall,Catford Road,E09000023,Lewisham,51.44520200235641,-0.021305856722792536,537603.9627106712,173657.92574636277,100023278218,,,www.bowarts.org    www.artiststudiofinder.org   www.londonsartistquarter.org,E09000023,12/27/2020
Lewisham,Creative workspaces,Cockpit Arts,Cockpit Arts,Cockpit Arts Deptford,18 - 22 Creekside,E09000023,Lewisham,51.47862646686408,-0.02065141467288019,537548.9627251873,177375.92473661242,100023280408,,,www.cockpitarts.com,E09000023,12/27/2020
Lewisham,Creative workspaces,The Artworks,The Artwork Creekside,3 Creekside,,E09000023,Lewisham,51.476614996338995,-0.021890628409002008,537468.962745765,177149.9247979424,100023281198,,,,E09000023,12/27/2020
Lewisham,Creative workspaces,Second Floor Studios And Arts,Second Floor Studios And Arts,Deptford Foreshore,,E09000023,Lewisham,51.48982051294296,-0.030667505987594053,536819.9629244455,178601.92440300743,100023569428,,,https://www.secondfloor.co.uk/,E09000023,12/27/2020
Lewisham,Creative workspaces,Artistic Spaces Ltd,"Unit 10, Elizabeth Trading Estate",Juno Way,South Bermondsey,E09000023,Lewisham,51.483275888935715,-0.04476211250744985,535860.9631849368,177847.92460883694,100023680112,,,www.artistic-spaces.co.uk,E09000023,12/27/2020
Lewisham,Dance performance venues,The Broadway Theatre,34 Catford Broadway,,,E09000023,Lewisham,51.44529430145055,-0.020380851387899346,537667.9625712847,173669.9256209621,10023226829,E05000451,Rushey Green,https://www.broadwaytheatre.org.uk,E09000023,12/27/2020
Lewisham,Dance performance venues,Brockley Jack Studio Theatre,410 Brockley Road,,,E09000023,Lewisham,51.45363917833209,-0.03907693467554407,536343.9629296733,174562.92537996225,100021937756,E05000441,Crofton Park,http://www.brockleyjack.co.uk,E09000023,12/27/2020
Lewisham,Dance performance venues,Albany Centre and Theatre,1A Douglas Way,,,E09000023,Lewisham,51.47787709615518,-0.027409246524924713,537081.962728939,177279.92464037123,100023280749,E05000449,New Cross,http://www.thealbany.org.uk,E09000023,12/27/2020
Lewisham,Dance performance venues,Rivoli Ballroom,350 Brockley Road,Crofton Park,,E09000023,Lewisham,51.45526233825693,-0.03719375110440745,536469.9628953201,174746.92533002852,10090782761,E05000441,Crofton Park,https://www.rivoliballroom.com,E09000023,12/27/2020
Lewisham,Dance rehearsal studios,The Albany Rehearsal Space,9 Giffin St,,,E09000023,Lewisham,51.47770742399345,-0.02427712296089753,537299.9626699251,177266.92464399815,10023234998,E05000449,New Cross,http://www.thealbany.org.uk/hireus/36/Room-Hire,E09000023,12/27/2020
Lewisham,Dance rehearsal studios,Hither Green Dance Studio,174-176 Hither Green Lane,,,E09000023,Lewisham,51.45187720895214,-0.0071136963636396775,538569.9623257814,174426.9254149458,100023235751,E05000448,Lewisham Central,,E09000023,12/27/2020
Lewisham,Dance rehearsal studios,Kemble House,44 Kemble Road,,,E09000023,Lewisham,51.44193176030421,-0.04615447644317277,535886.963054202,173247.9257370343,100023255437,E05000450,Perry Vale,www.thehardy.co.uk/kemble-house,E09000023,12/27/2020
Lewisham,Dance rehearsal studios,The London Theatre,443 New Cross Road,,,E09000023,Lewisham,51.47582853266741,-0.030190591462119148,536894.9627789437,177046.92470362363,100023238425,E05000449,New Cross,http://www.thelondontheatre.com,E09000023,12/27/2020
Lewisham,Dance rehearsal studios,Twist Class Studios,99a Dartmouth Rd,,,E09000023,Lewisham,51.43603516130204,-0.05496683528766455,535291.9632164866,172575.92592154862,100023569253,E05000444,Forest Hill,http://twiststudios.co.uk,E09000023,12/27/2020
Lewisham,Dance rehearsal studios,The Broadway Theatre,34 Catford Broadway,,,E09000023,Lewisham,51.44529430145055,-0.020380851387899346,537667.9625712847,173669.9256209621,10023226829,E05000451,Rushey Green,https://www.broadwaytheatre.org.uk,E09000023,12/27/2020
Lewisham,Dance rehearsal studios,Brockley Jack Studio Theatre,410 Brockley Road,,,E09000023,Lewisham,51.45363917833209,-0.03907693467554407,536343.9629296733,174562.92537996225,100021937756,E05000441,Crofton Park,http://www.brockleyjack.co.uk,E09000023,12/27/2020
Lewisham,Dance rehearsal studios,Albany Centre and Theatre,1A Douglas Way,,,E09000023,Lewisham,51.47787709615518,-0.027409246524924713,537081.962728939,177279.92464037123,100023280749,E05000449,New Cross,http://www.thealbany.org.uk,E09000023,12/27/2020
Lewisham,Dance rehearsal studios,Rivoli Ballroom,350 Brockley Road,Crofton Park,,E09000023,Lewisham,51.45526233825693,-0.03719375110440745,536469.9628953201,174746.92533002852,10090782761,E05000441,Crofton Park,https://www.rivoliballroom.com,E09000023,12/27/2020
Lewisham,Fashion and design,"Gitas Portal, M. Mariatu",15 Comet Street,,,E09000023,Lewisham,51.47619206321238,-0.026675560548179024,537137.9627131717,177093.92469093425,1.00022E+11,E05000449,New Cross,,E09000023,12/27/2020
Lewisham,Fashion and design,Owen Leather,Studio 207,Cockpit Arts,18-22 Creekside,E09000023,Lewisham,51.47862646579653,-0.020651416477554294,537548.9626030873,177375.92461451323,1.00023E+11,E05000449,New Cross,http://www.owenleather.com,E09000023,12/27/2020
Lewisham,Fashion and design,Debbi Little,Studio 212,Cockpit Arts,18-22 Creekside,E09000023,Lewisham,51.47862646579653,-0.020651416477554294,537548.9626030873,177375.92461451323,1.00023E+11,E05000449,New Cross,https://cockpitarts.com/designer-makers/debbi-little,E09000023,12/27/2020
Lewisham,Fashion and design,Petershams Millinery Supplies,3 Creekside,,,E09000023,Lewisham,51.47661499527142,-0.021890630213565486,537468.9626236644,177149.92467584257,1.00023E+11,E05000449,New Cross,https://www.petershams.com,E09000023,12/27/2020
Lewisham,Fashion and design,Whelan Weaving,Studio 214,Cockpit Arts,18-22 Creekside,E09000023,Lewisham,51.47862646579653,-0.020651416477554294,537548.9626030873,177375.92461451323,1.00023E+11,E05000449,New Cross,http://www.whelansweaving.com,E09000023,12/27/2020
Lewisham,Fashion and design,Olivia Holland,Studio 209,Cockpit Arts,18-22 Creekside,E09000023,Lewisham,51.47862646579653,-0.020651416477554294,537548.9626030873,177375.92461451323,1.00023E+11,E05000449,New Cross,http://oliviajholland.co.uk,E09000023,12/27/2020
Lewisham,Fashion and design,Steven Harkin,Studio 7,Cockpit Arts,18-22 Creekside,E09000023,Lewisham,51.47862646579653,-0.020651416477554294,537548.9626030873,177375.92461451323,1.00023E+11,E05000449,New Cross,https://stevenharkin.com,E09000023,12/27/2020
Lewisham,Fashion and design,"Fronte, Jiyun Lapthorn ",Studio 203,Cockpit Arts,18-22 Creekside,E09000023,Lewisham,51.47862646579653,-0.020651416477554294,537548.9626030873,177375.92461451323,1.00023E+11,E05000449,New Cross,https://www.fronte.co.uk,E09000023,12/27/2020
Lewisham,Fashion and design,Tamara Walsh,Studio 109,Cockpit Arts,18-22 Creekside,E09000023,Lewisham,51.47862646579653,-0.020651416477554294,537548.9626030873,177375.92461451323,1.00023E+11,E05000449,New Cross,http://www.tamwalsh.com/,E09000023,12/27/2020
Lewisham,Fashion and design,S.A.M Creations ,Knit Shop UK,326 Lee High Road,,E09000023,Lewisham,51.45855051304157,0.005513484879884804,539426.9620940096,175192.92520786292,10093391177,E05000447,Lee Green,http://samcreationsyk.wixsite.com/tailor,E09000023,12/27/2020
Lewisham,Fashion and design,Mariano Palencia Crespo,Studio 206,Cockpit Arts,18-22 Creekside,E09000023,Lewisham,51.47862646579653,-0.020651416477554294,537548.9626030873,177375.92461451323,1.00023E+11,E05000449,New Cross,http://www.mpcbespokeshoes.com,E09000023,12/27/2020
Lewisham,Fashion and design,Pheobe English,5-9 Creekside,,,E09000023,Lewisham,51.47678646429299,-0.02192640847292843,537465.9626245649,177168.92467068182,1.00023E+11,E05000449,New Cross,http://www.phoebeenglish.com/shop-grid/,E09000023,12/27/2020
Lewisham,Fashion and design,Deco22,Studio 209,Cockpit Arts,18-22 Creekside,E09000023,Lewisham,51.47862646579653,-0.020651416477554294,537548.9626030873,177375.92461451323,1.00023E+11,E05000449,New Cross,http://www.deco22.co.uk/,E09000023,12/27/2020
Lewisham,Fashion and design,Row Pinto ,Studio 304,Cockpit Arts,18-22 Creekside,E09000023,Lewisham,51.47862646579653,-0.020651416477554294,537548.9626030873,177375.92461451323,1.00023E+11,E05000449,New Cross,http://rowpinto.com/,E09000023,12/27/2020
Lewisham,Fashion and design,Charlotte Grierson,Studio 306,Cockpit Arts,18-22 Creekside,E09000023,Lewisham,51.47862646579653,-0.020651416477554294,537548.9626030873,177375.92461451323,1.00023E+11,E05000449,New Cross,http://www.charlottegrierson.co.uk,E09000023,12/27/2020
Lewisham,Fashion and design,Catarina Riccabona,Studio 303,Cockpit Arts,18-22 Creekside,E09000023,Lewisham,51.47862646579653,-0.020651416477554294,537548.9626030873,177375.92461451323,1.00023E+11,E05000449,New Cross,http://www.catarinariccabona.com,E09000023,12/27/2020
Lewisham,Fashion and design,Creative Fashion Services,Unit 12 Excelsior Works , Rollins Street,,E09000023,Lewisham,51.484106303105634,-0.05034383172619012,535470.9631700307,177929.92446532636,1.00023E+11,E05000449,New Cross,http://www.cfscreativefashionservices.com/,E09000023,12/27/2020
Lewisham,Fashion and design,Emma Yeo,Cockpit Arts,18-22 Creekside,,E09000023,Lewisham,51.47862646579653,-0.020651416477554294,537548.9626030873,177375.92461451323,1.00023E+11,E05000449,New Cross,http://www.emmayeo.com,E09000023,12/27/2020
Lewisham,Fashion and design,Elizabeth Ashdown ,Studio 213,Cockpit Arts,18-22 Creekside,E09000023,Lewisham,51.47862646579653,-0.020651416477554294,537548.9626030873,177375.92461451323,1.00023E+11,E05000449,New Cross,http://www.elizabethashdown.co.uk,E09000023,12/27/2020
Lewisham,Jewellery design,Ayyappaa Jewellery Workshop Ltd,128 Loampit Vale,,,E09000023,Lewisham,51.4656868577402,-0.018591500568518448,537730.9626765316,175940.9251283463,100023236024,E05000446,Ladywell,,E09000023,12/27/2020
Lewisham,Jewellery design,Hannah Bedford Limited,Studio 210 Cockpit Arts,18 - 22 Creekside,,E09000023,Lewisham,51.47862646686408,-0.02065141467288019,537548.9627251873,177375.92473661242,10091837237,E05000449,New Cross,http://www.hannahbedford.co.uk,E09000023,12/27/2020
Lewisham,Jewellery design,Lula B London Limited,30 Wyleu Street,,,E09000023,Lewisham,51.44811918406608,-0.04294010284102918,536091.9631205996,173941.9256708111,100023253471,E05000441,Crofton Park,,E09000023,12/27/2020
Lewisham,Libraries,Sydenham community library service,Sydenham Road,,,E09000023,Lewisham,51.42692871607006,-0.040594374623262014,536317.9630606032,171589.9263107038,100023262826,E05000452,Sydenham,,E09000023,12/27/2020
Lewisham,Libraries,Downham Library,Moorside Road,Bromley,,E09000023,Lewisham,51.427072939198766,0.009860706418794473,539824.9621084176,171700.9262772377,100022890162,E05000442,Downham,,E09000023,12/27/2020
Lewisham,Libraries,Forest Hill Library,Dartmouth Road,,,E09000023,Lewisham,51.435893450503784,-0.056181427931809545,535207.9633615606,172557.92604854185,100023257020,E05000444,Forest Hill,,E09000023,12/27/2020
Lewisham,Libraries,Grove Park community library service,Somertrees Avenue,,,E09000023,Lewisham,51.4359574416333,0.023487575502772487,540744.9618575166,172714.92600374314,100023232090,E05000445,Grove Park,,E09000023,12/27/2020
Lewisham,Libraries,Torridon Road Library,Torridon Road,,,E09000023,Lewisham,51.44234940047804,-0.0015708882847137867,538983.962338323,173377.92582294188,100023276877,E05000440,Catford South,,E09000023,12/27/2020
Lewisham,Libraries,Catford library,Catford Road,,,E09000023,Lewisham,51.44461571417679,-0.020669219921529154,537649.9626981677,173593.92576374905,200000556121,E05000451,Rushey Green,,E09000023,12/27/2020
Lewisham,Libraries,Crofton Park community library service,Brockley Road,,,E09000023,Lewisham,51.455445096952516,-0.03629348437077293,536531.9630004575,174768.9254461493,100023271665,E05000441,Crofton Park,,E09000023,12/27/2020
Lewisham,Libraries,Manor House Library,Old Road,,,E09000023,Lewisham,51.45731767101268,0.004509414834028291,539360.9622339455,175053.92536752747,100023570127,E05000447,Lee Green,,E09000023,12/27/2020
Lewisham,Libraries,Lewisham Library,Lewisham High Street,,,E09000023,Lewisham,51.459274497800756,-0.011657205039785986,538231.9625396793,175240.9253173179,100023234441,E05000448,Lewisham Central,,E09000023,12/27/2020
Lewisham,Libraries,Blackheath Village community library service,Blackheath Grove,,,E09000023,Lewisham,51.46619682016089,0.009577580537581539,539685.9621433753,176050.92509520176,100023268086,E05000438,Blackheath,,E09000023,12/27/2020
Lewisham,Libraries,New Cross community library service,New Cross Road,,,E09000023,Lewisham,51.47552113785268,-0.038671307681292365,536306.963061503,176996.92483890377,100023239028,E05000449,New Cross,,E09000023,12/27/2020
Lewisham,Libraries,The Library at Deptford Lounge,Giffin Street,,,E09000023,Lewisham,51.477707425061055,-0.024277121156345824,537299.9627920247,177266.92476609803,10023235598,E05000449,New Cross,,E09000023,12/27/2020
Lewisham,Libraries,Pepys community library service,Foreshore,,,E09000023,Lewisham,51.48982051294296,-0.030667505987594053,536819.9629244455,178601.92440300743,100023569428,E05000443,Evelyn,,E09000023,12/27/2020
Lewisham,Live in artists' workspace,Bow Arts,Leegate House,Burnt Ash Road,Lee,E09000023,Lewisham,51.455690670494775,0.011822410817331026,539873.9620936855,174886.92541429272,100023000000,E05000447,Lee Green,www.bowarts.org,E09000023,12/27/2020
Lewisham,Makerspaces,Ceramics Studio Co-Op,Ceramics Studio Co-Op,"Unit 14 And 17, Block C",Juno Way,E09000023,Lewisham,51.4830831239938,-0.045605732505758265,535802.963078761,177824.9244930346,100024000000,E05000449,New Cross,ceramicsstudio.coop,E09000023,12/27/2020
Lewisham,Makerspaces,The Talent Factory,The Talent Factory,"The Talent Factory, Unit 8, Barmeston Road, London",,E09000023,Lewisham,51.43892738685384,-0.020915070189587697,537649.9625746191,172960.92581453454,100023000000,E05000440,Catford South,http://capitaltalent.co.uk/the-talent-factory,E09000023,12/27/2020
Lewisham,Making and manufacturing,Framework Picture Framing LTD,5-9Â  Creekside,,,E09000023,Lewisham,51.47678646536057,-0.02192640666835927,537465.9627466651,177168.92479278153,10070773229,E05000449,New Cross,http://www.arthub.org.uk/framing/,E09000023,12/27/2020
Lewisham,Making and manufacturing,Axion Furniture Makers,Unit 12 Elizabeth Trading Estate,Juno Way,,E09000023,Lewisham,51.482713683773284,-0.04448371439230022,535881.963179114,177785.92462553363,10093391211,E05000449,New Cross,http://www.axionfurniture.co.uk,E09000023,12/27/2020
Lewisham,Making and manufacturing,South London Foundry (Wrightson & Platt Ltd),36-37 Brockley Cross Business Centre,96 Endwell Road,,E09000023,Lewisham,51.46529149804075,-0.04000275206928671,536244.9630781352,175856.92515025742,10094267184,E05000453,Telegraph Hill,https://www.southlondonfoundry.co.uk,E09000023,12/27/2020
Lewisham,Making and manufacturing,Project 2020,4 Creekside,,,E09000023,Lewisham,51.47637649331604,-0.02161294056411605,537488.9627402232,177123.9248050102,1.00023E+11,E05000449,New Cross,http://www.project2020.co.uk,E09000023,12/27/2020
Lewisham,Making and manufacturing,London Bronze Casting,Parkside Business Estate,Rolt Street,,E09000023,Lewisham,51.48315390967227,-0.0374650445085595,536367.9630455784,177847.9246080037,1.00024E+11,E05000443,Evelyn,http://www.londonbronzecasting.com,E09000023,12/27/2020
Lewisham,Museums and public galleries,Horniman Museum and Gardens,100 London Road,Forest Hill,NA,E09000023,Lewisham,51.44113086969214,-0.06073639063465305,534875.9634526732,173131.92589071288,10091839078,E05000444,Forest Hill,http://www.horniman.ac.uk/,E09000023,12/27/2020
Lewisham,Music (office based businesses),Hasmick Promotions Ltd,Unit 8 Forest Hill Industrial Estate,Perry Vale,Lewisham,E09000023,LEWISHAM,51.43644469260523,-0.05309339252194312,535420.9631811932,172624.9259081874,100023254123,E05000450,Perry Vale,www.hasmick.co.uk,E09000023,12/27/2020
Lewisham,Music (office based businesses),Rub A Dub Records Ltd,11 Knighton Park Road,Lewisham,,E09000023,Lewisham,51.42515108474786,-0.04561866910488151,535973.9631547941,171382.92636641068,100000000000,E05000452,Sydenham,,E09000023,12/27/2020
Lewisham,Music (office based businesses),Cubafilin Records Ltd,6 Doctors Close,Lewisham,,E09000023,Lewisham,51.42565901596938,-0.05560873245499841,535277.9633433609,171420.92635526846,100000000000,E05000452,Sydenham,,E09000023,12/27/2020
Lewisham,Music (office based businesses),Fyesta Music / Rmoney Records Ltd,407 Downham Way,Lewisham,,E09000023,Lewisham,51.42601899669113,0.013108614159660529,540053.962046189,171589.9263062828,100000000000,E05000442,Downham,,E09000023,12/27/2020
Lewisham,Music (office based businesses),Waveney Music Publishing Ltd,17 Kingsthorpe Road,Lewisham,,E09000023,Lewisham,51.42770522033872,-0.050487042792765224,535627.9632485039,171657.92629192496,100000000000,E05000452,Sydenham,www.waveneymusicpublishing.com,E09000023,12/27/2020
Lewisham,Music (office based businesses),Quiffmanrecords Ltd,5 Pullman Mews,Lewisham,,E09000023,Lewisham,51.429977321606685,0.022432136489723344,540689.961872692,172047.92618389928,200000000000,E05000445,Grove Park,,E09000023,12/27/2020
Lewisham,Music (office based businesses),Underoneroof Records Ltd,11 Fifield Path,Lewisham,,E09000023,Lewisham,51.4350169098973,-0.04997443080199431,535641.963243069,172471.92607144802,200000000000,E05000450,Perry Vale,,E09000023,12/27/2020
Lewisham,Music (office based businesses),Top Keys Record Label Ltd,57 Datchet Road,Lewisham,,E09000023,Lewisham,51.435082444553174,-0.030231782633741103,537013.9628688007,172515.92605684447,100000000000,E05000437,Bellingham,,E09000023,12/27/2020
Lewisham,Music (office based businesses),Twister Records Ltd,80 Fordmill Road,Lewisham,,E09000023,Lewisham,51.43619933552792,-0.02445730475718445,537411.9627606675,172650.92602060427,100000000000,E05000437,Bellingham,,E09000023,12/27/2020
Lewisham,Music (office based businesses),Robot Elephant Records Ltd,Flat 3 46,Sunderland Road,Lewisham,E09000023,Lewisham,51.43890882626438,-0.04769355381932668,535788.9632029848,172908.9259514772,100000000000,E05000450,Perry Vale,www.robotelephant.co.uk,E09000023,12/27/2020
Lewisham,Music (office based businesses),Dreamreal Records Ltd,262 Burnt Ash Hill,Lewisham,,E09000023,Lewisham,51.437732238026285,0.021738635475312094,540617.9618921279,172908.92595027864,100000000000,E05000445,Grove Park,,E09000023,12/27/2020
Lewisham,Music (office based businesses),Duly Noted Records Ltd,214 Verdant Lane,Lewisham,,E09000023,Lewisham,51.43813896551137,0.0053821968155698275,539479.9622027182,172922.92594660202,100000000000,E05000440,Catford South,,E09000023,12/27/2020
Lewisham,Music (office based businesses),Blak Hand Records Ltd,126 Dowanhill Road,Lewisham,,E09000023,Lewisham,51.44027869989735,-0.007776738516491093,538558.9624525972,173135.9258885043,100000000000,E05000440,Catford South,,E09000023,12/27/2020
Lewisham,Music (office based businesses),Ovastak Records Ltd,51 Canadian Avenue,Lewisham,,E09000023,Lewisham,51.44090678222763,-0.02203825007558755,537565.9627203238,173178.92587630852,100000000000,E05000451,Rushey Green,,E09000023,12/27/2020
Lewisham,Music (office based businesses),My House Records Ltd,81 Minard Road,Lewisham,,E09000023,Lewisham,51.44285376303762,0.0004945314893318243,539125.9622990981,173437.92580597586,100000000000,E05000440,Catford South,,E09000023,12/27/2020
Lewisham,Music (office based businesses),Born A Nonentity Records Ltd,42 Honor Oak Road,Lewisham,,E09000023,Lewisham,51.44415091691421,-0.0557589119943569,535212.9633606542,173476.9257967802,100000000000,E05000444,Forest Hill,,E09000023,12/27/2020
Lewisham,Music (office based businesses),Polymorph Records Ltd,69 Codrington Hill,Lewisham,,E09000023,Lewisham,51.44849450810746,-0.03795888625542039,536436.9630263019,173992.9256558293,100000000000,E05000441,Crofton Park,www.polymorphrecords.com,E09000023,12/27/2020
Lewisham,Music (office based businesses),Underfound Records Ltd,41 Hawstead Road,Lewisham,,E09000023,Lewisham,51.44965046503997,-0.01953044593792801,537713.9626816761,174155.92561017157,100000000000,E05000451,Rushey Green,,E09000023,12/27/2020
Lewisham,Music (office based businesses),Hyperion Records Ltd,Unit 19-20 Chiltonian Industrial Estate,Manor Lane,Lewisham,E09000023,Lewisham,51.449513714135236,0.008082428714279173,539632.9621590906,174192.92560137273,10091637987,E05000447,Lee Green,www.hyperion-records.co.uk,E09000023,12/27/2020
Lewisham,Music (office based businesses),Radiogram Records Ltd,84 Buckthorne Road,Lewisham,,E09000023,Lewisham,51.453688520040444,-0.04041340671139614,536250.9630773613,174565.92550072412,100000000000,E05000441,Crofton Park,,E09000023,12/27/2020
Lewisham,Music (office based businesses),Fuzzy Moon Records Ltd,110 Aspinall Road,Lewisham,,E09000023,Lewisham,51.46282510832812,-0.04416819755008859,535962.9631557425,175574.92522658274,100000000000,E05000453,Telegraph Hill,,E09000023,12/27/2020
Lewisham,Music (office based businesses),Organ Grinder Records Ltd,6 Darling Road,Lewisham,,E09000023,Lewisham,51.46608076315126,-0.025413191172490173,537255.9628046663,175971.92511882784,100000000000,E05000439,Brockley,,E09000023,12/27/2020
Lewisham,Music (office based businesses),Sanus Hao Ltd,26 Carteret Way,Lewisham,,E09000023,Lewisham,51.49050101657121,-0.03638585311398745,536420.9630326802,178666.9243850815,100000000000,E05000443,Evelyn,www.sanushao.com,E09000023,12/27/2020
Lewisham,Music recording studios,Adb Archstudio,23a Halesworth Road,Lewisham,,E09000023,Lewisham,51.46591032719767,-0.020107936522925824,537624.9627052592,175962.92512165854,100000000000,E05000446,Ladywell,,E09000023,12/27/2020
Lewisham,Music rehearsal studios,The Music Complex,20 Tanners Hill,Lewisham,,E09000023,Lewisham,51.47459856908601,-0.026571574463433084,537149.9628320308,176916.92486067733,100000000000,E05000439,Brockley,www.musiccomplex.co.uk,E09000023,12/27/2020
Lewisham,Music rehearsal studios,Music Room London,116-118 New Cross Road,Lewisham,,E09000023,Lewisham,51.47589120684783,-0.0484478238255408,535626.9632487366,177019.92483145633,100000000000,E05000453,Telegraph Hill,www.musicroomlondon.com,E09000023,12/27/2020
Lewisham,Music rehearsal studios,The Music Room,116-118 New Cross Road,Lewisham,,E09000023,Lewisham,51.47589120684783,-0.0484478238255408,535626.9632487366,177019.92483145633,100000000000,E05000453,Telegraph Hill,www.musicroomlondon.com,E09000023,12/27/2020
Lewisham,Music venues (all),The Albany,Albany Centre & Theatre Douglas Way,Lewisham,,E09000023,LEWISHAM,51.477463523260276,-0.026347023270993093,537156.9627085035,177235.92465235898,100023280903,E05000449,New Cross,www.thealbany.org.uk,E09000023,12/27/2020
Lewisham,Music venues (all),The White Hart,184 New Cross Road,Lewisham,,E09000023,Lewisham,51.47449528776908,-0.046707401612780995,535751.9632140604,176867.92487308604,100000000000,E05000453,Telegraph Hill,,E09000023,12/27/2020
Lewisham,Music venues (all),Sister Midnight Records,4 Tanner's Hill,,,,,51.47468690951841,-0.025994096801358776,537189.8000313122,176927.82970821584,,,,www.sistermidnightrecords.co.uk,E09000023,12/27/2020
Lewisham,Music venues (all),St. Bartholomews Church,4 Westwood Hill,Lewisham,,E09000023,Lewisham,51.42749815586806,-0.05696920191689756,535177.9633701693,171622.9263007231,100000000000,E05000452,Sydenham,www.stbartschurchsydenham.org,E09000023,12/27/2020
Lewisham,Music venues (all),Baring Hall,368 Baring Road,Lewisham,,E09000023,Lewisham,51.43088251010535,0.02104785375534526,540590.9618999659,172145.9261571298,100000000000,E05000442,Downham,www.baringhallhotel.com,E09000023,12/27/2020
Lewisham,Music venues (all),Maestro Arts & Entertainment Centre,Regent House Business Centre 291,Kirkdale,Lewisham,E09000023,Lewisham,51.43273327753912,-0.060300691110804085,534930.9634372246,172198.92614570074,10023230557,E05000444,Forest Hill,,E09000023,12/27/2020
Lewisham,Music venues (all),The Windmill,22 Blenheim Gardens,Lambeth,,E09000023,Lewisham,51.44152254603548,-0.050201031343117104,535606.9632524624,173194.92587350006,100000000000,E05000450,Perry Vale,www.windmillbrixton.co.uk,E09000023,12/27/2020
Lewisham,Music venues (all),Riva Lounge,3 Bromley Road,Lewisham,,E09000023,Lewisham,51.44384022512336,-0.020011999079526544,537697.9626851799,173508.9257862519,100000000000,E05000451,Rushey Green,,E09000023,12/27/2020
Lewisham,Music venues (all),Nuvo Lounge,177 Rushey Green,Lewisham,,E09000023,Lewisham,51.44489234962153,-0.019477216967163053,537731.9626761273,173626.92575412447,10070773731,E05000451,Rushey Green,,E09000023,12/27/2020
Lewisham,Music venues (all),The Broadway Theatre,Old Town Hall Rushey Green,Lewisham,,E09000023,Lewisham,51.445202002350975,-0.021305856721634243,537603.9627107689,173657.9257457606,10091912968,E05000451,Rushey Green,www.broadwaytheatre.org.uk,E09000023,12/27/2020
Lewisham,Music venues (all),Lord Northbrook,116 Burnt Ash Road,Lewisham,,E09000023,Lewisham,51.450909933121835,0.012144854449121258,539910.962083859,174355.925557842,100000000000,E05000447,Lee Green,www.thelordnorthbrook.co.uk,E09000023,12/27/2020
Lewisham,Music venues (all),Station,14 Staplehurst Rd Hither Green,London,,E09000023,Lewisham,51.453068503903886,3.411350831017293e-05,539062.9623140501,174572.925496827,0,E05000447,Lee Green,www.stationhotelhithergreen.co.uk,E09000023,12/27/2020
Lewisham,Music venues (all),Rivoli Ballroom,350 Brockley Road,Lewisham,,E09000023,Lewisham,51.455245089349695,-0.037237670885249645,536466.9630183375,174744.92545206734,100000000000,E05000441,Crofton Park,www.rivoliballroom.com,E09000023,12/27/2020
Lewisham,Music venues (all),Fox & Firkin,316 Lewisham High Street,Lewisham,,E09000023,Lewisham,51.45698291273962,-0.014405371530122358,538047.9625893887,174980.92538739793,100000000000,E05000448,Lewisham Central,www.foxfirkin.com,E09000023,12/27/2020
Lewisham,Music venues (all),Bar Nuvo,286 Lewisham High Street,Lewisham,,E09000023,Lewisham,51.45747469573864,-0.013707482518917513,538094.9625766431,175036.92537219002,100000000000,E05000448,Lewisham Central,,E09000023,12/27/2020
Lewisham,Music venues (all),Joiners Arms,66 Lewisham High Street,Lewisham,,E09000023,Lewisham,51.46321843929007,-0.0108955317286509,538272.9625295546,175680.92519720196,100000000000,E05000448,Lewisham Central,,E09000023,12/27/2020
Lewisham,Music venues (all),O'neills,52 Tranquil Vale,Lewisham,,E09000023,Lewisham,51.466861685432605,0.008037432768731423,539576.9621734152,176121.9250752384,200000000000,E05000438,Blackheath,www.oneills.co.uk/national-search/london/blackheath,E09000023,12/27/2020
Lewisham,Music venues (all),Bunker Club,46 Deptford Broadway,Lewisham,,E09000023,Lewisham,51.474558296022565,-0.025248502089590286,537241.9628071014,176914.92486126645,100000000000,E05000439,Brockley,,E09000023,12/27/2020
Lewisham,Music venues (all),Royal Albert,460 New Cross Road,Lewisham,,E09000023,Lewisham,51.47512040324416,-0.02872348409117244,536998.962872891,176970.9248458653,100000000000,E05000439,Brockley,www.royalalbertpub.com,E09000023,12/27/2020
Lewisham,Music venues (all),Five Bells,155 New Cross Road,Lewisham,,E09000023,Lewisham,51.47553868030656,-0.04672042112741106,535747.963215414,176983.92484127014,100000000000,E05000449,New Cross,,E09000023,12/27/2020
Lewisham,Music venues (all),The Amersham Arms,388 New Cross Road,Lewisham,,E09000023,Lewisham,51.475554136830425,-0.032592892431076645,536728.9629461085,177011.92483458086,100000000000,E05000439,Brockley,www.theamershamarms.co.uk,E09000023,12/27/2020
Lewisham,Music venues (all),New Cross Inn,323 New Cross Road,Lewisham,,E09000023,Lewisham,51.475855054446384,-0.03713051302694481,536412.9630324711,177036.92482756492,100000000000,E05000449,New Cross,www.newcrossinn.com,E09000023,12/27/2020
Lewisham,Music venues (all),The Venue,42827 Clifton Rise,Lewisham,,E09000023,Lewisham,51.47594763738938,-0.03675211986603345,536438.9630253293,177047.9248246047,100000000000,E05000449,New Cross,www.thevenuelondon.com,E09000023,12/27/2020
Lewisham,Music venues (all),Birds Nest,32 Deptford Church Street,Lewisham,,E09000023,Lewisham,51.47614916368606,-0.022530025723078606,537425.9627572815,177096.92481171608,100000000000,E05000449,New Cross,www.thebirdsnestpub.com,E09000023,12/27/2020
Lewisham,Music venues (all),Number3london,3 Creekside,Lewisham,,E09000023,Lewisham,51.47661499633355,-0.021890628407843185,537468.9627458609,177149.92479733948,100000000000,E05000449,New Cross,,E09000023,12/27/2020
Lewisham,Music venues (all),Job Centre,120 Deptford High St London,,,E09000023,Lewisham,51.47836387524804,-0.02587608477848903,537186.9628229393,177336.92474642873,0,E05000449,New Cross,www.jobcentredeptford.com,E09000023,12/27/2020
Lewisham,Music venues (grassroots),The White Hart,184 New Cross Road,Lewisham,,E09000023,Lewisham,51.47449528776908,-0.046707401612780995,535751.9632140604,176867.92487308604,100000000000,E05000453,Telegraph Hill,,E09000023,12/27/2020
Lewisham,Music venues (grassroots),Sister Midnight Records,4 Tanner's Hill,,,,,51.47468690951841,-0.025994096801358776,537189.8000313122,176927.82970821584,,,,www.sistermidnightrecords.co.uk,E09000023,12/27/2020
Lewisham,Music venues (grassroots),The Windmill,22 Blenheim Gardens,Lambeth,,E09000023,Lewisham,51.44152254603548,-0.050201031343117104,535606.9632524624,173194.92587350006,100000000000,E05000450,Perry Vale,www.windmillbrixton.co.uk,E09000023,12/27/2020
Lewisham,Music venues (grassroots),Fox & Firkin,316 Lewisham High Street,Lewisham,,E09000023,Lewisham,51.45698291273962,-0.014405371530122358,538047.9625893887,174980.92538739793,100000000000,E05000448,Lewisham Central,www.foxfirkin.com,E09000023,12/27/2020
Lewisham,Music venues (grassroots),The Amersham Arms,388 New Cross Road,Lewisham,,E09000023,Lewisham,51.475554136830425,-0.032592892431076645,536728.9629461085,177011.92483458086,100000000000,E05000439,Brockley,www.theamershamarms.co.uk,E09000023,12/27/2020
Lewisham,Music venues (grassroots),New Cross Inn,323 New Cross Road,Lewisham,,E09000023,Lewisham,51.475855054446384,-0.03713051302694481,536412.9630324711,177036.92482756492,100000000000,E05000449,New Cross,www.newcrossinn.com,E09000023,12/27/2020
Lewisham,Prop and costume making,Prangsta,302-304 New Cross Road,,,E09000023,Lewisham,51.47539233866761,-0.03742399679783865,536393.9630375598,176984.92484228365,1.00023E+11,E05000439,Brockley,http://www.prangsta.co.uk,E09000023,12/27/2020
Lewisham,Prop and costume making,Smoking Apples ,The Old Police Station,114 Amersham Vale ,,E09000023,Lewisham,51.479444816943406,-0.03186368493171336,536767.9629362816,177445.92471719324,1.00023E+11,E05000449,New Cross,http://smokingapplestheatre.com,E09000023,12/27/2020
Lewisham,Pubs,Bonnie's,28-30 Bromley Hill,Bromley,Downham,E09000023,Lewisham,51.42094725762445,-0.0016269612308863815,539044.9623188099,170997.92646999215,,E05000442,Downham,,E09000023,12/27/2020
Lewisham,Pubs,Downham Tavern,419 Downham Way,Grove Park,Downham,E09000023,Lewisham,51.427628268013926,0.013136172476824224,540050.9620472365,171768.92625865416,,E05000442,Downham,,E09000023,12/27/2020
Lewisham,Pubs,Crown Tavern,117 Burnt Ash Hill,Lee,London,E09000023,Lewisham,51.443690926954346,0.01777090850811226,540323.9619707046,173563.92577285692,,E05000445,Grove Park,,E09000023,12/27/2020
Lewisham,Pubs,Baring Hall Hotel,368 Baring Road,Grove Park,London,E09000023,Lewisham,51.432816026929125,0.021046858145582284,540584.9619016759,172360.92609952507,,E05000445,Grove Park,,E09000023,12/27/2020
Lewisham,Pubs,Summerfield,60 Baring Road,Lee,London,E09000023,Lewisham,51.44323013878913,0.01475740849140383,540115.9620266773,173506.92578793236,,E05000445,Grove Park,,E09000023,12/27/2020
Lewisham,Pubs,Lord Northbrook,116 Burnt Ash Road,Lee,London,E09000023,Lewisham,51.45102773905693,0.01209246091302672,539906.9620848416,174368.9255549084,,E05000447,Lee Green,,E09000023,12/27/2020
Lewisham,Pubs,Old Tigers Head,351 Lee High Road,Lee,London,E09000023,Lewisham,51.45739969012416,0.00917691359605816,539684.9621453364,175071.9253635644,,E05000438,Blackheath,,E09000023,12/27/2020
Lewisham,Pubs,Duke of Edinburgh,394 Lee High Road,Lee,London,E09000023,Lewisham,51.45640504036824,0.01054391172037165,539782.9621185171,174963.92539314996,,E05000447,Lee Green,,E09000023,12/27/2020
Lewisham,Pubs,Edmund Halley,27 Leegate,Lee,London,E09000023,Lewisham,51.45570751305308,0.01241331548212643,539914.962082501,174889.92541358928,,E05000447,Lee Green,,E09000023,12/27/2020
Lewisham,Pubs,Dacre Arms,11 Kingswood Place,Lewisham,London,E09000023,Lewisham,51.46107113363606,0.003781274154807399,539298.96225095,175469.9252540919,,E05000438,Blackheath,,E09000023,12/27/2020
Lewisham,Pubs,Joiners Arms,66 Lewisham High Street,Lewisham,London,E09000023,Lewisham,51.46291022373254,-0.010750572539444067,538283.9625264322,175646.9252070067,,E05000448,Lewisham Central,,E09000023,12/27/2020
Lewisham,Pubs,Lewisham Tavern,1 Lee High Road,Lewisham,London,E09000023,Lewisham,51.46233101198435,-0.008414775893943752,538447.9624821481,175586.92522289586,,E05000438,Blackheath,,E09000023,12/27/2020
Lewisham,Pubs,Station Hotel,14 Staplehurst Road,Hither Green,London,E09000023,Lewisham,51.45308043271659,-0.0001380862126481165,539050.9623172154,174573.9254971288,,E05000447,Lee Green,,E09000023,12/27/2020
Lewisham,Pubs,Park Fever,21a Staplehurst Road,Hither Green,,E09000023,Lewisham,51.453240798004664,-0.0005772775878654625,539019.9623256947,174590.9254924273,,E05000447,Lee Green,,E09000023,12/27/2020
Lewisham,Pubs,Rambles,207 Lee High Road,Lewisham,London,E09000023,Lewisham,51.45888248431325,0.004505971488275896,539355.9622356255,175227.92532024632,,E05000438,Blackheath,,E09000023,12/27/2020
Lewisham,Pubs,Dirty South,162 Lee High Road,Lewisham,London,E09000023,Lewisham,51.45951588672696,-0.004161115084998068,538751.9624001784,175281.92530484154,,E05000448,Lewisham Central,,E09000023,12/27/2020
Lewisham,Pubs,Suttons Radio,139-141 Lewisham High Street,Lewisham,London,E09000023,Lewisham,51.4602942555661,-0.01080673227941098,538287.962524854,175355.9252859634,,E05000448,Lewisham Central,,E09000023,12/27/2020
Lewisham,Pubs,Watch House,198-204 Lewisham High Street,Lewisham,London,E09000023,Lewisham,51.45982997349645,-0.01206492864180503,538201.9625478531,175301.92530083848,,E05000448,Lewisham Central,,E09000023,12/27/2020
Lewisham,Pubs,Fox & Firkin,316 Lewisham High Street,Lewisham,London,E09000023,Lewisham,51.457272396492876,-0.01397536658162539,538076.9625814271,175013.92537903925,,E05000448,Lewisham Central,,E09000023,12/27/2020
Lewisham,Pubs,Jolly Farmers,354 Lewisham High Street,Lewisham,London,E09000023,Lewisham,51.45613313542433,-0.015205137083132071,537994.9626037751,174884.9254139809,,E05000448,Lewisham Central,,E09000023,12/27/2020
Lewisham,Pubs,Ladywell Tavern,80 Ladywell Road,Lewisham,Ladywell,E09000023,Lewisham,51.45629158136635,-0.021387837447461998,537564.9627200924,174890.92541284295,,E05000446,Ladywell,,E09000023,12/27/2020
Lewisham,Pubs,Anchor,165 Lewisham Road,Lewisham,London,E09000023,Lewisham,51.46566972610383,-0.01067376308688149,538280.9625277594,175953.92512370768,,E05000438,Blackheath,,E09000023,12/27/2020
Lewisham,Pubs,Rising Sun,120 Loampit Vale,Lewisham,London,E09000023,Lewisham,51.46549716159632,-0.01800943369552805,537771.9626653959,175920.92513376306,,E05000446,Ladywell,,E09000023,12/27/2020
Lewisham,Pubs,White Hart,184 New Cross Road,New Cross,London,E09000023,Lewisham,51.47486733190636,-0.046907508942458716,535736.9632181791,176908.92486232764,,E05000453,Telegraph Hill,,E09000023,12/27/2020
Lewisham,Pubs,Five Bells,155 New Cross Road,New Cross,London,E09000023,Lewisham,51.47607404738968,-0.047547176301884396,535688.9632315962,177041.92482610344,,E05000449,New Cross,,E09000023,12/27/2020
Lewisham,Pubs,Telegraph at The Earl of Derby,87 Dennett's Road,New Cross,London,E09000023,Lewisham,51.47033909072199,-0.05039825397267897,535507.9632796652,176398.92500225338,,E05000453,Telegraph Hill,,E09000023,12/27/2020
Lewisham,Pubs,Skehans,1 Kitto Road,New Cross,London,E09000023,Lewisham,51.46763776072047,-0.04856970669217752,535642.9632419551,176101.92508382798,,E05000453,Telegraph Hill,,E09000023,12/27/2020
Lewisham,Pubs,Rose Pub & Kitchen,272 New Cross Road,New Cross,London,E09000023,Lewisham,51.47489875169067,-0.03963403324941939,536241.9630793332,176925.9248582262,,E05000439,Brockley,,E09000023,12/27/2020
Lewisham,Pubs,Out of the Brew,306 New Cross Road,New Cross,London,E09000023,Lewisham,51.47539233866761,-0.03742399679783865,536393.9630375598,176984.92484228365,,E05000439,Brockley,,E09000023,12/27/2020
Lewisham,Pubs,New Cross House,316 New Cross Road,New Cross,London,E09000023,Lewisham,51.47539233866761,-0.03742399679783865,536393.9630375598,176984.92484228365,,E05000439,Brockley,,E09000023,12/27/2020
Lewisham,Pubs,Marquis of Granby,322 New Cross Road,New Cross,London,E09000023,Lewisham,51.47565572976159,-0.034359775877226974,536605.9629793987,177019.9248329688,,E05000439,Brockley,,E09000023,12/27/2020
Lewisham,Pubs,New Cross Inn,323 New Cross Road,New Cross,London,E09000023,Lewisham,51.4755248248835,-0.038354338865615366,536328.9630554507,176997.92483865714,,E05000449,New Cross,,E09000023,12/27/2020
Lewisham,Pubs,Walpole Pub & Kitchen,407 New Cross Road,New Cross,London,E09000023,Lewisham,51.476068729192264,-0.03324756347806484,536681.9629588553,177067.9248199393,,E05000449,New Cross,,E09000023,12/27/2020
Lewisham,Pubs,Fat Walrus,44 Lewisham Way,New Cross,London,E09000023,Lewisham,51.474118325500115,-0.03438270023266967,536608.9629785857,176848.9248795876,,E05000439,Brockley,,E09000023,12/27/2020
Lewisham,Pubs,Flower of Kent,135 Lewisham Way,New Cross,London,E09000023,Lewisham,51.47176039238991,-0.02999155447519865,536920.9628943156,176594.9249490748,,E05000439,Brockley,,E09000023,12/27/2020
Lewisham,Pubs,Ale Bar,443 New Cross Road,New Cross,London,E09000023,Lewisham,51.47582853373511,-0.03019058965778225,536894.9629010442,177046.9248257231,,E05000449,New Cross,,E09000023,12/27/2020
Lewisham,Pubs,Star & Garter,490 New Cross Road,New Cross,London,E09000023,Lewisham,51.47493734088875,-0.027464159480594164,537086.9628489567,176952.92485141993,,E05000439,Brockley,,E09000023,12/27/2020
Lewisham,Pubs,Royal Albert,460 New Cross Road,New Cross,London,E09000023,Lewisham,51.47493734088875,-0.027464159480594164,537086.9628489567,176952.92485141993,,E05000439,Brockley,,E09000023,12/27/2020
Lewisham,Pubs,Little Crown,495 New Cross Road,New Cross,London,E09000023,Lewisham,51.475245808161674,-0.02709083501005427,537111.962842125,176987.92484187137,,E05000449,New Cross,,E09000023,12/27/2020
Lewisham,Pubs,Amersham Arms,388 New Cross Road,New Cross,London,E09000023,Lewisham,51.47542801547682,-0.03043826238319159,536878.9629053103,177001.92483796296,,E05000439,Brockley,,E09000023,12/27/2020
Lewisham,Pubs,Montague Arms,289 Queens Road,Peckham,London,E09000023,Lewisham,51.47349033202516,-0.05170386434137322,535407.9633081268,176746.92490652885,,E05000453,Telegraph Hill,,E09000023,12/27/2020
Lewisham,Pubs,Railway Telegraph,112 Stanstead Road,Forest Hill,London,E09000023,Lewisham,51.442196556515206,-0.04909309297603523,535681.9632319855,173271.92585283023,,E05000450,Perry Vale,,E09000023,12/27/2020
Lewisham,Pubs,General Napier,73 Bovil Road,Forest Hill,Honor Oak,E09000023,Lewisham,51.4460041743955,-0.04445522730393808,535992.9631476279,173703.92573543114,,E05000441,Crofton Park,,E09000023,12/27/2020
Lewisham,Pubs,Blythe Hill Tavern,319 Stanstead Road,Forest Hill,London,E09000023,Lewisham,51.44248132038139,-0.03492126021103314,536665.9629646947,173329.9258358397,,E05000441,Crofton Park,,E09000023,12/27/2020
Lewisham,Pubs,Chandos,56 Brockley Rise,Forest Hill,Honor Oak,E09000023,Lewisham,51.448151413888574,-0.040564095917451144,536256.9630754747,173949.9256683779,,E05000441,Crofton Park,,E09000023,12/27/2020
Lewisham,Pubs,Honor Oak,1 St German's Road,Forest Hill,London,E09000023,Lewisham,51.44336466646283,-0.04148846099587457,536206.9630893589,173415.9258131403,,E05000441,Crofton Park,,E09000023,12/27/2020
Lewisham,Pubs,All Inn One,53 Perry Vale,Forest Hill,London,E09000023,Lewisham,51.439392326924406,-0.051888906351200144,535495.9632826555,172954.92593989184,,E05000450,Perry Vale,,E09000023,12/27/2020
Lewisham,Pubs,Prince of Wales,52 Perry Rise,Forest Hill,London,E09000023,Lewisham,51.43385222899299,-0.042686520048584926,536151.9631037251,172355.92610212188,,E05000450,Perry Vale,,E09000023,12/27/2020
Lewisham,Pubs,Signal,7 Devonshire Road,Forest Hill,London,E09000023,Lewisham,51.43939954314976,-0.05394621226327948,535352.9633218461,172951.92594058462,,E05000444,Forest Hill,,E09000023,12/27/2020
Lewisham,Pubs,Bird In Hand,35 Dartmouth Road,Forest Hill,London,E09000023,Lewisham,51.4377928601377,-0.05412959540687466,535344.9633240649,172772.92598965886,,E05000444,Forest Hill,,E09000023,12/27/2020
Lewisham,Pubs,Dartmouth Arms,7 Dartmouth Road,Forest Hill,London,E09000023,Lewisham,51.4377928601377,-0.05412959540687466,535344.9633240649,172772.92598965886,,E05000444,Forest Hill,,E09000023,12/27/2020
Lewisham,Pubs,Capitol,11-21 London Road,Forest Hill,London,E09000023,Lewisham,51.43885924464542,-0.05444400106623277,535319.9633308966,172890.92595728312,,E05000444,Forest Hill,,E09000023,12/27/2020
Lewisham,Pubs,Sylvan Post,24-28 Dartmouth Road,Forest Hill,London,E09000023,Lewisham,51.438357668798425,-0.054566030422743834,535312.9633328195,172834.925972634,,E05000444,Forest Hill,,E09000023,12/27/2020
Lewisham,Pubs,Fox's,150 Kirkdale,Sydenham,London,E09000023,Lewisham,51.43115752793548,-0.06018039331658636,534943.9634334779,172023.9261931884,,E05000444,Forest Hill,,E09000023,12/27/2020
Lewisham,Pubs,Greyhound,313-315 Kirkdale,Sydenham,London,E09000023,Lewisham,51.42682647351582,-0.05496940250168783,535318.9633321106,171551.92632060137,,E05000452,Sydenham,,E09000023,12/27/2020
Lewisham,Pubs,Pavilion,325 Kirkdale,Sydenham,London,E09000023,Lewisham,51.42682647351582,-0.05496940250168783,535318.9633321106,171551.92632060137,,E05000452,Sydenham,,E09000023,12/27/2020
Lewisham,Pubs,Bricklayers Arms,189 Dartmouth Road,Sydenham,London,E09000023,Lewisham,51.43233358207315,-0.060058656078564275,534948.9634321971,172154.92615802842,,E05000444,Forest Hill,,E09000023,12/27/2020
Lewisham,Pubs,Railway Tavern,401 Southend Lane,Sydenham,Lower Sydenham,E09000023,Lewisham,51.42801100406714,-0.03380131711441687,536786.9629325401,171722.926274231,,E05000437,Bellingham,,E09000023,12/27/2020
Lewisham,Pubs,Dolphin,121 Sydenham Road,Sydenham,London,E09000023,Lewisham,51.42595052278777,-0.04718128087722656,535862.9631848474,171468.92634355405,,E05000452,Sydenham,,E09000023,12/27/2020
Lewisham,Pubs,Golden Lion,116 Sydenham Road,Sydenham,London,E09000023,Lewisham,51.42549794176137,-0.04862464807113055,535763.963211926,171415.9263578676,,E05000452,Sydenham,,E09000023,12/27/2020
Lewisham,Pubs,Ignition Brewery Taproom,44A Sydenham Road,Sydenham,London,E09000023,Lewisham,51.42593650115526,-0.051741849141356225,535545.963271159,171458.92634614016,,E05000452,Sydenham,,E09000023,12/27/2020
Lewisham,Pubs,Alfred,178 Sydenham Road,Sydenham,London,E09000023,Lewisham,51.42582442528241,-0.04285684840555135,536163.9631028988,171462.926345294,,E05000452,Sydenham,,E09000023,12/27/2020
Lewisham,Pubs,Bell,59 Bell Green,Sydenham,Lower Sydenham,E09000023,Lewisham,51.42911301534047,-0.03677504122839916,536576.9629892888,171839.92624220002,,E05000437,Bellingham,,E09000023,12/27/2020
Lewisham,Pubs,O'Neill's,52 Tranquil Vale,Blackheath,London,E09000023,Lewisham,51.466861685438055,0.008037432767575112,539576.9621733174,176121.92507584265,,E05000438,Blackheath,,E09000023,12/27/2020
Lewisham,Pubs,Crown,49 Tranquil Vale,Blackheath,London,E09000023,Lewisham,51.466596658833474,0.007233932389207408,539521.962188563,176090.92508441285,,E05000438,Blackheath,,E09000023,12/27/2020
Lewisham,Pubs,Hare & Billet,"1a Eliot Cottages, Hare & Billet Road",Blackheath,London,E09000023,Lewisham,51.46778337736851,0.0035713303863164183,539263.9622595612,176215.92505081982,,E05000438,Blackheath,,E09000023,12/27/2020
Lewisham,Pubs,Princess of Wales,1a Montpelier Row,Blackheath,London,E09000023,Lewisham,51.46812082724495,0.009604508589756365,539681.9621442193,176264.9250370229,,E05000438,Blackheath,,E09000023,12/27/2020
Lewisham,Pubs,Zerodegrees,29-31 Montpelier Vale,Blackheath,London,E09000023,Lewisham,51.46739186473473,0.008060705016489374,539576.9621732301,176180.92505977774,,E05000438,Blackheath,,E09000023,12/27/2020
Lewisham,Pubs,Railway,16 Blackheath Village,Blackheath,London,E09000023,Lewisham,51.465604855983266,0.008961291907793547,539644.9621548326,175983.92511363956,,E05000438,Blackheath,,E09000023,12/27/2020
Lewisham,Pubs,Orchard,5 Harefield Road,Brockley,London,E09000023,Lewisham,51.463947664759694,-0.034402441768642496,536637.9629712154,175717.92518808774,,E05000439,Brockley,,E09000023,12/27/2020
Lewisham,Pubs,Talbot,2-4 Tyrwhitt Road,Brockley,London,E09000023,Lewisham,51.466232107263096,-0.02425486311074526,537335.9627830585,175990.92511434708,,E05000439,Brockley,,E09000023,12/27/2020
Lewisham,Pubs,Wickham Arms,69 Upper Brockley Road,Brockley,London,E09000023,Lewisham,51.46731063425117,-0.0333076457457497,536703.9629530989,176093.92508555995,,E05000439,Brockley,,E09000023,12/27/2020
Lewisham,Pubs,Brockley Brewery,31 Harcourt Road,Brockley,London,E09000023,Lewisham,51.46228227163642,-0.03644628419502954,536500.9630087791,175528.92523963877,,E05000439,Brockley,,E09000023,12/27/2020
Lewisham,Pubs,Brockley Jack,410 Brockley Road,Brockley,London,E09000023,Lewisham,51.4534231005579,-0.038524850935844276,536382.9630410628,174539.92550826346,,E05000441,Crofton Park,,E09000023,12/27/2020
Lewisham,Pubs,London Beer Dispensary,389 Brockley Road,Brockley,London,E09000023,Lewisham,51.45455048184091,-0.037109130836249796,536477.9630151503,174667.9254735153,,E05000441,Crofton Park,,E09000023,12/27/2020
Lewisham,Pubs,Brockley Barge,184 Brockley Road,Brockley,London,E09000023,Lewisham,51.464507711234795,-0.036696267775704665,536476.9630149746,175775.9251722608,,E05000439,Brockley,,E09000023,12/27/2020
Lewisham,Pubs,Parlez,16 Coulgate Street,Brockley,London,E09000023,Lewisham,51.464157894867924,-0.03728715399352774,536436.9630259483,175735.92518318043,,E05000439,Brockley,,E09000023,12/27/2020
Lewisham,Pubs,Brickfields,293 Brockley Road,Brockley,London,E09000023,Lewisham,51.460296334335844,-0.03385396503123366,536686.9629583536,175312.92529863596,,E05000446,Ladywell,,E09000023,12/27/2020
Lewisham,Pubs,London & Rye,109 Rushey Green,Catford,London,E09000023,Lewisham,51.447489613371296,-0.017781791522453745,537841.9626466697,173918.9256752013,,E05000451,Rushey Green,,E09000023,12/27/2020
Lewisham,Pubs,Ninth Life,167 Rushey Green,Catford,London,E09000023,Lewisham,51.44506308904052,-0.01946983190207144,537731.9626760541,173645.92574955826,,E05000451,Rushey Green,,E09000023,12/27/2020
Lewisham,Pubs,Perry Hill,78-80 Perry Hill,Catford,London,E09000023,Lewisham,51.435163014740695,-0.035033815997628934,536679.9629597523,172515.9260569493,,E05000450,Perry Vale,,E09000023,12/27/2020
Lewisham,Pubs,Black Cat,9 Winslade Way,Catford,London,E09000023,Lewisham,51.44621648837091,-0.020671976143510778,537644.9626997117,173771.92571532383,,E05000451,Rushey Green,,E09000023,12/27/2020
Lewisham,Pubs,Catford Bridge Tavern,"Station Approach, Catford Bridge",Catford,London,E09000023,Lewisham,51.44467099654494,-0.0244803699112938,537384.9627698452,173592.92576415394,,E05000451,Rushey Green,,E09000023,12/27/2020
Lewisham,Pubs,Catford Constitutional Club,Catford Broadway,Catford,London,E09000023,Lewisham,51.44511333313545,-0.022446566019557537,537524.9627320179,173645.9257496707,,E05000451,Rushey Green,,E09000023,12/27/2020
Lewisham,Pubs,Dog & Bell,116 Prince Street,Deptford,London,E09000023,Lewisham,51.48334328696584,-0.025718495937123637,537182.9628259144,177890.92459651915,,E05000443,Evelyn,,E09000023,12/27/2020
Lewisham,Pubs,White Swan,217 Deptford High Street,Deptford,London,E09000023,Lewisham,51.48079429626362,-0.026548769835928347,537132.9628383465,177605.9246739162,,E05000443,Evelyn,,E09000023,12/27/2020
Lewisham,Pubs,Stockton,2 Deptford High Street,Deptford,,E09000023,Lewisham,51.47558783253827,-0.02550641699517132,537220.9628125312,177028.92483072128,,E05000449,New Cross,,E09000023,12/27/2020
Lewisham,Pubs,Taproom SE8,"Unit 2, St Paul's House, 3 Market Yard",Deptford,London,E09000023,Lewisham,51.478111754567195,-0.026391023856393192,537151.9628322024,177307.9247548923,,E05000449,New Cross,,E09000023,12/27/2020
Lewisham,Pubs,Little Nan's Bar,"Arch 14, Deptford Market Yard",Deptford,London,E09000023,Lewisham,51.478111754567195,-0.026391023856393192,537151.9628322024,177307.9247548923,,E05000449,New Cross,,E09000023,12/27/2020
Lewisham,Pubs,Brookmill,65 Cranbrook Road,Deptford,St Johns,E09000023,Lewisham,51.47137862669188,-0.02334123332135209,537383.9627693155,176564.92495762394,,E05000439,Brockley,,E09000023,12/27/2020
Lewisham,Pubs,Job Centre,120 Deptford High Street,Deptford,London,E09000023,Lewisham,51.4782441263186,-0.026241292232722327,537161.9628295517,177322.92475082324,,E05000449,New Cross,,E09000023,12/27/2020
Lewisham,Pubs,Buster Mantis,3-4 Resolution Way,Deptford,London,E09000023,Lewisham,51.478605079505066,-0.024713547134020634,537266.9628013343,177365.92473919265,,E05000449,New Cross,,E09000023,12/27/2020
Lewisham,Pubs,Villages Brewery Taproom,Units 21-22 Resolution Way,Deptford,London,E09000023,Lewisham,51.478605079505066,-0.024713547134020634,537266.9628013343,177365.92473919265,,E05000449,New Cross,,E09000023,12/27/2020
Lewisham,Pubs,Full Nelson,47 Deptford Broadway,Deptford,London,E09000023,Lewisham,51.47464523461418,-0.025604748771089682,537216.962813764,176923.92485939956,,E05000439,Brockley,,E09000023,12/27/2020
Lewisham,Pubs,Royal Standard,86 Tanners Hill,Deptford,St Johns,E09000023,Lewisham,51.47406980453847,-0.027213608255316348,537106.9628436782,176856.92487765232,,E05000439,Brockley,,E09000023,12/27/2020
Lewisham,Pubs,Royal George,85 Tanners Hill,Deptford,St Johns,E09000023,Lewisham,51.4716803103327,-0.028972664653933323,536991.962875143,176587.92495103786,,E05000439,Brockley,,E09000023,12/27/2020
Lewisham,Pubs,Birds Nest,32 Deptford Church Street,Deptford,London,E09000023,Lewisham,51.4761491636915,-0.02253002572423783,537425.9627571856,177096.9248123197,,E05000449,New Cross,,E09000023,12/27/2020
Lewisham,Pubs,Black Horse,195 Evelyn Street,Deptford,London,E09000023,Lewisham,51.48568747772074,-0.03410094652614028,536593.9629843929,178135.92452954815,,E05000443,Evelyn,,E09000023,12/27/2020
Lewisham,Set and exhibition building,Aldworth James & Bond,Unit 305 Parkside Business Estate,34-37 Rolt Street,,E09000023,Lewisham,51.48315390967227,-0.0374650445085595,536367.9630455784,177847.9246080037,100000000000,E05000443,Evelyn,https://aldworthjamesandbond.co.uk/contact,E09000023,12/27/2020
Lewisham,Set and exhibition building,Flints Theatrical Chandlers,Unit 9 Deptford Trading Estate,Blackhorse Road,,E09000023,Lewisham,51.484396558344606,-0.04024911427416867,536170.9630998622,177980.92457228492,100000000000,E05000443,Evelyn,https://www.flints.co.uk/,E09000023,12/27/2020
Lewisham,Set and exhibition building,Illusion Design & Construct,Unit 1A Elizabeth Industrial Estate,Juno Way,,E09000023,Lewisham,51.482713683773284,-0.04448371439230022,535881.963179114,177785.92462553363,200000000000,E05000449,New Cross,http://illusiondc.co,E09000023,12/27/2020
Lewisham,Set and exhibition building,Matter ,Studio 1Unit 13,Elizabeth Industrial Estate,Juno Way,E09000023,Lewisham,51.482713683773284,-0.04448371439230022,535881.963179114,177785.92462553363,10093394512,E05000449,New Cross,,E09000023,12/27/2020
Lewisham,Set and exhibition building,The Media Services,Unit 15 Deptford Trading Estate, Blackhorse Road,,E09000023,Lewisham,51.48489328390784,-0.03822571750028582,536309.9630617782,178039.92455601832,100000000000,E05000443,Evelyn,http://themediaservicescompany.com,E09000023,12/27/2020
Lewisham,Skate Parks,Telegraph-Hill,,,,E09000023,Lewisham,51.46899429332497,-0.0446652116400545,535910.1199686879,176260.00841433904,0,E05000453,Telegraph Hill,,E09000023,12/27/2020
Lewisham,Textile design,Charlotte Grierson,Studio 306,Cockpit Arts,18-22 Creekside,E09000023,Lewisham,51.47862646686408,-0.02065141467288019,537548.9627251873,177375.92473661242,100023280408,E05000449,New Cross,http://www.charlottegrierson.co.uk,E09000023,12/27/2020
Lewisham,Textile design,Elizabeth Ashdown ,Studio 213,Cockpit Arts,18-22 Creekside,E09000023,Lewisham,51.47862646686408,-0.02065141467288019,537548.9627251873,177375.92473661242,100023280408,E05000449,New Cross,http://www.elizabethashdown.co.uk,E09000023,12/27/2020
Lewisham,Textile design,Fflur Owen,Studio 307,Cockpit Arts,18-22 Creekside,E09000023,Lewisham,51.47862646686408,-0.02065141467288019,537548.9627251873,177375.92473661242,100023280408,E05000449,New Cross,https://www.fflurowen.com,E09000023,12/27/2020
Lewisham,Textile design,Georgia Bosson,Studio 3 Unit 10,Elizabeth Industrial Estate,Juno Way,E09000023,Lewisham,51.482713683773284,-0.04448371439230022,535881.963179114,177785.92462553363,100023680112,E05000449,New Cross,,E09000023,12/27/2020
Lewisham,Textile design,Insley & Nash,Unit 56 ,Parkside Business Estate,,E09000023,Lewisham,51.48327410778586,-0.037661522458210965,536353.9630494402,177860.9246044985,100023281359,E05000443,Evelyn,http://www.insleyandnash.co.uk/,E09000023,12/27/2020
Lewisham,Textile design,Lorna Syson,Studio 307,Cockpit Arts,18-22 Creekside,E09000023,Lewisham,51.47862646686408,-0.02065141467288019,537548.9627251873,177375.92473661242,100023280408,E05000449,New Cross,http://www.lornasyson.co.uk,E09000023,12/27/2020
Lewisham,Textile design,Olivia Holland,Studio 209,Cockpit Arts,18-22 Creekside,E09000023,Lewisham,51.47862646686408,-0.02065141467288019,537548.9627251873,177375.92473661242,100023280408,E05000449,New Cross,http://oliviajholland.co.uk,E09000023,12/27/2020
Lewisham,Textile design,Poppy Fuller Abbott,Studio 213,Cockpit Arts,18-22 Creekside,E09000023,Lewisham,51.47862646686408,-0.02065141467288019,537548.9627251873,177375.92473661242,100023280408,E05000449,New Cross,https://www.instagram.com/plusminu5/?hl=en,E09000023,12/27/2020
Lewisham,Textile design,Sophie Graney,Studio 213,Cockpit Arts,18-22 Creekside,E09000023,Lewisham,51.47862646686408,-0.02065141467288019,537548.9627251873,177375.92473661242,100023280408,E05000449,New Cross,https://www.sophiegraney.co.uk/,E09000023,12/27/2020
Lewisham,Textile design,Vicky Cowin,Studio 213,Cockpit Arts,18-22 Creekside,E09000023,Lewisham,51.47862646686408,-0.02065141467288019,537548.9627251873,177375.92473661242,100023280408,E05000449,New Cross,http://vickycowin.co.uk,E09000023,12/27/2020
Lewisham,Textile design,Whelan Weaving,Studio 214,Cockpit Arts,18-22Creekside,E09000023,Lewisham,51.47862646686408,-0.02065141467288019,537548.9627251873,177375.92473661242,100023280408,E05000449,New Cross,http://www.whelansweaving.com,E09000023,12/27/2020
Lewisham,Textile design,Woven Air,Cockpit Arts,18-22Creekside,,E09000023,Lewisham,51.47862646686408,-0.02065141467288019,537548.9627251873,177375.92473661242,100023280408,E05000449,New Cross,http://www.woven-air.com/home2.htm,E09000023,12/27/2020
Lewisham,Theatre rehearsal studio,Twist Class Studio,99 Dartmouth Road,,,E09000023,Lewisham,51.436365515693176,-0.05482331344939892,535300.9632140229,172612.925911407,100021950281,E05000444,Forest Hill,http://twiststudios.co.uk/,E09000023,12/27/2020
Lewisham,Theatre rehearsal studio,The Albany,Douglas Way,Deptford,,E09000023,Lewisham,51.47787709615518,-0.027409246524924713,537081.962728939,177279.92464037123,100023280749,E05000449,New Cross,http://www.thealbany.org.uk/hireus/36/Room-Hire,E09000023,12/27/2020
Lewisham,Theatres,George Wood Theatre ,Goldsmith's College, University of London,NA,E09000023,Lewisham,51.47568861221421,-0.03771247917133249,536373.0467212389,177017.33281134232,100023000000,E05000449,New Cross,NA,E09000023,12/27/2020
Lewisham,Theatres,Broadway Theatre,Rushey Green,NA,NA,E09000023,Lewisham,51.44572095365428,-0.02292198347685574,537490.1035193837,173712.6012094593,10023226829,E05000451,Rushey Green,https://www.broadwaytheatre.org.uk/,E09000023,12/27/2020
Lewisham,Theatres,London Theatre,443 New Cross Rd, New Cross,NA,E09000023,Lewisham,51.47634389435151,-0.031807110401728365,536781.1671099212,177101.2119888239,10091838199,E05000449,New Cross,http://www.thelondontheatre.com/,E09000023,12/27/2020
Lewisham,Theatres,Fellowship Inn,Randlesdown Rd,NA,NA,E09000023,Lewisham,51.433231264811184,-0.021849411943753033,537602.1255862607,172325.76778828294,100022000000,E05000437,Bellingham,https://www.phoenixch.org.uk/community/fellowship-inn,E09000023,12/27/2020
Lewisham,Theatres,Blackheath Halls,23 Lee Rd, Blackheath,NA,E09000023,Lewisham,51.46530269217728,0.007909575036997105,539572.8336526989,175948.32230134896,100023000000,E05000438,Blackheath,NA,E09000023,12/27/2020
Lewisham,Theatres,Blackheath Halls,23 Lee Rd, Blackheath,NA,E09000023,Lewisham,51.46530269217728,0.007909575036997105,539572.8336526989,175948.32230134896,100023000000,E05000438,Blackheath,https://www.blackheathhalls.com/,E09000023,12/27/2020
Lewisham,Theatres,The Brockley Jack Theatre,410 Brockley Rd,NA,NA,E09000023,Lewisham,51.45394088416412,-0.04013948528394887,536269.2432501784,174594.49757146114,100023000000,E05000441,Crofton Park,http://www.brockleyjack.co.uk/,E09000023,12/27/2020
Lewisham,Theatres,Laban Theatre,Laban Building, 30 Creekside,NA,E09000023,Lewisham,51.47906871834874,-0.02168121540413649,537476.1261229855,177423.16890164977,100024000000,E05000449,New Cross,https://www.trinitylaban.ac.uk/whats-on/our-venues/laban-theatre,E09000023,12/27/2020
Lewisham,Theatres,Sydenham Centre,44a Sydenham Road,NA,NA,E09000023,Lewisham,51.426411386665166,-0.053283625983285635,535437.3791781792,171508.88291033782,100024000000,E05000452,Sydenham,https://www.lewisham.gov.uk/inmyarea/Pages/venue-detail.aspx?directoryid=5081,E09000023,12/27/2020
Lewisham,Theatres,The Albany,Douglas Way,NA,NA,E09000023,Lewisham,51.47839272901002,-0.029025428427221285,536968.1925598558,177334.23842555744,100024000000,E05000449,New Cross,https://www.thealbany.org.uk/,E09000023,12/27/2020
