BOROUGH,Cultural Venue Type,site_name,address1,address2,address3,borough_code,borough_name,latitude,longitude,easting,northing,os_addressbase_uprn,ward_2018_code,ward_2018_name,website,gss_code,runtime
Merton,Archives,Royal Medical Benevolent Fund,24 Kings Road,,,E09000024,Merton,51.42115468122391,-0.20154477062166512,525144.9659751563,170660.92644015275,48038818,E05000471,Trinity,https://rmbf.org/,E09000024,12/27/2020
Merton,Archives,University of the Arts London: Wimbledon College of Art,Main Building ,Merton Hall Road,,E09000024,Merton,51.41350764288871,-0.2121304495685617,524429.7361681293,169792.55667512142,48049311,E05000459,Dundonald,https://www.arts.ac.uk/colleges/wimbledon-college-of-arts,E09000024,12/27/2020
Merton,Archives,Wimbledon Society Museum of Local History,22 Ridgway ,Wimbledon,,E09000024,Merton,51.423617868957265,-0.21620597440743947,524118.9662520314,170909.92637160898,48059798,E05000472,Village,http://www.wimbledonmuseum.org.uk/,E09000024,12/27/2020
Merton,Archives,Royal British Nurses Association,The Princess Royal House TA Centre ,Stonecott Hill ,London Road,E09000024,Merton,51.38293673548703,-0.21550615372713866,524277.7462140636,166387.297600665,48085285,E05000465,Lower Morden,http://www.rbna.org.uk/,E09000024,12/27/2020
Merton,Archives,Wimbledon Lawn Tennis Museum: Kenneth Ritchie Wimbledon Library,Church Road,,,E09000024,Merton,51.43449072031368,-0.2144734000809185,524209.96622903156,172121.92604043515,48100056,E05000472,Village,https://www.wimbledon.com/en_GB/atoz/library_research_enquiries.html,E09000024,12/27/2020
Merton,Artists workspaces,Lombard Rd,21c Lombard Rd,,,E09000024,Merton,51.409664275394015,-0.18942784801982757,526018.9657364885,169403.92678091035,48130102,E05000455,Abbey,www.acava.org,E09000024,12/27/2020
Merton,Artists workspaces,Phipps Bridge,The Old Laundry,Phipps Bridge Rd,,E09000024,Merton,51.40526325047764,-0.18222559833211502,526531.9655961723,168926.92691071588,48111562,E05000458,Cricket Green,www.acava.org,E09000024,12/27/2020
Merton,Artists workspaces,Cannizaro Park,Potting Sheds,Cannizaro Park,,E09000024,Merton,51.42373830980491,-0.23251121810812478,522985.0665613383,170895.85637698427,48124885,E05000472,Village,www.acava.org,E09000024,12/27/2020
Merton,Cinemas,Odeon Wimbledon,,39 The Broadway,,E09000024,Merton,51.41961437263562,-0.20489884217573903,524915.9661586691,170483.92660923215,000048105080,E05000459,Dundonald,,E09000024,12/27/2020
Merton,Commercial galleries,The Cynthia Corbett Gallery,15 Claremont Lodge,NA,NA,E09000024,Merton,51.41551641903511,-0.22277732713183288,523683.966493084,169997.92674050323,48022286,E05000469,Raynes Park,http://www.thecynthiacorbettgallery.com/#,E09000024,12/27/2020
Merton,Community centres,Taylor Road Day Centre,Taylor Road, Merton,NA,E09000024,Merton,51.416605152005474,-0.16848688480448465,527455.9654661205,170211.92668479413,48068539,E05000457,Colliers Wood,http://www.positive-network.co.uk/,E09000024,12/27/2020
Merton,Community centres,Pollards Hill - (New Horizons),South Lodge Avenue,Merton,NA,E09000024,Merton,51.39997149297087,-0.13105343577380055,530105.9647514718,168427.92716670147,48065105,E05000467,Pollards Hill,http://www.commonside.net/,E09000024,12/27/2020
Merton,Community centres,North East Mitcham Community Centre,49 Woodland Way,Merton,NA,E09000024,Merton,51.417292636123086,-0.1538327890906729,528472.96519052,170313.92665763438,48075257,E05000461,Graveney,http://www.nemca.org.uk/,E09000024,12/27/2020
Merton,Community centres,South Mitcham Community Centre,Haslemere Avenue,Merton,NA,E09000024,Merton,51.4070213979676,-0.1819402026719743,526546.9657144765,169122.9269790075,48081917,E05000458,Cricket Green,http://www.southmitchamcommunity.org.uk/,E09000024,12/27/2020
Merton,Community centres,Colliers Wood Community Centre,66-72 High Street Collier'S Wood,Merton,NA,E09000024,Merton,51.42052688710642,-0.17622404976477127,526907.1355992956,170634.60656082514,48082185,E05000457,Colliers Wood,https://directories.merton.gov.uk/kb5/merton/directory/service.page?id=ExWbAG6gaDE&familychannel=0,E09000024,12/27/2020
Merton,Community centres,Newminster Road,33 Newminster Road,Merton,NA,E09000024,Merton,51.3884356227258,-0.18497654801964095,526386.9657585367,167050.927544738,48100193,E05000468,Ravensbury,,E09000024,12/27/2020
Merton,Community centres,South Wimbledon Community Centre,78 Victory Road,Merton,NA,E09000024,Merton,51.41796462993211,-0.18810180626604991,526088.3658018336,170329.20661796205,48130927,E05000455,Abbey,http://www.southwimbledoncommunity.com/,E09000024,12/27/2020
Merton,Community centres,High Path Community Resource Centre,63 High Path,Merton,NA,E09000024,Merton,51.413513385896614,-0.18885875492909482,526047.9658498511,169832.9267852971,48082063,E05000455,Abbey,https://www2.merton.gov.uk/health-social-care/adult-social-care/help-at-home/daycentres/hpresourcecentre.htm,E09000024,12/27/2020
Merton,Community centres,Morden Assembly Hall,Tudor Drive,Merton,NA,E09000024,Merton,51.390271993567474,-0.2214558534563622,523843.96645199123,167192.92750345246,48100062,E05000465,Lower Morden,https://www.merton.gov.uk/leisure-recreation-and-culture/hall-hire/morden-assembly-hall,E09000024,12/27/2020
Merton,Community centres,Wimbledon Park Hall,170 Arthur Road,Merton,NA,E09000024,Merton,51.43488274808482,-0.19699579540655943,525423.6859936424,172195.25609914906,48105969,E05000474,Wimbledon Park,http://www.wimbledonpark.com/wimbledon-park-hall/,E09000024,12/27/2020
Merton,Community centres,Central Ward Residents Club,Ashridge Way,Merton,NA,E09000024,Merton,51.39894830967774,-0.2071888031491544,524812.9661889548,168181.9272372173,48003530,E05000456,Cannon Hill,central-ward.co.uk,E09000024,12/27/2020
Merton,Creative workspaces,Main Yard Studios,Main Yard Studios,17 Lyon Road,,E09000024,Wimbledon,51.41277537550272,-0.18638843099252192,526221.7758000417,169755.10679897416,48124136,,,https://mainyardstudios.co.uk/wimbledon/,E09000024,12/27/2020
Merton,Dance performance venues,New Wimbledon Theatre,93 The Broadway,,,E09000024,Merton,51.4191464411273,-0.2013651086568275,525162.9359693517,170437.91649954783,48008413,E05000455,Abbey,http://newwimbledontheatre.net,E09000024,12/27/2020
Merton,Dance performance venues,Polka Theatre for Children,240 The Broadway,,,E09000024,Merton,51.41973108424873,-0.19497580578680376,525605.5758488912,170513.84647877177,48008566,E05000471,Trinity,https://polkatheatre.com/home/about-us/contact-us/,E09000024,12/27/2020
Merton,Dance rehearsal studios,SW19 Rehearsal studios,62 Weir Road,,,E09000024,Merton,51.43756211481412,-0.19003954617832372,525899.8157706241,172505.11593843257,48071997,E05000474,Wimbledon Park,http://www.sw-19.net,E09000024,12/27/2020
Merton,Dance rehearsal studios,Wimbledon Dance Academy,71 Woodsid,,,E09000024,Merton,51.42302560978602,-0.20920979287194766,524606.9661208056,170855.92638716282,48105415,E05000462,Hillside,http://wimbledondanceacademy.co.uk,E09000024,12/27/2020
Merton,Dance rehearsal studios,Ursuline School,11 Crescent Rd,,,E09000024,Merton,51.41508497697292,-0.22338370378235642,523642.96638213453,169948.92663188028,48130420,E05000469,Raynes Park,http://www.ursulinehigh.merton.sch.uk,E09000024,12/27/2020
Merton,Dance rehearsal studios,New Wimbledon Theatre,93 The Broadway,,,E09000024,Merton,51.4191464411273,-0.2013651086568275,525162.9359693517,170437.91649954783,48008413,E05000455,Abbey,http://newwimbledontheatre.net,E09000024,12/27/2020
Merton,Dance rehearsal studios,Polka Theatre for Children,240 The Broadway,,,E09000024,Merton,51.41973108424873,-0.19497580578680376,525605.5758488912,170513.84647877177,48008566,E05000471,Trinity,https://polkatheatre.com/home/about-us/contact-us/,E09000024,12/27/2020
Merton,Fashion and design,Wiseman Clothing,22 Weir Road,,,E09000024,Merton,51.43301040848441,-0.19146790713913156,525813.0357958523,171996.5160763178,48122006,E05000474,Wimbledon Park,http://www.wisemanclothing.com/,E09000024,12/27/2020
Merton,Fashion and design,Darina Eden Studio,Truebell House,5B Lombard Road,,E09000024,Merton,51.40961612284035,-0.19169698111158384,525861.2957795799,169394.6767839294,48119509,E05000455,Abbey,http://www.edenstudiolondon.com/,E09000024,12/27/2020
Merton,Fashion and design,A Clothing,22 Weir Road,,,E09000024,Merton,51.43301040848441,-0.19146790713913156,525813.0357958523,171996.5160763178,48122006,E05000474,Wimbledon Park,http://www.aclothing.co.uk/,E09000024,12/27/2020
Merton,Fashion and design,Oneddclothing,16 Endeavour Way,,,E09000024,Merton,51.43331089106219,-0.19263679344942367,525730.9658180972,172027.92606748984,48081301,E05000474,Wimbledon Park,http://www.danieldurgova.co.uk/,E09000024,12/27/2020
Merton,Fashion and design,Eden Studio ,Unit 19 Windsor Park,50 Windsor Avenue,,E09000024,Merton,51.41167499826992,-0.18512063617953517,526312.9656557586,169634.92671684304,10094251753,E05000455,Abbey,http://www.edenstudiolondon.com/,E09000024,12/27/2020
Merton,Fashion and design,Lingerie London,Truebell House,5b Lombard Road,,E09000024,Merton,51.40961612284035,-0.19169698111158384,525861.2957795799,169394.6767839294,48119509,E05000455,Abbey,,E09000024,12/27/2020
Merton,Jewellery design,Daou Ltd,133-137 Alexandra Road,,,E09000024,Merton,51.42181047198346,-0.20678334405405127,524778.9661963312,170724.92654464947,48079088,E05000462,Hillside,,E09000024,12/27/2020
Merton,Jewellery design,Ocean Vogue Limited,26 Beulah Road,,,E09000024,Merton,51.41895817609213,-0.2066792079548453,524793.9661916026,170407.92662946542,48100943,E05000459,Dundonald,,E09000024,12/27/2020
Merton,Jewellery design,Theresa Treasures Limited,Unit 1c The Show House,Watermill Way,,E09000024,Merton,51.413645465441036,-0.18344632912334183,526423.9657472745,169856.92677842063,48129844,E05000457,Colliers Wood,,E09000024,12/27/2020
Merton,Jewellery design,Multiple businesses ,Dalton House,60 Windsor Avenue,,E09000024,Merton,51.41144670891815,-0.18663959000850824,526207.9658065852,169606.9268468615,48086198,E05000455,Abbey,,E09000024,12/27/2020
Merton,Large media production studios,London Wimbledon Studios,"1 Deer Park Road, London ",South wimbledon,London,E09000024,Merton,51.41014457219057,-0.18655952571163442,526217.1157677437,169462.26685223193,000048020535,E05000455,Abbey,http://filmlondon.org.uk/wimbledon-studios,E09000024,12/27/2020
Merton,LGBT+ night time venues,Pod Bar/Bar CMYK,105-109 Broadway,,,,,51.41931810069281,-0.20118422748117862,525175.0440661262,170457.31359436596,,,,,E09000024,12/27/2020
Merton,Libraries,West Barnes Library,Station Road,New Malden,,E09000024,Merton,51.395160597323596,-0.23909139541863209,522603.96679006424,167706.92736526811,48085264,E05000473,West Barnes,,E09000024,12/27/2020
Merton,Libraries,Pollards Hill Library,South Lodge Avenue,Mitcham,,E09000024,Merton,51.400096938281195,-0.13185469302694358,530049.8747400217,168440.4571313564,48065103,E05000467,Pollards Hill,,E09000024,12/27/2020
Merton,Libraries,Morden Library,London Road,Morden,,E09000024,Merton,51.40152859895829,-0.19601753880999032,525582.9659790238,168487.92715418822,48083350,E05000466,Merton Park,,E09000024,12/27/2020
Merton,Libraries,Raynes Park Library,Approach Road,,,E09000024,Merton,51.409100405652225,-0.22778871399289086,523352.7665728128,169276.00689552637,48128562,E05000459,Dundonald,,E09000024,12/27/2020
Merton,Libraries,Mitcham Library,London Road,Mitcham,,E09000024,Merton,51.408623908164046,-0.1624500890413566,527897.9653473786,169334.92692026315,48083196,E05000460,Figge's Marsh,,E09000024,12/27/2020
Merton,Libraries,Colliers Wood Library,High Street Collier's Wood,,,E09000024,Merton,51.41862164231011,-0.17746068929076944,526826.4255986001,170420.60661889176,48121555,E05000457,Colliers Wood,,E09000024,12/27/2020
Merton,Libraries,Wimbledon Library,Wimbledon Hill Road,,,E09000024,Merton,51.42243985745319,-0.2079525489081031,524695.9662188458,170792.92652630905,48127190,E05000462,Hillside,,E09000024,12/27/2020
Merton,Making and manufacturing,TDC - Cordless Lighting,38 Weir Road,,,E09000024,Merton,51.434741451413394,-0.19151566669877387,525804.965919799,172188.92614596395,48130372,E05000474,Wimbledon Park,www.tdccordlesslighting.com,E09000024,12/27/2020
Merton,Museums and public galleries,Wandle Industrial Museum,The Vestry Hall Annexe,London Road,Mitcham,E09000024,Merton,51.40227250905107,-0.1680386681606487,527526.9654491642,168618.92711560632,48083242,E05000458,Cricket Green,http://www.wandle.org/,E09000024,12/27/2020
Merton,Museums and public galleries,Museum of Wimbledon,22 Ridgway,Wimbledon,NA,E09000024,Merton,51.42335474484919,-0.21664341700808407,524089.2663699552,170879.9265017315,48107954,E05000472,Village,http://www.wimbledonmuseum.org.uk/,E09000024,12/27/2020
Merton,Museums and public galleries,Wimbledon Lawn Tennis Museum,The All England Lawn Tennis Club,Church Road,Wimbledon,E09000024,Merton,51.433719563950575,-0.21402868057457625,524242.9663421677,172036.926185578,48129052,E05000472,Village,http://www.wimbledon.com/museum,E09000024,12/27/2020
Merton,Music (office based businesses),Balanced Waves Ltd,46 Dunster Avenue,Merton,,E09000024,Merton,51.38213192113394,-0.22016171733597287,523955.96642250736,166289.92774895445,48023049,E05000465,Lower Morden,,E09000024,12/27/2020
Merton,Music (office based businesses),Sgo Music Publishing Ltd,415 Hillcross Avenue,Merton,,E09000024,Merton,51.39197343216181,-0.2186157089198955,524036.9663989913,167386.92744977807,48036562,E05000465,Lower Morden,,E09000024,12/27/2020
Merton,Music (office based businesses),Sceneone Productions Ltd,1 Heatherdene Close,Merton,,E09000024,Merton,51.39792794311687,-0.1748827218023764,527062.9655747002,168123.9272513704,48035057,E05000468,Ravensbury,,E09000024,12/27/2020
Merton,Music (office based businesses),Enlightenment Records Ltd,151 Copse Hill,Merton,,E09000024,Merton,51.41438759894908,-0.24633428176231742,522048.96693752176,169832.92678628198,48018107,E05000472,Village,,E09000024,12/27/2020
Merton,Music (office based businesses),Ne Plus Label Ltd,55 Eveline Road,Merton,,E09000024,Merton,51.41027427286159,-0.16619460365177985,527632.9654192519,169511.92687233601,48025886,E05000463,Lavender Fields,,E09000024,12/27/2020
Merton,Music (office based businesses),E G Music Ltd,54 Griffiths Road,Merton,,E09000024,Merton,51.41811415481212,-0.19796783599893436,525401.9660258717,170328.9266499573,48081698,E05000455,Abbey,,E09000024,12/27/2020
Merton,Music (office based businesses),Copy & Paste Music Management Ltd,1 Ridgway Place,Merton,,E09000024,Merton,51.419531980709046,-0.21245297161999077,524390.9663011564,170461.92661420692,48059967,E05000462,Hillside,,E09000024,12/27/2020
Merton,Music recording studios,Tape Studios,4 Springfield Road,,,,Merton,51.42503173624899,-0.20369362775237174,524985.0002975108,171088.39236957848,,,,https://tapelondon.com/tape-studio/,E09000024,12/27/2020
Merton,Music recording studios,Crown Lane Studio,8b Crown Lane,Merton,,E09000024,Merton,51.401826421149046,-0.19550261855038714,525617.9659693935,168521.9271443918,48130591,E05000466,Merton Park,www.crownlanestudio.co.uk,E09000024,12/27/2020
Merton,Music rehearsal studios,Crown Lane Studio,8b Crown Lane,Merton,,E09000024,Merton,51.401826421149046,-0.19550261855038714,525617.9659693935,168521.9271443918,48130591,E05000466,Merton Park,www.crownlanestudio.co.uk,E09000024,12/27/2020
Merton,Music rehearsal studios,Sw19,62 Weir Road,Merton,,E09000024,Merton,51.43756037500333,-0.19003745490479895,525899.965892782,172504.92606007814,48071997,E05000474,Wimbledon Park,http://www.sw-19.net,E09000024,12/27/2020
Merton,Music venues (all),Kings Arms,260-262 London Road,Merton,,E09000024,Merton,51.40629560475378,-0.16422572981185568,527780.9653798179,169072.92699138977,48126918,E05000460,Figge's Marsh,www.rampubcompany.co.uk/visit-pubs/kings-arms-mitcham,E09000024,12/27/2020
Merton,Music venues (all),Cavern,100-102 Coombe Lane,Merton,,E09000024,Merton,51.40981221999361,-0.23388406520546037,522926.9667026595,169344.92692064226,48126372,E05000469,Raynes Park,www.thecavernfreehouse.co.uk,E09000024,12/27/2020
Merton,Music venues (all),Trafalgar,23 High Path,Merton,,E09000024,Merton,51.41388630514339,-0.18913163676671926,526027.9658553282,169873.9267735809,48126710,E05000455,Abbey,www.trafalgarfreehouse.co.uk,E09000024,12/27/2020
Merton,Music venues (all),Nelson Arms,15 Merton High Street,Merton,,E09000024,Merton,51.41583272933399,-0.18648044104408187,526206.9658060631,170094.92671279924,48083684,E05000455,Abbey,www.nelsonarms.co.uk,E09000024,12/27/2020
Merton,Music venues (all),New Wimbledon Theatre,Wimbledon Theatre 93,The Broadway,Merton,E09000024,Merton,51.41914652545258,-0.20136467211511427,525162.9660915406,170437.9266211415,48008413,E05000455,Abbey,www.newwimbledontheatre.net/,E09000024,12/27/2020
Merton,Music venues (all),The Pod,105-109 The Broadway,Merton,,E09000024,Merton,51.41925062566598,-0.20111608410279067,525179.9660869499,170449.926617924,48112845,E05000455,Abbey,,E09000024,12/27/2020
Merton,Pubs,Gardeners Arms,107 London Road,Mitcham,,E09000024,Merton,51.41018586936025,-0.161697238895017,527945.9653341016,169509.92687315575,,E05000460,Figge's Marsh,,E09000024,12/27/2020
Merton,Pubs,White Lion of Mortimer,223 London Road,Mitcham,,E09000024,Merton,51.40706646271421,-0.1634902920822519,527829.9653662491,169159.92696812312,,E05000460,Figge's Marsh,,E09000024,12/27/2020
Merton,Pubs,Kings Arms,268 London Road,Mitcham,,E09000024,Merton,51.406618917907174,-0.16419840254694737,527781.9653793765,169108.92698206566,,E05000460,Figge's Marsh,,E09000024,12/27/2020
Merton,Pubs,Crown Inn,407 London Road,Mitcham,,E09000024,Merton,51.39797592776113,-0.17219249812122836,527249.9655242087,168133.92724881409,,E05000458,Cricket Green,,E09000024,12/27/2020
Merton,Pubs,Surrey Arms,Morden Road,Mitcham,,E09000024,Merton,51.400137784419776,-0.1810917493267257,526624.9656924733,168358.92718847498,,E05000468,Ravensbury,,E09000024,12/27/2020
Merton,Pubs,Windmill,40 Commonside West,Mitcham,,E09000024,Merton,51.40301654792829,-0.16156779462641546,527974.9653280545,168712.92709034804,,E05000460,Figge's Marsh,,E09000024,12/27/2020
Merton,Pubs,Park Place,54 Commonside West,Mitcham,,E09000024,Merton,51.4003097816218,-0.16042557092183246,528061.9653052916,168413.92717221833,,E05000458,Cricket Green,,E09000024,12/27/2020
Merton,Pubs,Crown of Mitcham,Carshalton Road,Mitcham,,E09000024,Merton,51.39010833055981,-0.15903823783055032,528186.9652698169,167281.92747998593,,E05000458,Cricket Green,,E09000024,12/27/2020
Merton,Pubs,Ravensbury,260 Croydon Road,Mitcham,,E09000024,Merton,51.39765260673579,-0.1578583155762723,528247.965254566,168122.92725141702,,E05000458,Cricket Green,,E09000024,12/27/2020
Merton,Pubs,Earl Beatty,"365, West Barnes Lane",Motspur Park,,E09000024,Merton,51.39485170069869,-0.2382838805181306,522660.9667745625,167673.9273741566,,E05000473,West Barnes,,E09000024,12/27/2020
Merton,Pubs,Blue Junction,"1/2 Crown Parade, Crown Lane",Morden,,E09000024,Merton,51.401575163847696,-0.19670580845150465,525534.9659922958,168491.92715313478,,E05000466,Merton Park,,E09000024,12/27/2020
Merton,Pubs,Ganley's Irish Bar,43-47 London Road,Morden,,E09000024,Merton,51.40067804787499,-0.19567720601502103,525608.9659719581,168393.9271797791,,E05000466,Merton Park,,E09000024,12/27/2020
Merton,Pubs,Royal Surrey Pub,1-9 Abbotsbury Road,Morden,,E09000024,Merton,51.402893341821404,-0.19179435555441454,525872.9658987516,168646.92711052985,,E05000468,Ravensbury,,E09000024,12/27/2020
Merton,Pubs,George Inn (Harvester),Epsom Road,Morden,,E09000024,Merton,51.391594757254296,-0.20382522225789898,525066.9661176457,167369.92745688418,,E05000470,St. Helier,,E09000024,12/27/2020
Merton,Pubs,Morden Brook,Lower Morden Lane,Lower Morden,,E09000024,Merton,51.39085491243703,-0.22075769518425595,523890.9664390723,167258.9274853847,,E05000465,Lower Morden,,E09000024,12/27/2020
Merton,Pubs,KNK Stadium Sports Bar,"Imperial Fields, Bishopford Road",Morden,,E09000024,Merton,51.39364508285451,-0.17184763775083295,527285.9655147954,167652.92738063814,,E05000468,Ravensbury,,E09000024,12/27/2020
Merton,Pubs,Vale,1 Lilian Road,Streatham,Streatham Vale,E09000024,Merton,51.412705090528554,-0.14293010866923878,529243.9649816676,169822.9267891521,,E05000464,Longthornton,,E09000024,12/27/2020
Merton,Pubs,Gorringe Park,29 London Road,Tooting,London,E09000024,Merton,51.4193212259974,-0.1616040509964368,527926.9653387885,170525.9265992117,,E05000461,Graveney,,E09000024,12/27/2020
Merton,Pubs,Garden Shed,145 Haydons Road,South Wimbledon,London,E09000024,Merton,51.420226101400026,-0.18679560657785252,526172.965816491,170582.92658167676,,E05000471,Trinity,,E09000024,12/27/2020
Merton,Pubs,Sultan,78 Norman Road,South Wimbledon,London,E09000024,Merton,51.41862654288382,-0.1857082995567953,526252.9657938665,170406.92662877747,,E05000455,Abbey,,E09000024,12/27/2020
Merton,Pubs,Kilkenny Tavern,131 Merton High Street,Merton,London,E09000024,Merton,51.41549989857516,-0.19171405662308122,525843.9659051122,170048.926726314,,E05000455,Abbey,,E09000024,12/27/2020
Merton,Pubs,Nelson Arms,15 Merton High Street,Merton,London,E09000024,Merton,51.415826854297805,-0.18668201448372662,526192.9658097872,170093.9267135958,,E05000455,Abbey,,E09000024,12/27/2020
Merton,Pubs,Wibbas Down Inn,6-12 Gladstone Road,Wimbledon,London,E09000024,Merton,51.41815928905705,-0.20207937408050644,525115.9661037971,170326.92665122473,,E05000459,Dundonald,,E09000024,12/27/2020
Merton,Pubs,Old Frizzle,74-78 The Broadway,Wimbledon,London,E09000024,Merton,51.41997942146158,-0.202899716635411,525053.9661213859,170527.92659760447,,E05000471,Trinity,,E09000024,12/27/2020
Merton,Pubs,O'Neill's,66 The Broadway,Wimbledon,London,E09000024,Merton,51.41997942146158,-0.202899716635411,525053.9661213859,170527.92659760447,,E05000471,Trinity,,E09000024,12/27/2020
Merton,Pubs,Charles Holden,198 High Street,Colliers Wood,London,E09000024,Merton,51.41752437669961,-0.17958197768912404,526681.9656765872,170294.92665988364,,E05000457,Colliers Wood,,E09000024,12/27/2020
Merton,Pubs,Holiday Inn Express,200 High St,Colliers Wood,London,E09000024,Merton,51.41752437669961,-0.17958197768912404,526681.9656765872,170294.92665988364,,E05000457,Colliers Wood,,E09000024,12/27/2020
Merton,Pubs,Royal Standard,180 High Street,Colliers Wood,London,E09000024,Merton,51.41878025848508,-0.17822327450360703,526772.9656523234,170436.92662164423,,E05000457,Colliers Wood,,E09000024,12/27/2020
Merton,Pubs,Trafalgar,23 High Path,Merton,London,E09000024,Merton,51.413513385896614,-0.18885875492909482,526047.9658498511,169832.9267852971,,E05000455,Abbey,,E09000024,12/27/2020
Merton,Pubs,Venus Bar & Brasserie,12-14 Christchurch Road,Colliers Wood,London,E09000024,Merton,51.41768452757215,-0.1777346880534989,526809.9656418354,170315.9266545783,,E05000457,Colliers Wood,,E09000024,12/27/2020
Merton,Pubs,Kiss Me Hardy,"Unit 5, Priory Retail Park, 131 High Street",Colliers Wood,London,E09000024,Merton,51.41621881989829,-0.17890036360772835,526732.9656627651,170150.92669912393,,E05000457,Colliers Wood,,E09000024,12/27/2020
Merton,Pubs,Wimbledon Brewery Tap,"8 College Fields, Prince Georges Road",Colliers Wood,London,E09000024,Merton,51.413152298258595,-0.17370129612335755,527102.9655627344,169818.9267898802,,E05000463,Lavender Fields,,E09000024,12/27/2020
Merton,Pubs,Wandle Pirates,"Unit 4,The Long Shop, Merton Abbey Mills, Watermill Way",Colliers Wood,London,E09000024,Merton,51.41299370220341,-0.18317016312583817,526444.9657416895,169784.92679810058,,E05000457,Colliers Wood,,E09000024,12/27/2020
Merton,Pubs,Merton Apprentice,"The Apprentice Shop, Merton Abbey Mills, Watermill Way",Colliers Wood,London,E09000024,Merton,51.41299370220341,-0.18317016312583817,526444.9657416895,169784.92679810058,,E05000457,Colliers Wood,,E09000024,12/27/2020
Merton,Pubs,Premier Inn London Wimbledon South,27 Chapter Way,Colliers Wood,London,E09000024,Merton,51.413806697085114,-0.1805062107230071,526627.9656917731,169879.92677253182,,E05000457,Colliers Wood,,E09000024,12/27/2020
Merton,Pubs,Frankie & Benny's,"Unit 11, Tandem Centre, Tandem Way",Colliers Wood,London,E09000024,Merton,51.413538076909184,-0.17710859047798266,526864.96562738,169855.92677947727,,E05000457,Colliers Wood,,E09000024,12/27/2020
Merton,Pubs,Prince of Wales,98 Morden Road,Merton,London,E09000024,Merton,51.40975933852545,-0.19267389020659545,525792.9659203178,169408.92690232152,,E05000455,Abbey,,E09000024,12/27/2020
Merton,Pubs,Leather Bottle,277 Kingston Road,Merton Park,London,E09000024,Merton,51.41240689982688,-0.20755394523133638,524750.9662032281,169677.92682916328,,E05000466,Merton Park,,E09000024,12/27/2020
Merton,Pubs,Prince of Wales,2 Hartfield Road,Wimbledon,London,E09000024,Merton,51.42032686590956,-0.20620854712034734,524822.9661840736,170560.92658856994,,E05000459,Dundonald,,E09000024,12/27/2020
Merton,Pubs,Garratt & Gauge,18 Hartfield Road,Wimbledon,London,E09000024,Merton,51.42032686590956,-0.20620854712034734,524822.9661840736,170560.92658856994,,E05000459,Dundonald,,E09000024,12/27/2020
Merton,Pubs,Hand In Hand,7 Crooked Billet,Wimbledon,London,E09000024,Merton,51.42129157335864,-0.22824899397080256,523287.96660042123,170630.92656950175,,E05000472,Village,,E09000024,12/27/2020
Merton,Pubs,Crooked Billet,14-15 Crooked Billet,Wimbledon,London,E09000024,Merton,51.42129157335864,-0.22824899397080256,523287.96660042123,170630.92656950175,,E05000472,Village,,E09000024,12/27/2020
Merton,Pubs,Swan,89 Ridgway,Wimbledon,London,E09000024,Merton,51.42066606774349,-0.22079402133227652,523807.96645901154,170573.92658429232,,E05000462,Hillside,,E09000024,12/27/2020
Merton,Pubs,Fox & Grapes,"9 Camp Road, Wimbledon Common",Wimbledon,London,E09000024,Merton,51.4265886813494,-0.23066208886188685,523105.96665073436,171215.92641247605,,E05000472,Village,,E09000024,12/27/2020
Merton,Pubs,Rose & Crown,"55 High Street, Wimbledon Village",Wimbledon,London,E09000024,Merton,51.42604027849203,-0.22057087858962607,523808.9664579761,171171.92642282596,,E05000472,Village,,E09000024,12/27/2020
Merton,Pubs,Fire Stables,"27-29 Church Road, Wimbledon Village",Wimbledon,London,E09000024,Merton,51.426336407724676,-0.21697758879317347,524057.9663903396,171210.92641199438,,E05000472,Village,,E09000024,12/27/2020
Merton,Pubs,Dog & Fox,"24 High Street, Wimbledon Village",Wimbledon,London,E09000024,Merton,51.4250963358954,-0.2176299829031144,524015.96640147467,171071.9264497555,,E05000472,Village,,E09000024,12/27/2020
Merton,Pubs,Hemingway's,57 High Street,Wimbledon,London,E09000024,Merton,51.42551562189461,-0.218591809269849,523947.96641974326,171116.92643754452,,E05000472,Village,,E09000024,12/27/2020
Merton,Pubs,All Bar One,37/39 Wimbledon Hill Road,Wimbledon,London,E09000024,Merton,51.42267574583992,-0.20867688757246544,524644.9662326257,170817.92651952023,,E05000462,Hillside,,E09000024,12/27/2020
Merton,Pubs,Alexandra,33 Wimbledon Hill Road,Wimbledon,London,E09000024,Merton,51.42188855153604,-0.20777274126089113,524709.9662149663,170731.92654266517,,E05000462,Hillside,,E09000024,12/27/2020
Merton,Pubs,Hand & Racquet,25/27 Wimbledon Hill Road,Wimbledon,London,E09000024,Merton,51.42188855153604,-0.20777274126089113,524709.9662149663,170731.92654266517,,E05000462,Hillside,,E09000024,12/27/2020
Merton,Pubs,Cavern,100 Coombe Lane,Raynes Park,London,E09000024,Merton,51.40980323267399,-0.2338844117106289,522926.9667025704,169343.92692142486,,E05000469,Raynes Park,,E09000024,12/27/2020
Merton,Pubs,Raynes Park Tavern,32 Coombe Lane,Raynes Park,London,E09000024,Merton,51.40966999474017,-0.23101361264160725,523126.96664731926,169333.92692389752,,E05000469,Raynes Park,,E09000024,12/27/2020
Merton,Pubs,Mora Meza Bar & Restaurant,17 Approach Road,Raynes Park,London,E09000024,Merton,51.40893953492018,-0.2284966546763358,523303.9665986082,169256.92694487417,,E05000459,Dundonald,,E09000024,12/27/2020
Merton,Pubs,Edward Rayne,8-12 Coombe Lane,Raynes Park,London,E09000024,Merton,51.40973954416328,-0.22906966670444182,523261.9666099334,169344.92692066252,,E05000469,Raynes Park,,E09000024,12/27/2020
Merton,Set and exhibition building,White Light Ltd,Merton Industrial Park,20 Jubilee Way,,E09000024,Merton,51.41131613612278,-0.18794816981473422,526117.3258166681,169590.15683207597,48101205,E05000455,Abbey,https://www.whitelight.ltd.uk,E09000024,12/27/2020
Merton,Set and exhibition building,White Light,20 Merton Industrial Park, Jubilee Way,,E09000024,Merton,51.41131613612278,-0.18794816981473422,526117.3258166681,169590.15683207597,48101205,E05000455,Abbey,https://www.whitelight.ltd.uk,E09000024,12/27/2020
Merton,Set and exhibition building,Setsquare Staging,3-9 Willow Lane,,,E09000024,Merton,51.39298634908023,-0.16250185367941516,527937.9653379641,167595.92739516945,48117019,E05000458,Cricket Green,http://www.setsquarestaging.com,E09000024,12/27/2020
Merton,Skate Parks,Pollards-Hill,,,,E09000024,Merton,51.402309619337636,-0.13207397885515307,530028.3479511058,168686.11746564548,0,E05000467,Pollards Hill,,E09000024,12/27/2020
Merton,Theatre rehearsal studio,Lantern Arts Centre,Tolverne Road,Raynes Park,,E09000024,Merton,51.41137927832324,-0.2298690905225849,523201.9665036887,169525.92674868507,48111953,E05000469,Raynes Park,www.lanternarts.org,E09000024,12/27/2020
Merton,Theatres,New Wimbledon Theatre,93 The Broadway, Wimbledon,NA,E09000024,Merton,51.41980862790408,-0.20289575274767788,525054.7072990158,170508.94108056754,48008413,E05000471,Trinity,http://www.atgtickets.com/venues/new-wimbledon-theatre/,E09000024,12/27/2020
Merton,Theatres,Polka Theatre,240 The Broadway, Wimbledon,NA,E09000024,Merton,51.420198742717,-0.1960784350015646,525527.6326703677,170563.96316548373,48008566,E05000471,Trinity,https://polkatheatre.com/,E09000024,12/27/2020
Merton,Theatres,Merton Arts Space,Compton Rd, Wimbledon,NA,E09000024,Merton,51.423743155778226,-0.20846541314417708,524656.76730752,170936.98276554805,48017144,E05000462,Hillside,https://arena.yourlondonlibrary.net/web/merton/merton-arts-space-wimbledon,E09000024,12/27/2020
Merton,Theatres,Collyer Hall Theatre,King's College School, Southside, Wimbledon Common,E09000024,Merton,51.42244792716742,-0.22770748483034164,523322.5039690012,170760.42691263906,48065710,E05000472,Village,https://www.kcs.org.uk/the-kings-community/venue-hire/performance-venues,E09000024,12/27/2020
Merton,Theatres,Lantern Arts Centre,Tolverne Road, Raynes Park,NA,E09000024,Merton,51.411899082908896,-0.2314599239229045,523089.9443342346,169581.0590335686,48111953,E05000469,Raynes Park,https://www.lanternarts.org/,E09000024,12/27/2020
Merton,Theatres,The Colour House Theatre,Merton Abbey Mills, Watermill Way,NA,E09000024,Merton,51.41351460609228,-0.18476621267758112,526332.5462500576,169840.10136075027,48112460,E05000455,Abbey,http://www.colourhousetheatre.co.uk/,E09000024,12/27/2020
