BOROUGH,Cultural Venue Type,site_name,address1,address2,address3,borough_code,borough_name,latitude,longitude,easting,northing,os_addressbase_uprn,ward_2018_code,ward_2018_name,website,gss_code,runtime
Richmond upon Thames,Archives,Orleans House Gallery,Riverside,,,E09000027,Richmond upon Thames,51.447331685363174,-0.3190722161075801,516906.968214914,173377.9257034324,100022000000,E05000531,Twickenham Riverside,https://www.orleanshousegallery.org/,E09000027,12/27/2020
Richmond upon Thames,Archives,St Paul's School Archives,Lonsdale Road,,,E09000027,Richmond upon Thames,51.48769585182716,-0.23741773945341763,522472.86670177244,177999.80444514175,100023000000,E05000516,Barnes,https://www.stpaulsschool.org.uk/st-pauls/academic/library,E09000027,12/27/2020
Richmond upon Thames,Archives,World Rugby Museum,Twickenham Stadium ,Rugby Road,Twickenham,E09000027,Richmond upon Thames,51.455648837508754,-0.3417394080012988,515310.96864928456,174266.92545823962,100023000000,E05000527,St. Margarets and North Twickenham,http://www.worldrugbymuseum.com/,E09000027,12/27/2020
Richmond upon Thames,Archives,"Surrey University: St Mary's College, Strawberry Hill",Learning Resources Centre St Mary's College ,Strawberry Hill ,Waldegrave Road,E09000027,Richmond upon Thames,51.43615141956274,-0.3358851130704332,515766.968521769,172107.92604481487,100023000000,E05000529,South Twickenham,https://www.stmarys.ac.uk/home.aspx,E09000027,12/27/2020
Richmond upon Thames,Arts centres,OSO Arts Centre,49 Station Rd,,,E09000027,Richmond upon Thames,51.472300953024735,-0.24662565900925684,521874.5868618636,176272.52491440473,200002811148,E05000525,Mortlake and Barnes Common,http://www.osoarts.org.uk/,E09000027,12/27/2020
Richmond upon Thames,Arts centres,The Landmark Arts Centre ,Landmark Arts Centre ,Ferry Road ,Teddington,E09000027,Richmond upon Thames,51.428086704633984,-0.32462690336409294,516569.968307714,171228.92628604273,10024344794,E05000530,Teddington,http://www.landmarkartscentre.org/,E09000027,12/27/2020
Richmond upon Thames,Cinemas,Curzon Richmond,,Water Lane,Richmond,E09000027,Richmond upon Thames,51.459286363371355,-0.30682912599654005,517726.9681142294,174726.92545578856,100023409354,E05000528,South Richmond,,E09000027,12/27/2020
Richmond upon Thames,Cinemas,Odeon Richmond,,72 Hill Street,,E09000027,Richmond upon Thames,51.45941187901456,-0.30555771928582826,517814.9680906436,174742.92545149295,010002264393,E05000528,South Richmond,,E09000027,12/27/2020
Richmond upon Thames,Cinemas,Olympic Cinema,,117-123 Church Road,Barnes,E09000027,Richmond upon Thames,51.47521924840952,-0.2407563931913734,522274.40687756217,176606.81490059476,010070710572,E05000516,Barnes,,E09000027,12/27/2020
Richmond upon Thames,Community centres,Bullen Hall,Bennet Close,Richmond Upon Thames,NA,E09000027,Richmond upon Thames,51.413844347409054,-0.313456324406439,517382.9682106491,169662.92683413945,10070711005,E05000522,Hampton Wick,https://www.richmond.gov.uk/services/hall_and_venue_bookings/bullen_hall_venue_hire,E09000027,12/27/2020
Richmond upon Thames,Community centres,Sheen Lane Centre,Sheen Lane,Richmond Upon Thames,NA,E09000027,Richmond upon Thames,51.46587485792518,-0.2672094482917092,520461.96737197856,175523.92524062342,100023310512,E05000517,East Sheen,https://www.richmond.gov.uk/services/hall_and_venue_bookings/sheen_lane_centre_venue_hire,E09000027,12/27/2020
Richmond upon Thames,Community centres,Murray Park Hall,111 Kneller Road,Richmond Upon Thames,NA,E09000027,Richmond upon Thames,51.455159956641296,-0.3529842075120519,514530.9689825829,174194.92559980997,100023401887,E05000533,Whitton,https://www.richmond.gov.uk/services/hall_and_venue_bookings/murray_park_hall_venue_hire,E09000027,12/27/2020
Richmond upon Thames,Community centres,Crane Community Centre,49-51 Medway, Twickenham,NA,E09000027,Richmond upon Thames,51.44527035285568,-0.3505627526428268,514723.9689289101,173098.92589988315,100023574496,E05000532,West Twickenham,https://www.facebook.com/pages/Crane-Community-Centre/249951148350529,E09000027,12/27/2020
Richmond upon Thames,Community centres,Cambrian Centre,1 Cambrian Road,Richmond Upon Thames,NA,E09000027,Richmond upon Thames,51.45379697993631,-0.29353122701580214,518664.96785916504,174137.92561596446,10070727172,E05000528,South Richmond,https://cambriancentre.org/,E09000027,12/27/2020
Richmond upon Thames,Community centres,Whitton Community Centre,Percy Road,Richmond Upon Thames,NA,E09000027,Richmond upon Thames,51.4439813454894,-0.36445224784961994,513761.96919134725,172933.92594354664,100023401561,E05000523,Heathfield,https://www.whittoncommunity.org/,E09000027,12/27/2020
Richmond upon Thames,Community centres,East Twickenham Neighbourhood Association Community Centre,13 Rosslyn Road,Richmond Upon Thames,NA,E09000027,Richmond upon Thames,51.455206659918005,-0.3132700843120862,517289.96823207336,174262.92558296508,100023391806,E05000531,Twickenham Riverside,https://etnacentre.org/,E09000027,12/27/2020
Richmond upon Thames,Community centres,DERA Social Centre,Chertsey Road,Richmond Upon Thames,NA,E09000027,Richmond upon Thames,51.44888851795693,-0.352073005307939,514609.9689607825,173498.92578940128,10070711141,E05000533,Whitton,http://www.deneestate.org/,E09000027,12/27/2020
Richmond upon Thames,Community centres,The Exchange,75 London Road,Richmond Upon Thames,NA,E09000027,Richmond upon Thames,51.45004698875577,-0.3312574137054184,516053.3885517495,173660.51571112318,10091161250,E05000527,St. Margarets and North Twickenham,https://exchangetwickenham.co.uk/venue-hire/,E09000027,12/27/2020
Richmond upon Thames,Community centres,The White House Community Association,45 The Avenue,Richmond Upon Thames,NA,E09000027,Richmond upon Thames,51.42557246675606,-0.3772640036109902,512916.96942315315,170866.9265060884,100023398296,E05000521,Hampton North,www.whitehousehampton.co.uk,E09000027,12/27/2020
Richmond upon Thames,Community centres,The Barnes Green Centre,49 Station Road,Richmond Upon Thames,NA,E09000027,Richmond upon Thames,51.47230095387756,-0.24662565728907546,521874.58697905764,176272.5250120986,200002811148,E05000525,Mortlake and Barnes Common,https://www.barnesgreencentre.org.uk/#,E09000027,12/27/2020
Richmond upon Thames,Dance performance venues,Richmond Theatre,"15 Little Green,",,,E09000027,Richmond upon Thames,51.46212984710516,-0.30384478130276277,517926.96793812537,175047.9252463284,10002264543,E05000528,South Richmond,,E09000027,12/27/2020
Richmond upon Thames,Dance performance venues,Landmark Arts Centre,1 Cloister Close,,,E09000027,Richmond upon Thames,51.428086704633984,-0.32462690336409294,516569.968307714,171228.92628604273,10024344794,E05000530,Teddington,http://www.landmarkartscentre.org,E09000027,12/27/2020
Richmond upon Thames,Dance performance venues,Studio K,2 Kew Road,,,E09000027,Richmond upon Thames,51.46347521061349,-0.3017064577548405,518072.0378987031,175200.97520468966,10024346023,E05000528,South Richmond,http://www.studiokdance.co.uk,E09000027,12/27/2020
Richmond upon Thames,Dance rehearsal studios,Rambert School Studio Theatre,"St. Margaret's Drive,",Clifton Lodge,,E09000027,Richmond upon Thames,51.46182115614116,-0.32176460401029955,516682.9682748406,174984.92526318855,100023391009,E05000527,St. Margarets and North Twickenham,http://www.rambertschool.org.uk,E09000027,12/27/2020
Richmond upon Thames,Dance rehearsal studios,Richmond Upon Thames College,Egerton Road,,,E09000027,Richmond upon Thames,51.451482429958936,-0.34153061629583387,515335.96864181256,173803.9255834028,100023401636,E05000527,St. Margarets and North Twickenham,https://www.rutc.ac.uk,E09000027,12/27/2020
Richmond upon Thames,Dance rehearsal studios,Kellys Dance Studio,12 Park Road,,,E09000027,Richmond upon Thames,51.41315474724162,-0.31240317438657655,517457.96806791937,169587.9267320704,100023057520,E05000522,Hampton Wick,,E09000027,12/27/2020
Richmond upon Thames,Dance rehearsal studios,Richmond and Hillcroft Adult Community College,Parkshot ,,,E09000027,Richmond upon Thames,51.46437949470491,-0.3026747698410717,518002.4479173338,175299.97517765535,10070711497,E05000528,South Richmond,https://www.rhacc.ac.uk/contact-rhacc/contact-us,E09000027,12/27/2020
Richmond upon Thames,Dance rehearsal studios,Studio K,2 Kew Road,,,E09000027,Richmond upon Thames,51.46347521061349,-0.3017064577548405,518072.0378987031,175200.97520468966,10024346023,E05000528,South Richmond,http://www.studiokdance.co.uk,E09000027,12/27/2020
Richmond upon Thames,Jewellery design,Amulette Ltd,"Suite D, 8 The Causeway",Teddington,,E09000027,Richmond upon Thames,51.42581905421252,-0.33587210946794455,515793.96864182816,170958.92648152675,10070710083,E05000530,Teddington,http://www.amulette.co.uk/,E09000027,12/27/2020
Richmond upon Thames,Jewellery design,Scintillate Limited,1c Becketts Place,Hampton Wick,,E09000027,Richmond upon Thames,51.413144073795195,-0.3091679492565116,517682.96812835254,169591.9268523461,10024345225,E05000522,Hampton Wick,,E09000027,12/27/2020
Richmond upon Thames,Jewellery design,SG Beads Limited,1 Park Road,Hampton Wick,,E09000027,Richmond upon Thames,51.412856789113526,-0.31169512789696346,517507.9681762693,169555.9268626686,100023057519,E05000522,Hampton Wick,,E09000027,12/27/2020
Richmond upon Thames,Large media production studios,Twickenham Studios,"The Barons, Twickenham ",,Twickenham,E09000027,Richmond upon Thames,51.45570925488382,-0.3188364046346366,516901.9683367729,174309.92557006446,100023391264,E05000527,St. Margarets and North Twickenham,http://filmlondon.org.uk/twickenham-studios#,E09000027,12/27/2020
Richmond upon Thames,Libraries,Hampton,Rosehill,Hampton,,E09000027,Richmond upon Thames,51.41387532172656,-0.37028679191163216,513430.96928190993,169576.92685505108,100023398181,E05000520,Hampton,,E09000027,12/27/2020
Richmond upon Thames,Libraries,Hampton Wick,Bennet Close,Hampton Wick,,E09000027,Richmond upon Thames,51.413788352127966,-0.3133145785707246,517392.9682079052,169656.9268357262,10002251905,E05000522,Hampton Wick,,E09000027,12/27/2020
Richmond upon Thames,Libraries,Hampton Hill,High Street,Hampton Hill,,E09000027,Richmond upon Thames,51.42651589213666,-0.35592738221028836,514397.9690190956,171004.9264666256,10024344272,E05000518,Fulwell and Hampton Hill,,E09000027,12/27/2020
Richmond upon Thames,Libraries,Teddington,Waldegrave Road,Teddington,,E09000027,Richmond upon Thames,51.42774016606845,-0.33437822559706193,515892.96861373796,171174.92642226105,10002264575,E05000530,Teddington,,E09000027,12/27/2020
Richmond upon Thames,Libraries,Ham,Ham Street,Ham,,E09000027,Richmond upon Thames,51.43788673618039,-0.31323220056700035,517336.9682188198,172336.9261058165,100023395688,E05000519,"Ham, Petersham and Richmond Riverside",,E09000027,12/27/2020
Richmond upon Thames,Libraries,Heathfield Library Access Point,Percy Road,Twickenham,,E09000027,Richmond upon Thames,51.4439813454894,-0.36445224784961994,513761.96919134725,172933.92594354664,100023401561,E05000523,Heathfield,,E09000027,12/27/2020
Richmond upon Thames,Libraries,Twickenham,Garfield Road,Twickenham,,E09000027,Richmond upon Thames,51.447484803958986,-0.3278885830697373,516293.9685030005,173380.92582255846,100023574356,E05000531,Twickenham Riverside,,E09000027,12/27/2020
Richmond upon Thames,Libraries,Whitton,Nelson Road,Twickenham,,E09000027,Richmond upon Thames,51.45274653435447,-0.359144796323774,514108.96909869276,173916.92567624885,100023401915,E05000533,Whitton,,E09000027,12/27/2020
Richmond upon Thames,Libraries,Richmond Information and Reference Library. Richmond Local Studies Library.,Whittaker Avenue,Richmond,,E09000027,Richmond upon Thames,51.45885770501777,-0.30641313180537816,517756.96810621116,174679.92546862114,10002264550,E05000528,South Richmond,,E09000027,12/27/2020
Richmond upon Thames,Libraries,Richmond Lending Library,Little Green,Richmond,,E09000027,Richmond upon Thames,51.46229853418381,-0.30369457001961214,517936.96805750404,175066.92536325537,10002249444,E05000528,South Richmond,,E09000027,12/27/2020
Richmond upon Thames,Libraries,East Sheen,Sheen Lane,,,E09000027,Richmond upon Thames,51.46541281685656,-0.26758686304001594,520436.96737865405,175471.9252549184,100023310505,E05000517,East Sheen,,E09000027,12/27/2020
Richmond upon Thames,Libraries,Kew,North Road,Kew,,E09000027,Richmond upon Thames,51.47650840735147,-0.2846345022180666,519223.9677066781,176677.92492730194,100023410988,E05000524,Kew,,E09000027,12/27/2020
Richmond upon Thames,Libraries,Castelnau,Castelnau,,,E09000027,Richmond upon Thames,51.48026254844265,-0.23758762539437,522480.9668213043,177172.92479229002,100023309520,E05000516,Barnes,,E09000027,12/27/2020
Richmond upon Thames,Museums and public galleries,Museum of Army Music,Royal Military School of Music,Kneller Hall,2 Kneller Rd,E09000027,Richmond upon Thames,51.45510021617221,-0.35065460297150675,514692.9689383524,174191.92560038617,10002261149,E05000533,Whitton,www.army.mod.uk âº Corps of Army Music âº The Royal Military School of Music,E09000027,12/27/2020
Richmond upon Thames,Museums and public galleries,Hampton Court Palace,Molesey,East Molesey,NA,E09000027,Richmond upon Thames,51.40385723305589,-0.3376326827358215,515726.96865940373,168513.92714681593,10002266633,E05000520,Hampton,https://www.hrp.org.uk/hampton-court-palace/,E09000027,12/27/2020
Richmond upon Thames,Museums and public galleries,Kew Palace,Royal Botanic Gardens Kew,Richmond,NA,E09000027,Richmond upon Thames,51.48527287453825,-0.29117610387645465,518746.96783674916,177641.92466493446,10002266941,E05000524,Kew,https://www.hrp.org.uk/kew-palace/,E09000027,12/27/2020
Richmond upon Thames,Museums and public galleries,Strawberry Hill House,268 Waldegrave Rd,Twickenham,NA,E09000027,Richmond upon Thames,51.43822123808392,-0.33473073876658627,515841.96862354514,172339.92610407743,10002267260,E05000529,South Twickenham,http://www.strawberryhillhouse.org.uk/,E09000027,12/27/2020
Richmond upon Thames,Museums and public galleries,Marble Hill House,Richmond Rd,Twickenham,NA,E09000027,Richmond upon Thames,51.44951494173568,-0.3133071075118182,517301.96822988475,173629.92575671565,10070709920,E05000531,Twickenham Riverside,http://www.culture24.org.uk/se000472,E09000027,12/27/2020
Richmond upon Thames,Museums and public galleries,Museum of Richmond,Old Town Hall,Whittaker Avenue,Richmond,E09000027,Richmond upon Thames,51.45881505194292,-0.30657305334052026,517745.9681091553,174674.9254699793,10070710719,E05000528,South Richmond,www.​museumofrichmond.​com,E09000027,12/27/2020
Richmond upon Thames,Museums and public galleries,World Rugby Museum,Twickenham Stadium,Rugby Road,Twickenham,E09000027,Richmond upon Thames,51.455310620195654,-0.34071531516783615,515382.96875187,174230.9255901021,10070721329,E05000527,St. Margarets and North Twickenham,http://www.rfu.com/museum,E09000027,12/27/2020
Richmond upon Thames,Museums and public galleries,Ham House,Ham House and Garden,Ham St,Richmond-upon-Thames,E09000027,Richmond upon Thames,51.44367923659335,-0.3164578942587553,517097.96828456153,172975.925934484,100022307688,E05000519,"Ham, Petersham and Richmond Riverside",https://www.nationaltrust.org.uk/ham-house-and-garden,E09000027,12/27/2020
Richmond upon Thames,Museums and public galleries,Orleans House Gallery,Riverside,Twickenham,NA,E09000027,Richmond upon Thames,51.44733168643536,-0.3190722143109723,516906.968337014,173377.92582553212,100022344488,E05000531,Twickenham Riverside,http://www.richmond.gov.uk/arts,E09000027,12/27/2020
Richmond upon Thames,Music (office based businesses),Big Label Records Uk Ltd,1 Park Road,Richmond Upon Thames,,E09000027,Richmond Upon Thames,51.41285678910991,-0.3116951278970966,517507.9681762698,169555.92686226568,100000000000,E05000522,Hampton Wick,,E09000027,12/27/2020
Richmond upon Thames,Music (office based businesses),Natural Light Records & Publications Ltd,41 Cloister Close,Richmond Upon Thames,,E09000027,Richmond Upon Thames,51.42834185495802,-0.3248621137023684,516552.96843426,171256.9263999706,10002252998,E05000530,Teddington,,E09000027,12/27/2020
Richmond upon Thames,Music (office based businesses),Avatone Records Ltd,80 Mallard Place,Richmond Upon Thames,,E09000027,Richmond Upon Thames,51.435991699903774,-0.3290855228088806,516239.9685156507,172100.92616827402,100000000000,E05000529,South Twickenham,,E09000027,12/27/2020
Richmond upon Thames,Music (office based businesses),Convivium Records Ltd,3 Twining Avenue,Richmond Upon Thames,,E09000027,Richmond Upon Thames,51.43993866714511,-0.3557332859704129,514377.969022447,172497.92606369953,100000000000,E05000532,West Twickenham,www.conviviumrecords.co.uk,E09000027,12/27/2020
Richmond upon Thames,Music (office based businesses),Alcopop! Records Ltd,16 The Green,Richmond Upon Thames,,E09000027,Richmond Upon Thames,51.44487266009261,-0.34023041478602895,515442.9687331305,173070.92590597313,100000000000,E05000529,South Twickenham,,E09000027,12/27/2020
Richmond upon Thames,Music (office based businesses),Pieces Of Eight Records Ltd,48 Copthall Gardens,Richmond Upon Thames,,E09000027,Richmond Upon Thames,51.44673436213796,-0.33265074134602174,515964.9685918514,173289.92584586045,100000000000,E05000531,Twickenham Riverside,www.piecesofeightrecords.com,E09000027,12/27/2020
Richmond upon Thames,Music (office based businesses),Mustard Music Publishing Ltd,8 Roseleigh Close,Richmond Upon Thames,,E09000027,Richmond Upon Thames,51.453026000665986,-0.3079674135967789,517663.9681311427,174028.9256465315,100000000000,E05000531,Twickenham Riverside,,E09000027,12/27/2020
Richmond upon Thames,Music (office based businesses),Red Raw Records Ltd,7 Erncroft Way,Richmond Upon Thames,,E09000027,Richmond Upon Thames,51.45376891271947,-0.33535935888223256,515758.9686497827,174067.9256338015,100000000000,E05000527,St. Margarets And North Twickenham,,E09000027,12/27/2020
Richmond upon Thames,Music (office based businesses),Lower Groove Music Publishing Ltd,7 Lower Grove Road,Richmond Upon Thames,,E09000027,Richmond Upon Thames,51.45710514359844,-0.2897517758262052,518918.9677912529,174511.92551416793,100000000000,E05000528,South Richmond,,E09000027,12/27/2020
Richmond upon Thames,Music (office based businesses),Little Ears Records Ltd,206 Upper Richmond Road West,Richmond Upon Thames,,E09000027,Richmond Upon Thames,51.465112258130105,-0.2642869709883079,520666.9673155404,175443.925262155,10091909677,E05000517,East Sheen,www.littleearsradio.com,E09000027,12/27/2020
Richmond upon Thames,Music (office based businesses),Kaleidoscope Music Management & Publishing Ltd,6 Trinity Cottages,Richmond Upon Thames,,E09000027,Richmond Upon Thames,51.46627306408023,-0.2906762020748835,518830.96781631047,175529.92523710465,100000000000,E05000526,North Richmond,,E09000027,12/27/2020
Richmond upon Thames,Music recording studios,Twickenham Sound Studios Ltd,Arlington Works 27a Arlington Rd,Twickenham,,E09000027,Richmond Upon Thames,51.45623148451716,-0.31825585002614276,516940.9683258229,174368.92555341095,0,E05000531,Twickenham Riverside,www.tss.uk.net,E09000027,12/27/2020
Richmond upon Thames,Music venues (all),The White Swan,Riverside Richmond Upon Thames,,,E09000027,RICHMOND UPON THAMES,51.44704174149807,-0.3214286667216496,516743.96825897624,173341.92571263976,100023392142,E05000531,Twickenham Riverside,www.whiteswantwickenham.co.uk,E09000027,12/27/2020
Richmond upon Thames,Music venues (all),Swan,22 High Street,Richmond Upon Thames,,E09000027,Richmond Upon Thames,51.41259187574806,-0.31078454984492876,517571.9681586737,169527.92686964606,100000000000,E05000522,Hampton Wick,www.swanhamptonwick.co.uk,E09000027,12/27/2020
Richmond upon Thames,Music venues (all),Adelaide,57 Park Road,Richmond Upon Thames,,E09000027,Richmond Upon Thames,51.423696730150844,-0.33459714038829774,515887.968616312,170724.92654438328,100000000000,E05000530,Teddington,www.adelaideteddington.co.uk,E09000027,12/27/2020
Richmond upon Thames,Music venues (all),Builders Arms,38 Field Lane,Richmond Upon Thames,,E09000027,Richmond Upon Thames,51.425967035364046,-0.3304726011804508,516168.9685400543,170983.92647492298,100000000000,E05000530,Teddington,,E09000027,12/27/2020
Richmond upon Thames,Music venues (all),Teddington Arms,38-40 High Street,Richmond Upon Thames,,E09000027,Richmond Upon Thames,51.42707420556642,-0.3318131813692569,516072.9685653543,171104.92644138786,100000000000,E05000530,Teddington,www.teddingtonarms.com,E09000027,12/27/2020
Richmond upon Thames,Music venues (all),Landmark Arts Centre,Ferry Road Teddington Tw11 9nn ,,,E09000027,Richmond Upon Thames,51.4281230002923,-0.32443499938536324,516583.21641209454,171233.26777615177,0,E05000530,Teddington,http://www.landmarkartscentre.org/,E09000027,12/27/2020
Richmond upon Thames,Music venues (all),The Red Lion,164 Stanley Road,Richmond Upon Thames,,E09000027,Richmond Upon Thames,51.43087793135113,-0.3451253850141197,515137.96881659765,171506.92633154866,100000000000,E05000518,Fulwell And Hampton Hill,www.theredlionteddington.com,E09000027,12/27/2020
Richmond upon Thames,Music venues (all),The Prince Of Wales,136 Hampton Road,Richmond Upon Thames,,E09000027,Richmond Upon Thames,51.4395268765513,-0.34819410927511374,514902.9688794642,172463.9260732095,100000000000,E05000532,West Twickenham,,E09000027,12/27/2020
Richmond upon Thames,Music venues (all),The Prince Albert,30 Hampton Road,Richmond Upon Thames,,E09000027,Richmond Upon Thames,51.44216939742316,-0.344285564823492,515167.9688073045,172763.92599100835,100000000000,E05000532,West Twickenham,www.princealberttwickenham.co.uk,E09000027,12/27/2020
Richmond upon Thames,Music venues (all),Sussex Arms,42309 Staines Road,Richmond Upon Thames,,E09000027,Richmond Upon Thames,51.444070987527866,-0.3458572403291027,515053.96883881226,172972.925933673,100000000000,E05000532,West Twickenham,www.thesussexarmstwickenham.co.uk,E09000027,12/27/2020
Richmond upon Thames,Music venues (all),Fox,39 Church Street,Richmond Upon Thames,,E09000027,Richmond Upon Thames,51.44664582885487,-0.32707017049534426,516352.9684868137,173288.92584743386,100000000000,E05000531,Twickenham Riverside,www.thefoxtwickenham.co.uk,E09000027,12/27/2020
Richmond upon Thames,Music venues (all),Patchworks,67 London Road,Richmond Upon Thames,,E09000027,Richmond Upon Thames,51.44880938281385,-0.3299701627921004,516145.96854343126,173524.92578232283,100000000000,E05000531,Twickenham Riverside,www.cabbagepatch.co.ukwhats-on,E09000027,12/27/2020
Richmond upon Thames,Music venues (all),Crown,174 Richmond Road,Richmond Upon Thames,,E09000027,Richmond Upon Thames,51.45119203049291,-0.31862809461828,516927.9683316777,173807.9257082693,100000000000,E05000531,Twickenham Riverside,www.crowntwickenham.co.uk,E09000027,12/27/2020
Richmond upon Thames,Music venues (all),St Stephen's Church,Richmond Road East Twickenham Middlesex Tw1 2pd ,,,E09000027,Richmond Upon Thames,51.45289700059724,-0.3128739984214603,517323.39998626674,174006.7172179296,0,E05000531,Twickenham Riverside,https://www.st-stephens.org.uk/,E09000027,12/27/2020
Richmond upon Thames,Music venues (all),Marlborough,46 Friars Stile Road,Richmond Upon Thames,,E09000027,Richmond Upon Thames,51.455094374161526,-0.29679342032900224,518434.96792220126,174276.92557809484,100000000000,E05000528,South Richmond,www.themarlboroughrichmond.co.uk,E09000027,12/27/2020
Richmond upon Thames,Music venues (all),The Duke,2 Duke Street,Richmond Upon Thames,,E09000027,Richmond Upon Thames,51.461433173409425,-0.3041729003900636,517905.96806598327,174969.92538927688,100000000000,E05000528,South Richmond,,E09000027,12/27/2020
Richmond upon Thames,Music venues (all),Red Cow,59 Sheen Road,Richmond Upon Thames,,E09000027,Richmond Upon Thames,51.461731069098164,-0.29680563342046123,518416.9679279037,175014.9253772883,100000000000,E05000528,South Richmond,www.redcowpub.com,E09000027,12/27/2020
Richmond upon Thames,Music venues (all),Sheen Lane Centre,74 Sheen Laneeast Sheen ,,,E09000027,Richmond Upon Thames,51.465378000432715,-0.2675609994744303,520438.8553786158,175468.09603186854,0,E05000517,East Sheen,https://www.richmond.gov.uk/services/hall_and_venue_bookings/sheen_lane_centre_venue_hire,E09000027,12/27/2020
Richmond upon Thames,Music venues (all),The Bulls Head Barnes,373 Lonsdale Road,Richmond Upon Thames,,E09000027,Richmond Upon Thames,51.47377009475886,-0.25082615967748617,521578.96706390695,176428.9249924518,100000000000,E05000516,Barnes,www.thebullsheadbarnes.com,E09000027,12/27/2020
Richmond upon Thames,Music venues (all),Tap On The Line,Kew Garden Station Station Approach,Richmond,,E09000027,Richmond Upon Thames,51.47710103334991,-0.28518830712333926,519183.9677176188,176742.92490926728,0,E05000524,Kew,www.tapontheline.co.uk,E09000027,12/27/2020
Richmond upon Thames,Music venues (grassroots),Patchworks,67 London Road,Richmond Upon Thames,,E09000027,Richmond Upon Thames,51.44880938281385,-0.3299701627921004,516145.96854343126,173524.92578232283,100000000000,E05000531,Twickenham Riverside,www.cabbagepatch.co.ukwhats-on,E09000027,12/27/2020
Richmond upon Thames,Music venues (grassroots),The Bulls Head Barnes,373 Lonsdale Road,Richmond Upon Thames,,E09000027,Richmond Upon Thames,51.47377009475886,-0.25082615967748617,521578.96706390695,176428.9249924518,100000000000,E05000516,Barnes,www.thebullsheadbarnes.com,E09000027,12/27/2020
Richmond upon Thames,Prop and costume making,Visual Impact Creative Limited,12 St John's Road,,,E09000027,Richmond upon Thames,51.4125960625755,-0.31232309110534845,517464.9681880234,169525.9268709246,10070721240,E05000522,Hampton Wick,http://www.visual-impact.co.uk,E09000027,12/27/2020
Richmond upon Thames,Pubs,White Hart Hotel,1 High Street,Hampton Wick,,E09000027,Richmond upon Thames,51.4122003548687,-0.3110722110406574,517552.96816381736,169483.92688202515,,E05000522,Hampton Wick,,E09000027,12/27/2020
Richmond upon Thames,Pubs,Swan,22 High Street,Hampton Wick,,E09000027,Richmond upon Thames,51.41292814931983,-0.3110309974745299,517553.96816367004,169564.92686008423,,E05000522,Hampton Wick,,E09000027,12/27/2020
Richmond upon Thames,Pubs,Foresters Arms,45 High Street,Hampton Wick,,E09000027,Richmond upon Thames,51.413745451028156,-0.31220884294914575,517469.9681868154,169653.9268362695,,E05000522,Hampton Wick,,E09000027,12/27/2020
Richmond upon Thames,Pubs,Mute Swan,3 Palace Gate,Hampton Court,East Molesey,E09000027,Richmond upon Thames,51.40474930441805,-0.34220121803454284,515406.96874572436,168605.92712118273,,E05000520,Hampton,,E09000027,12/27/2020
Richmond upon Thames,Pubs,Sextons at Hampton Court,"The Green, Hampton Court Road, East Molesey",Hampton Court,,E09000027,Richmond upon Thames,51.405735438627715,-0.3438909275014838,515286.9687779342,168712.9270920817,,E05000520,Hampton,,E09000027,12/27/2020
Richmond upon Thames,Pubs,Brown Dog,28 Cross Street,Barnes,London,E09000027,Richmond upon Thames,51.46949080533113,-0.25211279358780786,521500.96708528465,175950.92512328975,,E05000525,Mortlake and Barnes Common,,E09000027,12/27/2020
Richmond upon Thames,Pubs,White Hart,"The Terrace, Riverside",Barnes,London,E09000027,Richmond upon Thames,51.47134354869472,-0.2545474197533854,521326.9671333795,176152.92506823444,,E05000525,Mortlake and Barnes Common,,E09000027,12/27/2020
Richmond upon Thames,Pubs,Bridge,"204 Castelnau, Barnes, London",Barnes,London,E09000027,Richmond upon Thames,51.48584376259264,-0.23259055201842213,522812.9667322014,177801.9246204907,,E05000516,Barnes,,E09000027,12/27/2020
Richmond upon Thames,Pubs,Sun Inn,"7 Church Road, Barnes, London",Barnes,,E09000027,Richmond upon Thames,51.4737741568677,-0.24688052072046546,521852.96698962426,176435.92499191762,,E05000516,Barnes,,E09000027,12/27/2020
Richmond upon Thames,Pubs,Coach & Horses,27 Barnes High Street,Barnes,London,E09000027,Richmond upon Thames,51.47358878976295,-0.2495227349690971,521669.9670391851,176410.9249980891,,E05000525,Mortlake and Barnes Common,,E09000027,12/27/2020
Richmond upon Thames,Pubs,Bulls Head,"373 Lonsdale Road, London",Barnes,London,E09000027,Richmond upon Thames,51.474449710127644,-0.2505697815234495,521594.9670594429,176504.92497216485,,E05000516,Barnes,,E09000027,12/27/2020
Richmond upon Thames,Pubs,Red Lion,"2 Castelnau, London",Barnes,London,E09000027,Richmond upon Thames,51.47687327426286,-0.23825102489634536,522443.96682974376,176794.92489609722,,E05000516,Barnes,,E09000027,12/27/2020
Richmond upon Thames,Pubs,Plough,"42 Christchurch Road, London",East Sheen,London,E09000027,Richmond upon Thames,51.460610677069816,-0.27123789122899145,520195.96744250215,174931.9254028183,,E05000517,East Sheen,,E09000027,12/27/2020
Richmond upon Thames,Pubs,Enroute 505,505-507 Upper Richmond Road West,East Sheen,London,E09000027,Richmond upon Thames,51.46406789742473,-0.27395783284663106,519997.9674982349,175311.92529827653,,E05000517,East Sheen,,E09000027,12/27/2020
Richmond upon Thames,Pubs,Jolly Gardeners,"36 Lower Richmond Road, London",Mortlake,London,E09000027,Richmond upon Thames,51.46959168964569,-0.26862373615220586,520353.9674024689,175934.92512834666,,E05000525,Mortlake and Barnes Common,,E09000027,12/27/2020
Richmond upon Thames,Pubs,Tapestry Tapas Bar,"1 Lower Richmond Road, London",Mortlake,London,E09000027,Richmond upon Thames,51.46913884309719,-0.26901521808890544,520327.96740950004,175883.9251422243,,E05000525,Mortlake and Barnes Common,,E09000027,12/27/2020
Richmond upon Thames,Pubs,Ship,"10 Thames Bank, Mortlake, London",Mortlake,London,E09000027,Richmond upon Thames,51.471461956785866,-0.2686105758690214,520349.9674037369,176142.9250717014,,E05000525,Mortlake and Barnes Common,,E09000027,12/27/2020
Richmond upon Thames,Pubs,Victoria,"10 West Temple Sheen, London",East Sheen,London,E09000027,Richmond upon Thames,51.461097453080356,-0.27559576093210403,519891.96752614656,174978.92538926943,,E05000517,East Sheen,,E09000027,12/27/2020
Richmond upon Thames,Pubs,Hare & Hounds,"216 Upper Richmond Road West, London",East Sheen,London,E09000027,Richmond upon Thames,51.46503004386154,-0.2648083732871512,520630.96732529666,175433.92526531493,,E05000517,East Sheen,,E09000027,12/27/2020
Richmond upon Thames,Pubs,Pig & Whistle,"86 Sheen Lane, London",East Sheen,London,E09000027,Richmond upon Thames,51.46584832023718,-0.26723924706882013,520459.9673725176,175520.9252414499,,E05000517,East Sheen,,E09000027,12/27/2020
Richmond upon Thames,Pubs,Micro Beers,335 Upper Richmond Road West,East Sheen,London,E09000027,Richmond upon Thames,51.46474547121581,-0.2644160537996567,520658.96731755976,175402.9252738314,,E05000517,East Sheen,,E09000027,12/27/2020
Richmond upon Thames,Pubs,Stags Head,"24 Priests Bridge, London",East Sheen,Barnes,E09000027,Richmond upon Thames,51.46600002029767,-0.2526060404646504,521475.9670930257,175561.925229872,,E05000525,Mortlake and Barnes Common,,E09000027,12/27/2020
Richmond upon Thames,Pubs,Hand & Flower,"Upper Ham Road, Richmond",Ham,Richmond,E09000027,Richmond upon Thames,51.43281621445816,-0.30645584457589,517820.96808719763,171783.92625522387,,E05000519,"Ham, Petersham and Richmond Riverside",,E09000027,12/27/2020
Richmond upon Thames,Pubs,Dukes Head,42 The Vineyard,Richmond,,E09000027,Richmond upon Thames,51.458321516026864,-0.3004303740775542,518173.9679941244,174629.92548253958,,E05000528,South Richmond,,E09000027,12/27/2020
Richmond upon Thames,Pubs,White Horse,14 Worple Way,Richmond,,E09000027,Richmond upon Thames,51.46155110641861,-0.296178918177658,518460.96791601466,174995.92538289208,,E05000528,South Richmond,,E09000027,12/27/2020
Richmond upon Thames,Pubs,Lass o' Richmond Hill,8 Queens Road,Richmond,,E09000027,Richmond upon Thames,51.45091028126861,-0.29599914674609296,518500.96790295467,173812.9257044237,,E05000519,"Ham, Petersham and Richmond Riverside",,E09000027,12/27/2020
Richmond upon Thames,Pubs,Marlborough,46 Friars Stile Road,Richmond,,E09000027,Richmond upon Thames,51.45519219426305,-0.29671781304984074,518439.9679208685,174287.92557550478,,E05000528,South Richmond,,E09000027,12/27/2020
Richmond upon Thames,Pubs,Roebuck,130 Richmond Hill,Richmond,,E09000027,Richmond upon Thames,51.452202194137485,-0.29826830936743415,518339.9679472318,173952.92566670332,,E05000519,"Ham, Petersham and Richmond Riverside",,E09000027,12/27/2020
Richmond upon Thames,Pubs,Gate,Richmond Hill,Richmond,,E09000027,Richmond upon Thames,51.45128901821934,-0.2966902858384232,518451.96791643096,173853.92569339467,,E05000519,"Ham, Petersham and Richmond Riverside",,E09000027,12/27/2020
Richmond upon Thames,Pubs,Victoria Inn,78 Hill Rise,Richmond,,E09000027,Richmond upon Thames,51.45741107178794,-0.3040052018681873,517927.9680602034,174522.92551164562,,E05000528,South Richmond,,E09000027,12/27/2020
Richmond upon Thames,Pubs,Rose of York,Petersham Road,Richmond,,E09000027,Richmond upon Thames,51.450629292588935,-0.3001833643419394,518210.9679819672,173774.9257154282,,E05000519,"Ham, Petersham and Richmond Riverside",,E09000027,12/27/2020
Richmond upon Thames,Pubs,Fox & Duck,"194 Petersham Road, Richmond",Petersham,Richmond,E09000027,Richmond upon Thames,51.44513649068882,-0.3027762170299669,518044.9680279371,173159.92588278238,,E05000519,"Ham, Petersham and Richmond Riverside",,E09000027,12/27/2020
Richmond upon Thames,Pubs,New Inn,"345 Petersham Road, Richmond",Ham,,E09000027,Richmond upon Thames,51.437172355497495,-0.30485576710537415,517920.96806035645,172270.9261234603,,E05000519,"Ham, Petersham and Richmond Riverside",,E09000027,12/27/2020
Richmond upon Thames,Pubs,Ham Brewery Tap,"4/6 Ham Street, Richmond",Ham,,E09000027,Richmond upon Thames,51.43686591804236,-0.31165835759080435,517448.96818824485,172225.92613556393,,E05000519,"Ham, Petersham and Richmond Riverside",,E09000027,12/27/2020
Richmond upon Thames,Pubs,Adelaide,57 Park Road,Teddington,,E09000027,Richmond upon Thames,51.42391223020304,-0.33457492366346164,515888.9686160806,170748.92653834878,,E05000530,Teddington,,E09000027,12/27/2020
Richmond upon Thames,Pubs,Railway,3 Victoria Road,Teddington,,E09000027,Richmond upon Thames,51.42388503137762,-0.3326628813785806,516021.96858001663,170748.92653862847,,E05000530,Teddington,,E09000027,12/27/2020
Richmond upon Thames,Pubs,Teddington Arms,38/40 High Street,Teddington,,E09000027,Richmond upon Thames,51.4269819077345,-0.33290978254841036,515996.96858604194,171092.9264449986,,E05000530,Teddington,,E09000027,12/27/2020
Richmond upon Thames,Pubs,Clock House,69 High Street,Teddington,,E09000027,Richmond upon Thames,51.42739712521384,-0.33112533148613027,516119.96855237766,171141.92643164302,,E05000530,Teddington,,E09000027,12/27/2020
Richmond upon Thames,Pubs,Shambles Bar & Restaurant,83 High Street,Teddington,,E09000027,Richmond upon Thames,51.4273749950374,-0.32957257169783544,516227.96852308686,171141.92643178155,,E05000530,Teddington,,E09000027,12/27/2020
Richmond upon Thames,Pubs,Kings Head,123 High Street,Teddington,,E09000027,Richmond upon Thames,51.4273749950374,-0.32957257169783544,516227.96852308686,171141.92643178155,,E05000530,Teddington,,E09000027,12/27/2020
Richmond upon Thames,Pubs,Waldegrave Arms,209 Waldegrave Road,Teddington,,E09000027,Richmond upon Thames,51.4325865399651,-0.3387768477105349,515574.9686968884,171706.92627652595,,E05000530,Teddington,,E09000027,12/27/2020
Richmond upon Thames,Pubs,Masons Arms,41 Walpole Road,Teddington,,E09000027,Richmond upon Thames,51.427053396292514,-0.3385747236251984,515602.96869259805,171091.92644460878,,E05000530,Teddington,,E09000027,12/27/2020
Richmond upon Thames,Pubs,Abercorn Arms,76-78 Church Road,Teddington,,E09000027,Richmond upon Thames,51.42951009706012,-0.33870140468810916,515587.96869519114,171364.9263699795,,E05000518,Fulwell and Hampton Hill,,E09000027,12/27/2020
Richmond upon Thames,Pubs,Hogarth,58 Broad Street,Teddington,,E09000027,Richmond upon Thames,51.42587052211371,-0.33696343812219065,515717.9686622883,170962.92648020148,,E05000530,Teddington,,E09000027,12/27/2020
Richmond upon Thames,Pubs,Red Lion,"164/166 Stanley Road, Twickenham",Teddington,,E09000027,Richmond upon Thames,51.43087793135474,-0.3451253850139885,515137.9688165974,171506.92633195082,,E05000518,Fulwell and Hampton Hill,,E09000027,12/27/2020
Richmond upon Thames,Pubs,Builders Arms,"38 Field Lane, Twickenham",Teddington,,E09000027,Richmond upon Thames,51.42555237311329,-0.33040140984411953,516174.9685387067,170937.926488035,,E05000530,Teddington,,E09000027,12/27/2020
Richmond upon Thames,Pubs,Lion,27 Wick Road,Teddington,,E09000027,Richmond upon Thames,51.418128065220266,-0.31869189772641743,517007.9683130526,170130.92670882546,,E05000522,Hampton Wick,,E09000027,12/27/2020
Richmond upon Thames,Pubs,Tide End Cottage,8 Ferry Road,Teddington,,E09000027,Richmond upon Thames,51.42942230632162,-0.32370050685760354,516630.96841239417,171378.9263666697,,E05000530,Teddington,,E09000027,12/27/2020
Richmond upon Thames,Pubs,M Bar & Grill,Brewery Lane Brewery Wharf,Twickenham,,E09000027,Richmond upon Thames,51.45038353163424,-0.33189883831552425,516007.9685812577,173696.9257351829,,E05000527,St. Margarets and North Twickenham,,E09000027,12/27/2020
Richmond upon Thames,Pubs,Turks Head,"28 Winchester Road, Twickenham",St. Margarets,,E09000027,Richmond upon Thames,51.456074190015315,-0.3229685059119741,516613.9684157298,174343.92556042114,,E05000527,St. Margarets and North Twickenham,,E09000027,12/27/2020
Richmond upon Thames,Pubs,Ailsa Tavern,"263 St Margarets Road, Twickenham",Twickenham,St. Margarets,E09000027,Richmond upon Thames,51.460319713982805,-0.3230432537110688,516597.96841990855,174815.92543134867,,E05000527,St. Margarets and North Twickenham,,E09000027,12/27/2020
Richmond upon Thames,Pubs,Roebuck,"72 Hampton Road, Hampton",Hampton Hill,,E09000027,Richmond upon Thames,51.42902741941233,-0.3529170639574507,514600.96896298137,171288.92639072402,,E05000518,Fulwell and Hampton Hill,,E09000027,12/27/2020
Richmond upon Thames,Pubs,La Familia Restaurant & Bar,99 High Street,Hampton Hill,Hampton,E09000027,Richmond upon Thames,51.42509406648588,-0.35777639102491987,514272.9690535709,170843.92651028984,,E05000518,Fulwell and Hampton Hill,,E09000027,12/27/2020
Richmond upon Thames,Pubs,Bloated Mallard,147 High Street,Hampton Hill,,E09000027,Richmond upon Thames,51.4263100704454,-0.3566395983405909,514348.9690325416,170980.92647311278,,E05000518,Fulwell and Hampton Hill,,E09000027,12/27/2020
Richmond upon Thames,Pubs,Beech House,92 High Street,Hampton Hill,,E09000027,Richmond upon Thames,51.42750819198143,-0.3548704607861081,514468.968999401,171116.92643661937,,E05000518,Fulwell and Hampton Hill,,E09000027,12/27/2020
Richmond upon Thames,Pubs,Star,"8 High Street, Hampton",Hampton Hill,,E09000027,Richmond upon Thames,51.42562820900247,-0.35675036034368424,514342.9690344196,170904.9264934798,,E05000518,Fulwell and Hampton Hill,,E09000027,12/27/2020
Richmond upon Thames,Pubs,Windmill,"80 Windmill Road, Hampton",Hampton Hill,,E09000027,Richmond upon Thames,51.427818260529214,-0.3622387080231122,513955.96913914673,171139.92643069063,,E05000518,Fulwell and Hampton Hill,,E09000027,12/27/2020
Richmond upon Thames,Pubs,Railway Bell,Station Road,Hampton,,E09000027,Richmond upon Thames,51.415950440905284,-0.3707737867941771,513391.96929144044,169806.9267930172,,E05000520,Hampton,,E09000027,12/27/2020
Richmond upon Thames,Pubs,Worlds End,88 Station Road,Hampton,,E09000027,Richmond upon Thames,51.41509063831023,-0.3665045251845878,513690.96921047283,169717.92681695643,,E05000520,Hampton,,E09000027,12/27/2020
Richmond upon Thames,Pubs,Bell Inn,8 Thames Street,Hampton,,E09000027,Richmond upon Thames,51.413020823316806,-0.36189043703269586,514016.9691228958,169494.9268783988,,E05000520,Hampton,,E09000027,12/27/2020
Richmond upon Thames,Pubs,Jolly Coopers,16 High Street,Hampton,,E09000027,Richmond upon Thames,51.414135512620575,-0.3612178186899312,514060.9691107092,169619.9268447191,,E05000520,Hampton,,E09000027,12/27/2020
Richmond upon Thames,Pubs,Royal Oak,45 Oak Avenue,Hampton,,E09000027,Richmond upon Thames,51.422776982363274,-0.3812464738092774,512646.96949610737,170549.92659303878,,E05000521,Hampton North,,E09000027,12/27/2020
Richmond upon Thames,Pubs,Hamptons Ale House,off The Avenue,Hampton,,E09000027,Richmond upon Thames,51.42623373023655,-0.37826186285949137,512845.9694423998,170938.92648655642,,E05000521,Hampton North,,E09000027,12/27/2020
Richmond upon Thames,Pubs,St Margarets Tavern,"107 St Margarets Place, Twickenham",St. Margarets,,E09000027,Richmond upon Thames,51.45416544356062,-0.3177848071905903,516978.9683164824,174139.9256170495,,E05000527,St. Margarets and North Twickenham,,E09000027,12/27/2020
Richmond upon Thames,Pubs,Crown,"174 Richmond Road, Twickenham",St Margarets,Twickenham,E09000027,Richmond upon Thames,51.45119203049653,-0.3186280946181474,516927.9683316773,173807.9257086722,,E05000531,Twickenham Riverside,,E09000027,12/27/2020
Richmond upon Thames,Pubs,Rising Sun,277/279 Richmond Road,Twickenham,,E09000027,Richmond upon Thames,51.453186276786965,-0.3134740639783594,517280.9682350119,174037.92564489553,,E05000531,Twickenham Riverside,,E09000027,12/27/2020
Richmond upon Thames,Pubs,Royal Oak,13 Richmond Road,Twickenham,,E09000027,Richmond upon Thames,51.448698693449145,-0.32473555474109156,516509.9684448164,173520.92578523373,,E05000531,Twickenham Riverside,,E09000027,12/27/2020
Richmond upon Thames,Pubs,Le Baron,65 Richmond Road,Twickenham,,E09000027,Richmond upon Thames,51.44945023096431,-0.32321124280812974,516613.9684168245,173606.9257622572,,E05000531,Twickenham Riverside,,E09000027,12/27/2020
Richmond upon Thames,Pubs,White Swan,Riverside,Twickenham,,E09000027,Richmond upon Thames,51.44715569655253,-0.3212230029235854,516757.96837731206,173354.92583125614,,E05000531,Twickenham Riverside,,E09000027,12/27/2020
Richmond upon Thames,Pubs,Barmy Arms,The Embankment,Twickenham,,E09000027,Richmond upon Thames,51.44647886541508,-0.32608328547737264,516421.96846809686,173271.92585269507,,E05000531,Twickenham Riverside,,E09000027,12/27/2020
Richmond upon Thames,Pubs,Crafty Winger,29/31 York Street,Twickenham,,E09000027,Richmond upon Thames,51.44754094288288,-0.3274116105041142,516326.96849408164,173387.9258207694,,E05000531,Twickenham Riverside,,E09000027,12/27/2020
Richmond upon Thames,Pubs,Brewery Market,48/49 Church Street,Twickenham,,E09000027,Richmond upon Thames,51.44667571184963,-0.3279037697497492,516294.9685025179,173290.92584709852,,E05000531,Twickenham Riverside,,E09000027,12/27/2020
Richmond upon Thames,Pubs,Bear,28 York Street,Twickenham,,E09000027,Richmond upon Thames,51.447373826753534,-0.327043543450528,516352.9684869993,173369.92582576623,,E05000531,Twickenham Riverside,,E09000027,12/27/2020
Richmond upon Thames,Pubs,Eel Pie,9/11 Church Street,Twickenham,,E09000027,Richmond upon Thames,51.44690647009149,-0.3270606374860803,516352.96848687914,173317.92583993444,,E05000531,Twickenham Riverside,,E09000027,12/27/2020
Richmond upon Thames,Pubs,Fox,39 Church Street,Twickenham,,E09000027,Richmond upon Thames,51.446645828858486,-0.32707017049521225,516352.9684868133,173288.9258478367,,E05000531,Twickenham Riverside,,E09000027,12/27/2020
Richmond upon Thames,Pubs,Shack 68,68 London Road,Twickenham,,E09000027,Richmond upon Thames,51.44950713812014,-0.329714410635699,516161.96853928675,173602.9257615024,,E05000531,Twickenham Riverside,,E09000027,12/27/2020
Richmond upon Thames,Pubs,William Webb Ellis,24 London Road,Twickenham,,E09000027,Richmond upon Thames,51.44774446141302,-0.32844036238957536,516254.96851362824,173408.92581478372,,E05000531,Twickenham Riverside,,E09000027,12/27/2020
Richmond upon Thames,Pubs,George,32 King Street,Twickenham,,E09000027,Richmond upon Thames,51.44640899693137,-0.32874820698669793,516236.96851814556,173259.92585535842,,E05000531,Twickenham Riverside,,E09000027,12/27/2020
Richmond upon Thames,Pubs,Cabbage Patch,67 London Road,Twickenham,,E09000027,Richmond upon Thames,51.44819921465854,-0.3294311640548953,516184.9685327039,173457.92580116057,,E05000531,Twickenham Riverside,,E09000027,12/27/2020
Richmond upon Thames,Pubs,Timberyard,53-57 London Road,Twickenham,,E09000027,Richmond upon Thames,51.44819921465854,-0.3294311640548953,516184.9685327039,173457.92580116057,,E05000531,Twickenham Riverside,,E09000027,12/27/2020
Richmond upon Thames,Pubs,Three Kings,42 Heath Road,Twickenham,,E09000027,Richmond upon Thames,51.44553404612226,-0.3310827144038307,516076.96856120013,173158.92588242306,,E05000531,Twickenham Riverside,,E09000027,12/27/2020
Richmond upon Thames,Pubs,Albany,1 Queens Road,Twickenham,,E09000027,Richmond upon Thames,51.44821894244562,-0.33207852277851607,516000.9685825344,173455.92580101424,,E05000531,Twickenham Riverside,,E09000027,12/27/2020
Richmond upon Thames,Pubs,Alexander Pope,Cross Deep,Twickenham,,E09000027,Richmond upon Thames,51.44027510025991,-0.33308757970619374,515950.9685941826,172570.92604196194,,E05000529,South Twickenham,,E09000027,12/27/2020
Richmond upon Thames,Pubs,Prince Blucher,124 The Green,Twickenham,,E09000027,Richmond upon Thames,51.444496036016304,-0.3434818797889959,515217.9687942749,173023.92591971223,,E05000529,South Twickenham,,E09000027,12/27/2020
Richmond upon Thames,Pubs,TW2 Bar & Grill,80-82 The Green,Twickenham,,E09000027,Richmond upon Thames,51.444496036016304,-0.3434818797889959,515217.9687942749,173023.92591971223,,E05000529,South Twickenham,,E09000027,12/27/2020
Richmond upon Thames,Pubs,Bloomsbury,209 Staines Road,Twickenham,,E09000027,Richmond upon Thames,51.442080351085586,-0.35200151040451405,514631.96895331104,172741.9259985746,,E05000532,West Twickenham,,E09000027,12/27/2020
Richmond upon Thames,Pubs,Sussex Arms,15 Staines Road,Twickenham,,E09000027,Richmond upon Thames,51.4440738300904,-0.34605859886872636,515039.96884262527,172972.92593410081,,E05000532,West Twickenham,,E09000027,12/27/2020
Richmond upon Thames,Pubs,Brouge,241 Hampton Road,Twickenham,,E09000027,Richmond upon Thames,51.43662937013916,-0.3499675920599412,514786.96891106793,172138.92616239347,,E05000529,South Twickenham,,E09000027,12/27/2020
Richmond upon Thames,Pubs,Fountain,1 Sixth Cross Road,Twickenham,,E09000027,Richmond upon Thames,51.4383466504192,-0.35891265904505515,514160.96908135863,172315.92611287977,,E05000532,West Twickenham,,E09000027,12/27/2020
Richmond upon Thames,Pubs,Prince Albert,30 Hampton Road,Twickenham,,E09000027,Richmond upon Thames,51.441966338135515,-0.3445519184832741,515149.96881220385,172740.92599769495,,E05000532,West Twickenham,,E09000027,12/27/2020
Richmond upon Thames,Pubs,Prince of Wales,136 Hampton Road,Twickenham,,E09000027,Richmond upon Thames,51.43922697025195,-0.34860780569738103,514874.96888709196,172429.92608294298,,E05000532,West Twickenham,,E09000027,12/27/2020
Richmond upon Thames,Pubs,Winning Post,"Chertsey Road, Twickenham",Whitton,Twickenham,E09000027,Richmond upon Thames,51.447872930649076,-0.35595199248046344,514342.9690337687,173379.9258223608,,E05000523,Heathfield,,E09000027,12/27/2020
Richmond upon Thames,Pubs,Admiral Nelson,"123 Nelson Road, Whitton",Whitton,Twickenham,E09000027,Richmond upon Thames,51.45275426035464,-0.36033911119232803,514025.96912150143,173915.9256767187,,E05000533,Whitton,,E09000027,12/27/2020
Richmond upon Thames,Pubs,Duke of Cambridge,"Kneller Road, Twickenham",Whitton,Twickenham,E09000027,Richmond upon Thames,51.455197412878235,-0.35245029987338133,514567.96897241473,174199.92559835664,,E05000533,Whitton,,E09000027,12/27/2020
Richmond upon Thames,Pubs,White Hart Inn,"121 Kneller Road, Twickenham",Whitton,Twickenham,E09000027,Richmond upon Thames,51.45588352109989,-0.3564846179963206,514285.9690498569,174269.92558013066,,E05000533,Whitton,,E09000027,12/27/2020
Richmond upon Thames,Pubs,Prince Albert,"54/56 Hounslow Road, Twickenham",Whitton,Twickenham,E09000027,Richmond upon Thames,51.454399795904166,-0.35840903207958574,514155.9690856704,174101.92562600935,,E05000533,Whitton,,E09000027,12/27/2020
Richmond upon Thames,Pubs,Railway Tavern,28/29 The Quadrant,Richmond,,E09000027,Richmond upon Thames,51.46226431847692,-0.3025729535806024,518014.968036479,175064.92536385043,,E05000528,South Richmond,,E09000027,12/27/2020
Richmond upon Thames,Pubs,Tap Tavern,Princes Street,Richmond,,E09000027,Richmond upon Thames,51.46148509176258,-0.3027889892557719,518001.9680401352,174977.92538756243,,E05000528,South Richmond,,E09000027,12/27/2020
Richmond upon Thames,Pubs,Revolution,4 Whittaker Avenue,Richmond,,E09000027,Richmond upon Thames,51.45891136980808,-0.30701573248806024,517714.96811745246,174684.92546722526,,E05000528,South Richmond,,E09000027,12/27/2020
Richmond upon Thames,Pubs,Britannia,5 Brewers Lane,Richmond,,E09000027,Richmond upon Thames,51.46089070136624,-0.3052150763155296,517834.96808514546,174907.92540653097,,E05000528,South Richmond,,E09000027,12/27/2020
Richmond upon Thames,Pubs,No 1 Duke Street,1a Duke Street,Richmond,,E09000027,Richmond upon Thames,51.461542274922664,-0.3042552333774045,517899.9680675826,174981.9253864044,,E05000528,South Richmond,,E09000027,12/27/2020
Richmond upon Thames,Pubs,Duke,2 Duke Street,Richmond,,E09000027,Richmond upon Thames,51.461542274922664,-0.3042552333774045,517899.9680675826,174981.9253864044,,E05000528,South Richmond,,E09000027,12/27/2020
Richmond upon Thames,Pubs,Angel & Crown,5 Church Street,Richmond,,E09000027,Richmond upon Thames,51.460506186032575,-0.3041208646153039,517911.9680644982,174866.92541776173,,E05000528,South Richmond,,E09000027,12/27/2020
Richmond upon Thames,Pubs,Princes Head,28 The Green,Richmond,,E09000027,Richmond upon Thames,51.460424693571355,-0.3065710967788978,517741.9681101659,174853.925421184,,E05000528,South Richmond,,E09000027,12/27/2020
Richmond upon Thames,Pubs,Cricketers,24 The Green,Richmond,,E09000027,Richmond upon Thames,51.460424693571355,-0.3065710967788978,517741.9681101659,174853.925421184,,E05000528,South Richmond,,E09000027,12/27/2020
Richmond upon Thames,Pubs,Old Ship,3 King Street,Richmond,,E09000027,Richmond upon Thames,51.45996314673862,-0.3069912349316702,517713.96811769734,174801.92543533718,,E05000528,South Richmond,,E09000027,12/27/2020
Richmond upon Thames,Pubs,White Swan,26 Old Palace Lane,Richmond,,E09000027,Richmond upon Thames,51.461693459059894,-0.31036783430101755,517474.9681820111,174988.92538421153,,E05000528,South Richmond,,E09000027,12/27/2020
Richmond upon Thames,Pubs,Rincon bar espanol,1 Paradise Road,Richmond,,E09000027,Richmond upon Thames,51.45977592667318,-0.3033705749250032,517965.96805011656,174786.925439614,,E05000528,South Richmond,,E09000027,12/27/2020
Richmond upon Thames,Pubs,Richmond Vault Beer Cellar & Restaurant,5 Hill Street,Richmond,,E09000027,Richmond upon Thames,51.458954700225725,-0.30627998972105897,517765.96810379764,174690.92546562979,,E05000528,South Richmond,,E09000027,12/27/2020
Richmond upon Thames,Pubs,White Cross,"Riverside, Water Lane",Richmond,,E09000027,Richmond upon Thames,51.45891048190824,-0.3075771663245606,517675.9681278933,174683.92546746827,,E05000528,South Richmond,,E09000027,12/27/2020
Richmond upon Thames,Pubs,Slug & Lettuce,"Riverside House, Water Lane",Richmond,,E09000027,Richmond upon Thames,51.459024000259795,-0.3073426511966222,517691.96812360914,174696.92546393734,,E05000528,South Richmond,,E09000027,12/27/2020
Richmond upon Thames,Pubs,Watermans Arms,12 Water Lane,Richmond,,E09000027,Richmond upon Thames,51.459024000259795,-0.3073426511966222,517691.96812360914,174696.92546393734,,E05000528,South Richmond,,E09000027,12/27/2020
Richmond upon Thames,Pubs,Pitcher & Piano,11 Bridge Street,Richmond,,E09000027,Richmond upon Thames,51.45814206258891,-0.3060509523228335,517783.9680989309,174600.92549025617,,E05000528,South Richmond,,E09000027,12/27/2020
Richmond upon Thames,Pubs,Mitre,20 St Mary's Grove,Richmond,,E09000027,Richmond upon Thames,51.46316628884126,-0.2916127923972853,518773.9678313718,175182.92533206497,,E05000526,North Richmond,,E09000027,12/27/2020
Richmond upon Thames,Pubs,Red Cow,59 Sheen Road,Richmond,,E09000027,Richmond upon Thames,51.46202055066803,-0.29506736307248593,518536.9678954171,175049.92536820605,,E05000528,South Richmond,,E09000027,12/27/2020
Richmond upon Thames,Pubs,Crown,128 Lower Mortlake Road,Richmond,,E09000027,Richmond upon Thames,51.4664814871984,-0.2914026786632568,518779.96782992873,175551.9252314804,,E05000526,North Richmond,,E09000027,12/27/2020
Richmond upon Thames,Pubs,One Kew Road,One Kew Road,Richmond,,E09000027,Richmond upon Thames,51.4640775807209,-0.3017283060021183,518068.9680214894,175267.9253085308,,E05000528,South Richmond,,E09000027,12/27/2020
Richmond upon Thames,Pubs,Orange Tree,45 Kew Road,Richmond,,E09000027,Richmond upon Thames,51.4640775807209,-0.3017283060021183,518068.9680214894,175267.9253085308,,E05000528,South Richmond,,E09000027,12/27/2020
Richmond upon Thames,Pubs,Hope,115-117 Kew Road,Richmond,,E09000027,Richmond upon Thames,51.465986207833296,-0.29877807830437236,518268.9679672505,175484.92524946755,,E05000526,North Richmond,,E09000027,12/27/2020
Richmond upon Thames,Pubs,Shaftesbury,121/123 Kew Road,Richmond,,E09000027,Richmond upon Thames,51.465986207833296,-0.29877807830437236,518268.9679672505,175484.92524946755,,E05000526,North Richmond,,E09000027,12/27/2020
Richmond upon Thames,Pubs,Sun Inn,17 Parkshot,Richmond,,E09000027,Richmond upon Thames,51.463294128133484,-0.3028946761122861,517989.9680430229,175178.92533275206,,E05000528,South Richmond,,E09000027,12/27/2020
Richmond upon Thames,Pubs,Triple Crown,15 Kew Foot Road,Richmond,,E09000027,Richmond upon Thames,51.4656073719702,-0.3018011232870643,518059.9680235647,175437.92526217015,,E05000526,North Richmond,,E09000027,12/27/2020
Richmond upon Thames,Pubs,Botanist,"3/5 Kew Green, Richmond",Kew,Richmond,E09000027,Richmond upon Thames,51.48366060365392,-0.2891479804549236,518891.9677966974,177465.92471273692,,E05000524,Kew,,E09000027,12/27/2020
Richmond upon Thames,Pubs,Cricketers,"79 Kew Green, Richmond",Kew,Richmond,E09000027,Richmond upon Thames,51.485447283713235,-0.28895148719886193,518900.96779506694,177664.92465893028,,E05000524,Kew,,E09000027,12/27/2020
Richmond upon Thames,Pubs,Greyhound,"82 Kew Green, Richmond",Kew,Richmond,E09000027,Richmond upon Thames,51.48524390103158,-0.2861072728195775,519098.96774125897,177646.92466406355,,E05000524,Kew,,E09000027,12/27/2020
Richmond upon Thames,Pubs,Coach & Horses Hotel,"8 Kew Green, Richmond",Kew,,E09000027,Richmond upon Thames,51.48364428820607,-0.28618164216242,519097.96774082765,177468.92471226025,,E05000524,Kew,,E09000027,12/27/2020
Richmond upon Thames,Pubs,Kew Gardens Hotel,"292 Sandycombe Road, Richmond",Kew,Richmond,E09000027,Richmond upon Thames,51.47627410360755,-0.28706254534699754,519055.9677524538,176647.92493557604,,E05000524,Kew,,E09000027,12/27/2020
Richmond upon Thames,Pubs,Tap On The Line,"Kew Gardens Station, Station Parade",Kew,Richmond,E09000027,Richmond upon Thames,51.47698172484187,-0.28563919668946974,519152.9677259767,176728.92491348844,,E05000524,Kew,,E09000027,12/27/2020
Richmond upon Thames,Set and exhibition building,Visual Impact Creative Limited,12 St John's Road,,,E09000027,Richmond upon Thames,51.4125960625755,-0.31232309110534845,517464.9681880234,169525.9268709246,10070721240,E05000522,Hampton Wick,http://www.visual-impact.co.uk,E09000027,12/27/2020
Richmond upon Thames,Skate Parks,Kingston,,,,E09000027,Richmond upon Thames,51.411329751482114,-0.31353839772002823,517383.69800747704,169383.16171197133,0,E05000522,Hampton Wick,,E09000027,12/27/2020
Richmond upon Thames,Theatres,Rose Theatre,24-26 High St, Kingston upon Thames,NA,E09000027,Richmond upon Thames,51.408777676331695,-0.3092911923487854,517685.6047045489,169106.1668619861,128029778,E05000522,Hampton Wick,https://www.rosetheatrekingston.org/,E09000027,12/27/2020
Richmond upon Thames,Theatres,Hampton Hill Theatre,90 High St, Hampton Hill, Hampton,E09000027,Richmond upon Thames,51.42763904969559,-0.3565477155951328,514352.0425091402,171128.8605113933,10002251133,E05000518,Fulwell and Hampton Hill,http://www.hamptonhilltheatre.org.uk/,E09000027,12/27/2020
Richmond upon Thames,Theatres,Richmond Theatre,Little Green, Richmond,NA,E09000027,Richmond upon Thames,51.46257946526371,-0.30538887741379117,517818.5524673076,175095.44153330562,10002264543,E05000528,South Richmond,http://www.atgtickets.com/venues/richmond-theatre/,E09000027,12/27/2020
Richmond upon Thames,Theatres,Normansfield Theatre,The Langdon Down Centre, Normansfield, 2A Langdon Park,E09000027,Richmond upon Thames,51.41950034239001,-0.31591283582533225,517197.6902392819,170287.97034347762,10070711098,E05000522,Hampton Wick,https://langdondowncentre.org.uk/normansfield-theatre/,E09000027,12/27/2020
Richmond upon Thames,Theatres,The Mary Wallace Theatre,The Embankment, Twickenham,NA,E09000027,Richmond upon Thames,51.44699382936108,-0.32766426095161283,516310.80297621514,173326.68251530273,100023000000,E05000531,Twickenham Riverside,http://www.richmondshakespeare.org.uk/,E09000027,12/27/2020
Richmond upon Thames,Theatres,St Mary's University ,Waldegrave Road, Twickenham,NA,E09000027,Richmond upon Thames,51.43617233565898,-0.33304484893455893,515964.3246682037,172114.74214275274,100023000000,E05000529,South Twickenham,NA,E09000027,12/27/2020
Richmond upon Thames,Theatres,Orange Tree Theatre,1 Clarence St, Richmond,NA,E09000027,Richmond upon Thames,51.46489827440174,-0.30346020715456423,517946.5553323815,175356.40106223873,100023000000,E05000526,North Richmond,https://www.orangetreetheatre.co.uk/,E09000027,12/27/2020
Richmond upon Thames,Theatres,Old Sorting Office Barnes,49 Station Rd,NA,NA,E09000027,Richmond upon Thames,51.47279382625401,-0.24842813211950596,521748.09709600953,176324.33969987096,,E05000525,Mortlake and Barnes Common,http://www.osoarts.org.uk/,E09000027,12/27/2020
