BOROUGH,Cultural Venue Type,site_name,address1,address2,address3,borough_code,borough_name,latitude,longitude,easting,northing,os_addressbase_uprn,ward_2018_code,ward_2018_name,website,gss_code,runtime
Wandsworth,Archives,University of Roehampton: Archives and Special Collections,Library and Learning Services ,Roehampton Lane,,E09000032,Wandsworth,51.45736039206113,-0.24493255803328673,522031.96682367136,174613.92536667548,121001383,E05000621,Roehampton and Putney Heath,https://www.roehampton.ac.uk/student-support/library/,E09000032,12/27/2020
Wandsworth,Archives,De Morgan Centre,West Hill Library ,38 West Hill,,E09000032,Wandsworth,51.457136412514494,-0.20047677707861292,525120.9659825779,174663.9253507041,121007255,E05000614,Fairfield,http://www.demorgan.org.uk/,E09000032,12/27/2020
Wandsworth,Archives,Wandsworth Museum,38 West Hill ,Wandsworth,,E09000032,Wandsworth,51.457136412514494,-0.20047677707861292,525120.9659825779,174663.9253507041,121007255,E05000614,Fairfield,https://www.bac.org.uk/content/39415/to_archive/wandsworth_museum/wandsworth_museum,E09000032,12/27/2020
Wandsworth,Archives,Book Trust,Book House ,45 East Hill,,E09000032,Wandsworth,51.45797137291403,-0.18404813342386006,526259.9656712762,174784.92532073293,121011471,E05000614,Fairfield,https://www.booktrust.org.uk/,E09000032,12/27/2020
Wandsworth,Archives,Foster + Partners,Riverside ,22 Hester Road,,E09000032,Wandsworth,51.48076693664933,-0.16838131720367577,527284.9653910947,177346.92462209245,121016628,E05000622,St. Mary's Park,https://www.fosterandpartners.com/,E09000032,12/27/2020
Wandsworth,Archives,Shaftesbury Young People,The Chapel Royal Victoria Patriotic Building ,John Archer Way,,E09000032,Wandsworth,51.453497378206194,-0.1739054902960151,526976.9654777073,174304.92545024812,121030969,E05000627,Wandsworth Common,https://www.shaftesburyyoungpeople.org/,E09000032,12/27/2020
Wandsworth,Archives,University of Roehampton: Southlands College Archives,80 Roehampton Lane,,,E09000032,Wandsworth,51.4595477546907,-0.24447442145640833,522057.96681636875,174857.9253004443,121048702,E05000621,Roehampton and Putney Heath,https://www.roehampton.ac.uk/colleges/southlands-college/history/,E09000032,12/27/2020
Wandsworth,Archives,"Queen Mary's Hospital, Roehampton",Health Service Library Roehampton,,,E09000032,Wandsworth,51.455549492911125,-0.241705796543644,522260.9667608491,174417.92541908915,121052762,E05000629,West Putney,https://www.nhs.uk/Services/hospitals/Overview/DefaultView.aspx?id=29686,E09000032,12/27/2020
Wandsworth,Archives,Wandsworth Heritage Service,Battersea Library 1st floor,265 Lavender Hill,,E09000032,Wandsworth,51.46402830036944,-0.1641418167496044,527625.9653001239,175492.9251261123,100023000000,E05000623,Shaftesbury,https://www.better.org.uk/library/london/wandsworth/wandsworth-heritage-service,E09000032,12/27/2020
Wandsworth,Archives,Royal Academy of Dance: Philip Richardson Library,36 Battersea Square,,,E09000032,Wandsworth,51.47430670707554,-0.1750766696699713,526837.9655147213,176616.92482057697,100023000000,E05000622,St. Mary's Park,https://www.royalacademyofdance.org/more/library,E09000032,12/27/2020
Wandsworth,Archives,Franco-British Society,2 Dovedale Studios ,465 Battersea Park Road,,E09000032,Wandsworth,51.472253629745154,-0.16337990286176363,527655.965290799,176408.9248770048,100023000000,E05000617,Latchmere,http://www.franco-british-society.org/,E09000032,12/27/2020
Wandsworth,Archives,Emanuel School,Battersea Rise,,,E09000032,Wandsworth,51.4566532570523,-0.17329016263701694,527010.965466894,174656.92535510974,100024000000,E05000627,Wandsworth Common,http://www.emanuel.org.uk/,E09000032,12/27/2020
Wandsworth,Archives,"St George's Archives and Special Collections, University of London",Cranmer Terrace Tooting,,,E09000032,Wandsworth,51.42729284219715,-0.17451863104760926,527006.9654692248,171389.9262403751,100024000000,E05000626,Tooting,https://archives.sgul.ac.uk/st-georges-archives-and-special-collections-university-of-london,E09000032,12/27/2020
Wandsworth,Artists workspaces,Pipeline Projects,31 Ruvigny Gardens,,,E09000032,Wandsworth,51.46791672525414,-0.2186117540290219,523831.96633087413,175831.9250362696,100000000000,E05000625,Thamesfield,www.artcoreint.net,E09000032,12/27/2020
Wandsworth,Artists workspaces,,Culvert Court ,105 Culvert Road ,,E09000032,Wandsworth,51.471018933208725,-0.1563307772293732,528148.9651575505,176283.92491096212,121052096,E05000617,Latchmere,http://londonsouthwestworkshops.co.uk/,E09000032,12/27/2020
Wandsworth,Artists workspaces,Nine Elms,New Covent Garden Market,,,E09000032,Wandsworth,51.47990871687886,-0.1387754469732087,529343.0648335837,177303.3246334485,10025501041,E05000620,Queenstown,www.acava.org,E09000032,12/27/2020
Wandsworth,Artists workspaces,Wandsworth Plain,7 - 9 Church Row,,,E09000032,Wandsworth,51.45787306176778,-0.19457469930303395,525528.9658709379,174755.9253268697,121007444,E05000614,Fairfield,www.acava.org,E09000032,12/27/2020
Wandsworth,Artists workspaces,Wimbledon Art Studios,10 Riverside Yard,Earlsfield,,E09000032,Wandsworth,51.43253345297907,-0.18829386238988688,526034.9657356972,171948.92608984967,10008158183,E05000612,Earlsfield,www.wimbledonartstudios.co.uk,E09000032,12/27/2020
Wandsworth,Artists workspaces,,7-9 Church Row,Wandsworth Plain,,E09000032,Wandsworth,51.45787306176778,-0.19457469930303395,525528.9658709379,174755.9253268697,121007444,E05000614,Fairfield,www.collectivestudios.co.uk,E09000032,12/27/2020
Wandsworth,Arts centres,Battersea Arts Centre ,Lavender Hill,,,E09000032,Wandsworth,51.465163177953066,-0.16081376726106006,527853.9652386206,175624.9250901831,121015942,E05000623,Shaftesbury,https://www.bac.org.uk/,E09000032,12/27/2020
Wandsworth,Cinemas,Cineworld Wandsworth,,Southside Shopping Centre,Wandsworth High Street,E09000032,Wandsworth,51.453961180309484,-0.19340479653388074,525620.9659692572,174322.92556658003,010070239837,E05000624,Southfields,www.cineworld.co.uk,E09000032,12/27/2020
Wandsworth,Cinemas,Odeon Putney,,26 Putney High Street,,E09000032,Wandsworth,51.46517461451661,-0.21392427758147653,524164.9663637178,175534.92523832148,100023311345,E05000625,Thamesfield,,E09000032,12/27/2020
Wandsworth,Commercial galleries,Pumphouse Gallery,Battersea Park,NA,NA,E09000032,Wandsworth,51.47899807201876,-0.15478515541629115,528233.9652573657,177173.92479000008,121032970,E05000620,Queenstown,http://pumphousegallery.org.uk/#,E09000032,12/27/2020
Wandsworth,Commercial galleries,Sprout Community Arts,74 Moyser Road,NA,NA,E09000032,Wandsworth,51.424031729348286,-0.1472034359933635,528914.9650715027,171074.92644952371,10008157629,E05000615,Furzedown,http://www.sproutarts.com/#,E09000032,12/27/2020
Wandsworth,Commercial galleries,The Wandsworth Museum,38 West Hill,NA,NA,E09000032,Wandsworth,51.457136413584905,-0.2004767752789343,525120.9661046766,174663.92547280423,10024086836,E05000614,Fairfield,http://www.wandsworthmuseum.co.uk/#,E09000032,12/27/2020
Wandsworth,Commercial galleries,Maestro Arts,One Eastfields Avenue,NA,NA,E09000032,Wandsworth,51.461866574552936,-0.19813133524145066,525270.9660642425,175193.92532905017,10091499728,E05000625,Thamesfield,http://www.maestroarts.com/#,E09000032,12/27/2020
Wandsworth,Commercial galleries,Plus One Gallery,89-91 Pimlico Road,NA,NA,E09000032,Wandsworth,51.46314652287837,-0.18490810936887042,526185.9658151063,175358.92528511764,10091504329,E05000622,St. Mary's Park,http://www.plusonegallery.com/#,E09000032,12/27/2020
Wandsworth,Commercial galleries,Foss Fine Art,113b Northcote Road,NA,NA,E09000032,Wandsworth,51.457075953574524,-0.16522669827266281,527569.9654370281,174717.92546030623,100023304718,E05000619,Northcote,http://fossfineart.com/#,E09000032,12/27/2020
Wandsworth,Commercial galleries,Northcote Gallery Battersea,110 Northcote Road,NA,NA,E09000032,Wandsworth,51.456877801386966,-0.16578163244368532,527531.9654473275,174694.92546656786,100023304739,E05000619,Northcote,http://www.northcotegallery.com/#,E09000032,12/27/2020
Wandsworth,Commercial galleries,Kristin Hjellegjerde,533 Old York Road,NA,NA,E09000032,Wandsworth,51.459816371735066,-0.1887974125698829,525924.9658849277,174981.92538832407,100023326939,E05000614,Fairfield,http://kristinhjellegjerde.com/#,E09000032,12/27/2020
Wandsworth,Community centres,Hawthorn Community Hall,Hawthorn Crescent,Wandsworth,NA,E09000032,Wandsworth,51.4252183149073,-0.15916657548256924,528079.9652982901,171185.92641858966,121030851,E05000616,Graveney,,E09000032,12/27/2020
Wandsworth,Community centres,St. James Centre,1 Florence Way,Wandsworth,NA,E09000032,Wandsworth,51.44230496867082,-0.16147281429563015,527871.9653559661,173081.92590336158,121014981,E05000618,Nightingale,,E09000032,12/27/2020
Wandsworth,Community centres,R.O.S.E Clubroom,Ascalon Street, Wandsworth,NA,E09000032,Wandsworth,51.47771895167239,-0.1409829166635589,529195.9649945277,177055.9248232178,10070243523,E05000620,Queenstown,,E09000032,12/27/2020
Wandsworth,Community centres,Penfold Centre,Neville Gill Close, Arndale Estate, Wandsworth,E09000032,Wandsworth,51.45532796965844,-0.19515010475037026,525495.9660028948,174471.92552582867,100023329313,E05000624,Southfields,,E09000032,12/27/2020
Wandsworth,Community centres,Tooting Grove Community Clubhouse,Effort Street,Wandsworth,NA,E09000032,Wandsworth,51.42640277368467,-0.17222372091380203,527168.9655466629,171294.92638775526,121031095,E05000626,Tooting,,E09000032,12/27/2020
Wandsworth,Community centres,Brookside Community Centre,12 Priory Lane,Wandsworth,NA,E09000032,Wandsworth,51.4627903112872,-0.25023805574270214,521648.9670480235,175208.92532705155,121031939,E05000621,Roehampton and Putney Heath,,E09000032,12/27/2020
Wandsworth,Community centres,Open Door Community Centre,Beaumont Road,Wandsworth,NA,E09000032,Wandsworth,51.44879711581143,-0.21617510673138918,524052.9663971949,173709.92573405395,121051546,E05000628,West Hill,https://enablelc.org/public-halls/about/,E09000032,12/27/2020
Wandsworth,Community centres,Focus Hall,Minstead Gardens,Wandsworth,NA,E09000032,Wandsworth,51.45079464012264,-0.24967463029330647,521719.96703097277,173875.92568866024,121051843,E05000621,Roehampton and Putney Heath,,E09000032,12/27/2020
Wandsworth,Community centres,Aboyne Community Clubroom,Deeside Road,Wandsworth,NA,E09000032,Wandsworth,51.434702943989386,-0.18088476462343225,526543.965719281,172202.9261430357,121053450,E05000612,Earlsfield,,E09000032,12/27/2020
Wandsworth,Community centres,Civic Suite,Wandsworth High Street,Wandsworth,NA,E09000032,Wandsworth,51.45699181877083,-0.19165856888772817,525733.9659373679,174662.9254747255,10008156678,E05000614,Fairfield,https://enablelc.org/public-halls/about/,E09000032,12/27/2020
Wandsworth,Community centres,Horne Way Community Clubroom,Horne Way,Wandsworth,NA,E09000032,Wandsworth,51.47064800884004,-0.22675583442026653,523258.9666096453,176121.92507959245,10093418002,E05000625,Thamesfield,,E09000032,12/27/2020
Wandsworth,Community centres,Park Court Clubroom (The Venue),191 Battersea Park Road,Wandsworth,NA,E09000032,Wandsworth,51.47527037758661,-0.14934815977364987,528621.9651500412,176768.9249004451,10090497135,E05000620,Queenstown,http://www.wandsworth.gov.uk/directory_record/148176/park_court_clubroom_the_venue/category/1125/clubrooms,E09000032,12/27/2020
Wandsworth,Community centres,Ackroydon Community Clubroom,26 Montfort Place,Wandsworth,NA,E09000032,Wandsworth,51.44684215613555,-0.21830920057772435,523909.96643543034,173488.92579385499,10024086732,E05000628,West Hill,http://www.ackroydonhall.com,E09000032,12/27/2020
Wandsworth,Community centres,Kambala Community Clubroom,126 Fawcett Close,Wandsworth,NA,E09000032,Wandsworth,51.469014535166906,-0.1736318711153975,526952.9656060524,176030.9251009263,100023299065,E05000617,Latchmere,kambala.org.uk,E09000032,12/27/2020
Wandsworth,Community centres,Wilditch Centre,48 Culvert Road,Wandsworth,NA,E09000032,Wandsworth,51.47178852582618,-0.15952518882475125,527924.9653401442,176363.92501124513,100023302779,E05000617,Latchmere,https://enablelc.org/public-halls/about/,E09000032,12/27/2020
Wandsworth,Community centres,Chatham Hall,152 Northcote Road,Wandsworth,NA,E09000032,Wandsworth,51.45506643637578,-0.16553754964780518,527553.9654420463,174493.9255208741,100023304064,E05000619,Northcote,https://enablelc.org/public-halls/about/,E09000032,12/27/2020
Wandsworth,Community centres,Boyd Court Clubroom,Carslake Road,Wandsworth,NA,E09000032,Wandsworth,51.453957362651494,-0.22793494740465306,523221.96662151994,174263.9255829968,100023313059,E05000629,West Putney,,E09000032,12/27/2020
Wandsworth,Community centres,Alton Community Centre,1-9 Petersfield Rise,Wandsworth,NA,E09000032,Wandsworth,51.44710735695699,-0.23824506975960336,522523.96681071504,173484.9257936927,100023313854,E05000621,Roehampton and Putney Heath,,E09000032,12/27/2020
Wandsworth,Community centres,Fitzhugh Grove Community Room,Fitzhugh Grove,Wandsworth,NA,E09000032,Wandsworth,51.45313435198755,-0.17658275335939447,526791.965650388,174259.92558476183,100023328596,E05000627,Wandsworth Common,http://www.fitzhughgrove.info,E09000032,12/27/2020
Wandsworth,Community centres,Minstead Gardens Christian Community Centre,Portswood Place,Wandsworth,NA,E09000032,Wandsworth,51.45176870433777,-0.2492631870840546,521745.967023858,173984.92565922957,100023314339,E05000621,Roehampton and Putney Heath,,E09000032,12/27/2020
Wandsworth,Community centres,Ethelburga Community Clubroom,60 Worfield Street,Wandsworth,NA,E09000032,Wandsworth,51.47748574441335,-0.16615090277415642,527448.9654683485,176985.92484273907,121031099,E05000622,St. Mary's Park,http://ethelburgacommunity.com/community-centre/,E09000032,12/27/2020
Wandsworth,Community centres,York Gardens Library and Community Centre,34 Lavender Road,Wandsworth,NA,E09000032,Wandsworth,51.46722565711844,-0.1777202106438472,526673.9656829655,175824.9251566414,10091844398,E05000617,Latchmere,www.wandsworth.gov.uk/libraries,E09000032,12/27/2020
Wandsworth,Community centres,Balham Community Centre,91 Bedford Hill,Wandsworth,NA,E09000032,Wandsworth,51.44159000340284,-0.14860830521732793,528767.965113051,173024.9259209865,100023306750,E05000611,Bedford,http://www.balhamcommunitycentre.com/index.html,E09000032,12/27/2020
Wandsworth,Community centres,St John's Hill Community Centre,St Johns Hill,Wandsworth,NA,E09000032,Wandsworth,51.46161128381435,-0.17175345210029194,527103.9655633424,175210.92532581452,121044565,E05000619,Northcote,,E09000032,12/27/2020
Wandsworth,Community centres,Sycamores Centre,Sycamores Centre,20 Wandsworth Plain,London,E09000032,Wandsworth,51.45824251696771,-0.19520789645064268,525483.9660052047,174795.92543801613,121007464,E05000614,Fairfield,,E09000032,12/27/2020
Wandsworth,Community centres,Henry Prince Estate Community Clubroom,Henry Prince Estate Community Clubroom,	Garratt Lane, Prince Henry Estate,E09000032,Wandsworth,51.44473347425742,-0.1904158876868236,525853.9659041363,173301.92584433797,121054835,E05000612,Earlsfield,,E09000032,12/27/2020
Wandsworth,Community centres,Pennethorne House Meeting Room,4 Wye Street, London,NA,E09000032,Wandsworth,51.46790181718158,-0.17609512187305196,526784.9656524198,175902.92513551365,100023701709,E05000617,Latchmere,,E09000032,12/27/2020
Wandsworth,Community centres,Toland Square Community Clubroom,Toland Square Community Clubroom,Toland Square,London,E09000032,Wandsworth,51.456558469911364,-0.24182537810610794,522249.9668860623,174529.92551090196,121054253,E05000629,West Putney,,E09000032,12/27/2020
Wandsworth,Community centres,Aubyn Square Clubroom,Aubyn Square Clubroom, London,NA,E09000032,Wandsworth,51.460505357713274,-0.24236475910693359,522201.96689883433,174967.9253922372,121054046,E05000629,West Putney,,E09000032,12/27/2020
Wandsworth,Community centres,Community Clubroom (lennox),Community Clubroom (lennox),	Ludovick Walk, London,E09000032,Wandsworth,51.4649384171168,-0.25257458876237626,521480.9670923126,175443.92526237445,121038491,E05000621,Roehampton and Putney Heath,,E09000032,12/27/2020
Wandsworth,Community centres,Manresa Clubroom,Manresa Clubroom, Fontley Way, London,E09000032,Wandsworth,51.44722465988038,-0.24186714074398247,522271.966879542,173491.92579212761,10008157575,E05000621,Roehampton and Putney Heath,,E09000032,12/27/2020
Wandsworth,Community centres,Andrew Reed House Clubroom,Andrew Reed House Clubroom,	1 Linstead Way, London,E09000032,Wandsworth,51.44961717661626,-0.2156970043256482,524083.96638907626,173801.92570918554,100023330114,E05000628,West Hill,,E09000032,12/27/2020
Wandsworth,Community centres,Minstead Gardens Clubroom,Minstead Gardens Clubroom, Minstead Gardens, London,E09000032,Wandsworth,51.45242458276732,-0.2492237157341535,521746.96702359966,174057.92563953815,100023314229,E05000621,Roehampton and Putney Heath,,E09000032,12/27/2020
Wandsworth,Community centres,Newlands Hall (Putney Vale Clubroom),Newlands Hall, 226 Stroud Crescent, Putney Vale Estate,E09000032,Wandsworth,51.4380806771279,-0.24437634588894105,522121.96692022285,172470.9260703455,100023313548,E05000621,Roehampton and Putney Heath,,E09000032,12/27/2020
Wandsworth,Creative co-working desk space,Delta House Studios,Riverside Road,Riverside Road,,E09000032,Wandsworth,51.43337948992244,-0.18892220586222158,525988.9658703776,172041.92618644936,100023322062,E05000612,Earlsfield,https://www.deltahousestudios.co.uk/,E09000032,12/27/2020
Wandsworth,Dance performance venues,Testbed 1,33 Parkgate Road,,,E09000032,Wandsworth,51.47883270856173,-0.1683291338545022,527293.9653883344,177131.9246809365,100023587064,E05000622,St. Mary's Park,http://testbed1.com,E09000032,12/27/2020
Wandsworth,Dance performance venues,Putney Arts Theatre,16 Ravenna Road,,,E09000032,Wandsworth,51.46128656856928,-0.22022303889633024,523737.966358296,175091.9252372933,100023314898,E05000613,East Putney,http://www.putneyartstheatre.org.uk,E09000032,12/27/2020
Wandsworth,Dance performance venues,"Michaelis Theatre, Roehampton University",85 Roehampton Lane,,,E09000032,Wandsworth,51.456100388825426,-0.24726950659856095,521872.9668671036,174469.92540599935,10033238647,E05000621,Roehampton and Putney Heath,,E09000032,12/27/2020
Wandsworth,Dance performance venues,Newlands Community Hall,226 Stroud Crescent,,,E09000032,Wandsworth,51.438080676056806,-0.24437634768680497,522121.9667981236,172470.92594824504,100023313548,E05000621,Roehampton and Putney Heath,http://www.wandsworth.gov.uk/directory_record/148179/newlands_hall_putney_vale_clubroom/category/1125/clubrooms,E09000032,12/27/2020
Wandsworth,Dance performance venues,Tara Studio,356 Garratt Lane,,,E09000032,Wandsworth,51.44217584956201,-0.1884304249827461,525998.9657413543,173020.92579886556,121011012,E05000612,Earlsfield,https://www.tara-arts.com,E09000032,12/27/2020
Wandsworth,Dance rehearsal studios,bbo Dance,Juniper Drive,Battersea Reach,,E09000032,Wandsworth,51.465056718100875,-0.1834070317726415,526284.9656667057,175573.9251037846,10070242030,E05000622,St. Mary's Park,https://bbo.dance/about-us/facilities/espinosa-studio,E09000032,12/27/2020
Wandsworth,Dance rehearsal studios,Off The Rails,5-8 Grant Road,"Unit 2, Arch 4",,E09000032,Wandsworth,51.46522837248749,-0.170730754426087,527164.9654256005,175614.92509227898,10091499620,E05000617,Latchmere,https://www.offtherails.studio,E09000032,12/27/2020
Wandsworth,Dance rehearsal studios,Price Studios,110 York Rd,,,E09000032,Wandsworth,51.46740758842052,-0.17843285850047458,526623.9655745709,175843.92502942198,10090497335,E05000622,St. Mary's Park,http://www.pricestudios.co.uk,E09000032,12/27/2020
Wandsworth,Dance rehearsal studios,Royal Academy of Dance,36 Battersea Square,,,E09000032,Wandsworth,51.47430670707554,-0.1750766696699713,526837.9655147213,176616.92482057697,100023300146,E05000622,St. Mary's Park,http://www.rad.org.uk,E09000032,12/27/2020
Wandsworth,Dance rehearsal studios,Southside Ballroom,63 Wandsworth High Street,,,E09000032,Wandsworth,51.45656464027361,-0.1919489453161794,525714.9658206061,174614.92536558968,121007666,E05000614,Fairfield,http://southsideballroom.co.uk,E09000032,12/27/2020
Wandsworth,Dance rehearsal studios,La Unit at Battersea Spanish,121 Battersea Business Centre ,99-109 Lavender Hill ,,E09000032,Wandsworth,51.46500578478023,-0.15480212772133708,528271.9651255996,175617.92509260448,10091500694,E05000623,Shaftesbury,https://hirespace.com/Spaces/London/162219/Battersea-Spanish/La-Unit/Events,E09000032,12/27/2020
Wandsworth,Dance rehearsal studios,Putney Arts Theatre,16 Ravenna Road,,,E09000032,Wandsworth,51.46128656856928,-0.22022303889633024,523737.966358296,175091.9252372933,100023314898,E05000613,East Putney,http://www.putneyartstheatre.org.uk,E09000032,12/27/2020
Wandsworth,Dance rehearsal studios,"Michaelis Theatre, Roehampton University",85 Roehampton Lane,,,E09000032,Wandsworth,51.456100388825426,-0.24726950659856095,521872.9668671036,174469.92540599935,10033238647,E05000621,Roehampton and Putney Heath,,E09000032,12/27/2020
Wandsworth,Dance rehearsal studios,Newlands Community Hall,226 Stroud Crescent,,,E09000032,Wandsworth,51.438080676056806,-0.24437634768680497,522121.9667981236,172470.92594824504,100023313548,E05000621,Roehampton and Putney Heath,http://www.wandsworth.gov.uk/directory_record/148179/newlands_hall_putney_vale_clubroom/category/1125/clubrooms,E09000032,12/27/2020
Wandsworth,Dance rehearsal studios,Tara Studio,356 Garratt Lane,,,E09000032,Wandsworth,51.44217584956201,-0.1884304249827461,525998.9657413543,173020.92579886556,121011012,E05000612,Earlsfield,https://www.tara-arts.com,E09000032,12/27/2020
Wandsworth,Fashion and design,Sienna Couture ,Avro House,208 Havelock Terrace,,E09000032,Wandsworth,51.4774774208538,-0.14390173218377733,528993.9649274785,177023.92470948072,121035280,E05000620,Queenstown,http://www.siennacouture.co.uk/,E09000032,12/27/2020
Wandsworth,Jewellery design,A. Pacak Jewellery and Designing Limited,16 Trinity Road,,,E09000032,Wandsworth,51.436069794923185,-0.16012606264880408,527982.9653277678,172390.92609070847,121039307,E05000618,Nightingale,,E09000032,12/27/2020
Wandsworth,Jewellery design,De Pala Jewellers (London) Limited,227 Upper Tooting Road,Tooting,,E09000032,Wandsworth,51.43012920751217,-0.1655293201470253,527623.9654240456,171720.9262722243,121013945,E05000626,Tooting,,E09000032,12/27/2020
Wandsworth,Jewellery design,Gilded Lab Limited,31a Prairie Street,,,E09000032,Wandsworth,51.47039642911942,-0.1516330633881518,528476.9651908956,176222.92504992714,100023384196,E05000620,Queenstown,http://www.gildedlab.com,E09000032,12/27/2020
Wandsworth,Jewellery design,Limitamuck Ltd,2nd Floor,40 Tooting High Street,,E09000032,Wandsworth,51.42844882388409,-0.167912699630481,527462.9654669968,171529.92632360558,10091847240,E05000626,Tooting,,E09000032,12/27/2020
Wandsworth,Jewellery design,Mounir's Design Limited,30 Lower Richmond Road,Putney,,E09000032,Wandsworth,51.46731522527702,-0.21867836507186422,523828.96645356336,175764.92517662648,100023311534,E05000625,Thamesfield,http://www.mounir.co.uk,E09000032,12/27/2020
Wandsworth,LGBT+ night time venues,Above the Stag Theatre,Arch 17,Miles Street,,E09000032,Wandsworth,51.48312514008094,-0.12738216236727537,530125.0262209233,177681.16653167072,,E05000620,Queenstown,,E09000032,12/27/2020
Wandsworth,LGBT+ night time venues,The Clapham Grand (Regular LGBTQ+ Programming),21-25 St John's Hill,,,,,51.4633721125707,-0.16858960569420775,527318.8443829371,175412.2216481673,,,,www.claphamgrand.com,E09000032,12/27/2020
Wandsworth,Libraries,Tooting Library,Mitcham Road,,,E09000032,Wandsworth,51.426553631811416,-0.16575880934861112,527617.9654241761,171322.92637992097,121014131,E05000616,Graveney,,E09000032,12/27/2020
Wandsworth,Libraries,Earlsfield Library,Magdalen Road,,,E09000032,Wandsworth,51.44243722287376,-0.18672205665367642,526116.9658314805,173052.9259125868,100023328731,E05000612,Earlsfield,,E09000032,12/27/2020
Wandsworth,Libraries,Southfields Library,Wimbledon Park Road,,,E09000032,Wandsworth,51.44354846362488,-0.20870960723587376,524585.9662492336,173138.9258870809,100023335031,E05000628,West Hill,,E09000032,12/27/2020
Wandsworth,Libraries,Balham Library,Ramsden Road,,,E09000032,Wandsworth,51.44547974899245,-0.15233655322073691,528497.965185466,173450.92580555327,100023306589,E05000610,Balham,,E09000032,12/27/2020
Wandsworth,Libraries,Roehampton Library,Danebury Avenue,,,E09000032,Wandsworth,51.44980882837217,-0.24208454806663623,522249.9668854912,173778.92571421777,100023314365,E05000621,Roehampton and Putney Heath,,E09000032,12/27/2020
Wandsworth,Libraries,Northcote Library,Northcote Road,,,E09000032,Wandsworth,51.455155598721326,-0.1643392757855865,527636.9654195373,174505.92551761074,100023304130,E05000619,Northcote,,E09000032,12/27/2020
Wandsworth,Libraries,Wandsworth Town Library,Garratt Lane,,,E09000032,Wandsworth,51.456185724745694,-0.19245332164661547,525680.965952119,174571.9254992552,121008322,E05000614,Fairfield,,E09000032,12/27/2020
Wandsworth,Libraries,Putney Library,Disraeli Road,,,E09000032,Wandsworth,51.46178720851301,-0.21588478609567938,524037.9663987382,175154.92534204206,100023313019,E05000625,Thamesfield,,E09000032,12/27/2020
Wandsworth,Libraries,Battersea Library,Lavender Hill,,,E09000032,Wandsworth,51.464028301439264,-0.16414181494885924,527625.9654222246,175492.92524821288,100023297401,E05000623,Shaftesbury,,E09000032,12/27/2020
Wandsworth,Libraries,York Gardens Library,Lavender Road,,,E09000032,Wandsworth,51.46722565711844,-0.1777202106438472,526673.9656829655,175824.9251566414,10091844398,E05000617,Latchmere,,E09000032,12/27/2020
Wandsworth,Libraries,Battersea Park Library,Battersea Park Road,,,E09000032,Wandsworth,51.474388157118845,-0.15442383994200415,528271.9652454042,176661.9249297087,100023301848,E05000620,Queenstown,,E09000032,12/27/2020
Wandsworth,Makerspaces,Hired Woodwork Space (Hwws),Hired Woodwork Space (Hwws),Unit 4 & 39 Drca Business Centre,Charlotte Despard Avenu,E09000032,Wandsworth,51.4740506482458,-0.1524070674616617,528412.9650852059,176627.9248167323,100024000000,E05000620,Queenstown,http://www.hirewoodworkspace.co.uk/index.cfm?sid=941&pid=13799,E09000032,12/27/2020
Wandsworth,Makerspaces,London Southwest Workshops Ltd,London Sculpture Workshop,Culvert Court,105 Culvert Road,E09000032,Wandsworth,51.4711422617765,-0.15616742045665474,528159.9651545347,176297.9249071438,121031051,E05000617,Latchmere,http://londonsouthwestworkshops.co.uk/,E09000032,12/27/2020
Wandsworth,Making and manufacturing,Arch Bronze Ltd,Arch 23-24  Winthrope Road,,,E09000032,Wandsworth,51.462372058060645,-0.2100027248168139,524444.9662884613,175229.92532050767,1.00023E+11,E05000625,Thamesfield,http://www.archbronze.com,E09000032,12/27/2020
Wandsworth,Music (office based businesses),Kowloon Records,352-356 Battersea Park Rd ,,,E09000032,Wandsworth,51.47035097784234,-0.1711019653480694,527124.9655584658,176183.92505919596,0,E05000622,St. Mary's Park,,E09000032,12/27/2020
Wandsworth,Music (office based businesses),Lem Records Ltd,148 Mitcham Road,Wandsworth,,E09000032,Wandsworth,51.42399759990211,-0.1633295158575647,527793.9653757899,171042.926456456,121014218,E05000616,Graveney,,E09000032,12/27/2020
Wandsworth,Music (office based businesses),Pstreetrecords Ltd,55 Coteford Street,Wandsworth,,E09000032,Wandsworth,51.43029285382758,-0.1610486509400017,527934.9653399377,171746.92626502935,100000000000,E05000616,Graveney,,E09000032,12/27/2020
Wandsworth,Music (office based businesses),Bmv Records Ltd,98 Frensham Drive,Wandsworth,,E09000032,Wandsworth,51.43846714287323,-0.2443615348733334,522121.9669203301,172513.92605819495,100000000000,E05000621,Roehampton And Putney Heath,,E09000032,12/27/2020
Wandsworth,Music (office based businesses),Jacamar Publishing Ltd,33 Hendham Road,Wandsworth,,E09000032,Wandsworth,51.43971342852481,-0.1671167077716941,527486.9654611287,172783.9259825981,100000000000,E05000618,Nightingale,,E09000032,12/27/2020
Wandsworth,Music (office based businesses),Curious Records Ltd,294 Merton Road,Wandsworth,,E09000032,Wandsworth,51.44718766963196,-0.1991264966167394,525241.9660720341,173559.92577191652,121048402,E05000624,Southfields,,E09000032,12/27/2020
Wandsworth,Music (office based businesses),Sensible House Records Ltd,100 Belleville Road,Wandsworth,,E09000032,Wandsworth,51.4569293945616,-0.16333249620094129,527701.9654016346,174704.9254631601,100000000000,E05000619,Northcote,,E09000032,12/27/2020
Wandsworth,Music (office based businesses),Beggars Group,Flat 1-6 17-19,Alma Road,Wandsworth,E09000032,Wandsworth,51.45848971576782,-0.18558223108128952,526151.9658227571,174839.9254272718,121047192,E05000614,Fairfield,www.beggars.com,E09000032,12/27/2020
Wandsworth,Music (office based businesses),Monotreme Records Ltd,Basement Flat 5,Leathwaite Road,Wandsworth,E09000032,Wandsworth,51.460822534225244,-0.1621398004135033,527773.965382125,175139.9253444746,121016196,E05000619,Northcote,,E09000032,12/27/2020
Wandsworth,Music (office based businesses),Trashmouth Records Ltd,161 Lower Richmond Road,Wandsworth,,E09000032,Wandsworth,51.4682997087405,-0.22429841523521443,523435.9665613768,175864.92514888715,100000000000,E05000625,Thamesfield,,E09000032,12/27/2020
Wandsworth,Music (office based businesses),Dollhouse Records Ltd,49 Maskelyne Close,Wandsworth,,E09000032,Wandsworth,51.47694766355036,-0.1668205027599674,527403.9654804778,176924.92485900555,100000000000,E05000622,St. Mary's Park,,E09000032,12/27/2020
Wandsworth,Music (office based businesses),Dubmission Records Ltd,49 Maskelyne Close,Wandsworth,,E09000032,Wandsworth,51.47694766355036,-0.1668205027599674,527403.9654804778,176924.92485900555,100000000000,E05000622,St. Mary's Park,,E09000032,12/27/2020
Wandsworth,Music recording studios,Pirate Studios - Earlsfield,17 Lydden Road,,,,,51.446949559670855,-0.19073738570741675,525825.5398787555,173547.8033396239,,,,http://piratestudios.co.uk,E09000032,12/27/2020
Wandsworth,Music rehearsal studios,Ritz Rehearsal Studios,The Courtyard Esmond Street,Wandsworth,,E09000032,WANDSWORTH,51.462032084893785,-0.21070703875623154,524396.9661793638,175190.92520915315,100022639645,E05000625,Thamesfield,,E09000032,12/27/2020
Wandsworth,Music rehearsal studios,Pirate Studios - Earlsfield Rehearsal Studios,17 Lydden Road,,,,,51.446948743388354,-0.1907409738665486,525825.2927948235,173547.7064145474,,,,http://piratestudios.co.uk,E09000032,12/27/2020
Wandsworth,Music rehearsal studios,National Opera Studio,2 Chapel Yard Wandsworth High Stlondon ,,,E09000032,Wandsworth,51.45692200058106,-0.19507699957069585,525496.6773669709,174649.30743526685,0,E05000624,Southfields,http://www.nationaloperastudio.org.uk,E09000032,12/27/2020
Wandsworth,Music venues (all),Tooting Tram & Social,46-48 Mitcham Rd,,,,,51.42678940479523,-0.16695897923679576,527533.8778263828,171347.05750186573,,,,www.tootingtramandsocial.co.uk,E09000032,12/27/2020
Wandsworth,Music venues (all),Tooting Tram & Social,Mitcham Road Wandsworth,,,E09000032,Wandsworth,51.42678393705224,-0.1666846205210639,527552.9654420048,171346.9263727466,121014162,E05000616,Graveney,www.tootingtram.com,E09000032,12/27/2020
Wandsworth,Music venues (all),Graveney & Meadow,40 Mitcham Road,Wandsworth,,E09000032,Wandsworth,51.426923689533204,-0.16699550129595483,527530.9654480299,171361.92636863567,121014087,E05000616,Graveney,www.graveneyandmeadow.com,E09000032,12/27/2020
Wandsworth,Music venues (all),The Bedford,77 Bedford Hill,Wandsworth,,E09000032,Wandsworth,51.44267957995069,-0.14926935619524853,528718.965126215,173144.92588812468,100000000000,E05000610,Balham,www.thebedford.com,E09000032,12/27/2020
Wandsworth,Music venues (all),Hagen & Hyde,157 Balham High Road,Wandsworth,,E09000032,Wandsworth,51.44382922550289,-0.1520290023496868,528523.9651788943,173267.92585485015,121049927,E05000610,Balham,www.hagenandhyde.com,E09000032,12/27/2020
Wandsworth,Music venues (all),The Clapham Grand,21-25 St. John's Hill,Wandsworth,,E09000032,Wandsworth,51.46295826208897,-0.16932424100128599,527268.965518678,175364.92528281518,100000000000,E05000619,Northcote,www.claphamgrand.com,E09000032,12/27/2020
Wandsworth,Music venues (all),Waterfront,Baltimore House Juniper Dr,London,,E09000032,Wandsworth,51.46449808401224,-0.18566072754041124,526129.9658310632,175507.9252435348,0,E05000622,St. Mary's Park,www.thewaterfrontlondon.co.uk,E09000032,12/27/2020
Wandsworth,Music venues (all),The Four Thieves,51 Lavender Gardens London,,,E09000032,Wandsworth,51.46415629138826,-0.1625530377681966,527735.9653926401,175509.92524312483,0,E05000623,Shaftesbury,www.fourthieves.pub,E09000032,12/27/2020
Wandsworth,Music venues (all),Anchor,61 Holgate Avenue,Wandsworth,,E09000032,Wandsworth,51.46526207170981,-0.17925250728000638,526572.965710057,175603.9252170443,100000000000,E05000617,Latchmere,,E09000032,12/27/2020
Wandsworth,Music venues (all),Battersea Arts Centre,Lavender Hill Wandsworth,,,E09000032,Wandsworth,51.46516317901825,-0.160813765458983,527853.9653608176,175624.9252117757,121015942,E05000623,Shaftesbury,www.bac.org.uk,E09000032,12/27/2020
Wandsworth,Music venues (all),Suburb Sw11,148 Falcon Road,Wandsworth,,E09000032,Wandsworth,51.465936342308034,-0.16942109476724965,527253.9655235988,175695.9251915075,100000000000,E05000617,Latchmere,,E09000032,12/27/2020
Wandsworth,Music venues (all),The Half Moon Putney,93 Lower Richmond Road,Wandsworth,,E09000032,Wandsworth,51.46729191252095,-0.22010463484275913,523729.96648075717,175759.9251774691,121002857,E05000625,Thamesfield,www.halfmoon.co.uk,E09000032,12/27/2020
Wandsworth,Music venues (all),Dukes Head,The Dukes Head 8,Lower Richmond Road,Wandsworth,E09000032,Wandsworth,51.46729161772385,-0.21712432982140367,523936.96642454894,175764.92517590517,100000000000,E05000625,Thamesfield,www.dukesheadputney.com,E09000032,12/27/2020
Wandsworth,Music venues (all),Le Quecumbar And Brasserie,42-44 Battersea High Street,Wandsworth,,E09000032,Wandsworth,51.47399266205063,-0.17396600306542034,526915.9656153574,176583.92495117954,100000000000,E05000622,St. Mary's Park,www.quecumbar.co.uk,E09000032,12/27/2020
Wandsworth,Music venues (all),Grove,279 Battersea Park Road,Wandsworth,,E09000032,Wandsworth,51.47456389205679,-0.15301994674222702,528368.9652191869,176683.92492303468,100000000000,E05000620,Queenstown,www.thegrovebattersea.co.uk/contactfind-us,E09000032,12/27/2020
Wandsworth,Music venues (all),The Magic Garden,231 Battersea Park Road,Wandsworth,,E09000032,Wandsworth,51.47531105422452,-0.1507865445472735,528521.9651774387,176770.92489914043,10024085883,E05000620,Queenstown,,E09000032,12/27/2020
Wandsworth,Music venues (all),The Battersea Barge,Tideway Dock Tideway Walk,Kirtling Street,Wandsworth,E09000032,Wandsworth,51.48275428001617,-0.1381138181028826,529380.964947179,177620.92466780666,10024084698,E05000620,Queenstown,www.batterseabarge.com,E09000032,12/27/2020
Wandsworth,Music venues (grassroots),Tooting Tram & Social,46-48 Mitcham Rd,,,,,51.42678940479523,-0.16695897923679576,527533.8778263828,171347.05750186573,,,,www.tootingtramandsocial.co.uk,E09000032,12/27/2020
Wandsworth,Music venues (grassroots),The Bedford,77 Bedford Hill,Wandsworth,,E09000032,Wandsworth,51.44267957995069,-0.14926935619524853,528718.965126215,173144.92588812468,100000000000,E05000610,Balham,www.thebedford.com,E09000032,12/27/2020
Wandsworth,Music venues (grassroots),The Half Moon Putney,93 Lower Richmond Road,Wandsworth,,E09000032,Wandsworth,51.46729191252095,-0.22010463484275913,523729.96648075717,175759.9251774691,121002857,E05000625,Thamesfield,www.halfmoon.co.uk,E09000032,12/27/2020
Wandsworth,Music venues (grassroots),Le Quecumbar And Brasserie,42-44 Battersea High Street,Wandsworth,,E09000032,Wandsworth,51.47399266205063,-0.17396600306542034,526915.9656153574,176583.92495117954,100000000000,E05000622,St. Mary's Park,www.quecumbar.co.uk,E09000032,12/27/2020
Wandsworth,Outdoor spaces for cultural use,Clapham Common ,Windmill Dr,,,E09000032,Wandsworth,51.458316376133226,-0.15097640180743,528556.4617538699,174880.75256283174,,E05000619,Northcote,,E09000032,12/27/2020
Wandsworth,Outdoor spaces for cultural use,Battersea Park ,,,,E09000032,Wandsworth,51.4798139889665,-0.15887717343158558,527947.5463284302,177257.50454055064,,E05000620,Queenstown,,E09000032,12/27/2020
Wandsworth,Pubs,Eleven,5 Fernlea Road,Balham,,E09000032,Wandsworth,51.44285263704494,-0.14826945321323656,528787.965107328,173165.92588280002,,E05000610,Balham,,E09000032,12/27/2020
Wandsworth,Pubs,Four Thieves,51 Lavender Gardens,Battersea,Clapham Junction,E09000032,Wandsworth,51.46349685869534,-0.162363557693896,527750.9653884385,175436.9252636406,,E05000623,Shaftesbury,,E09000032,12/27/2020
Wandsworth,Pubs,Hawkins Forge,110 Battersea Rise,Battersea,Clapham Junction,E09000032,Wandsworth,51.46077171820835,-0.16866309686117922,527320.9655037652,175122.92535008048,,E05000619,Northcote,,E09000032,12/27/2020
Wandsworth,Pubs,Goat,66A Battersea Rise,Battersea,Clapham Junction,E09000032,Wandsworth,51.46097952177925,-0.1664234382034561,527475.9654620587,175149.92534251866,,E05000619,Northcote,,E09000032,12/27/2020
Wandsworth,Pubs,BrewDog Clapham Junction,11-13 Battersea Rise,Battersea,Clapham Junction,E09000032,Wandsworth,51.46083405938865,-0.16344934902752098,527682.9654064581,175138.92534534598,,E05000619,Northcote,,E09000032,12/27/2020
Wandsworth,Pubs,Merchant of Battersea,23-25 Battersea Rise,Battersea,Clapham Junction,E09000032,Wandsworth,51.46083405938865,-0.16344934902752098,527682.9654064581,175138.92534534598,,E05000619,Northcote,,E09000032,12/27/2020
Wandsworth,Pubs,Bar Social,245 Lavender Hill,Battersea,Clapham Junction,E09000032,Wandsworth,51.46417990116232,-0.16291200945723272,527710.9653992951,175511.9252430647,,E05000623,Shaftesbury,,E09000032,12/27/2020
Wandsworth,Pubs,Revolution,276-288 Lavender Hill,Battersea,Clapham Junction,E09000032,Wandsworth,51.4640515199688,-0.166775485242583,527442.9654716249,175490.92524862877,,E05000623,Shaftesbury,,E09000032,12/27/2020
Wandsworth,Pubs,Babel,3-7 Northcote Road,Battersea,Clapham Junction,E09000032,Wandsworth,51.46026977175362,-0.16646625878370608,527474.9654621716,175070.92536427057,,E05000619,Northcote,,E09000032,12/27/2020
Wandsworth,Pubs,Bank,31-37 Northcote Road,Battersea,Clapham Junction,E09000032,Wandsworth,51.45968965274054,-0.1661727931230478,527496.9654561483,175006.9253818565,,E05000619,Northcote,,E09000032,12/27/2020
Wandsworth,Pubs,Northcote,2 Northcote Road,Battersea,Clapham Junction,E09000032,Wandsworth,51.46056950173932,-0.16723161949219478,527420.9654767276,175102.92535551992,,E05000619,Northcote,,E09000032,12/27/2020
Wandsworth,Pubs,All Bar One,30-38 Northcote Road,Battersea,Clapham Junction,E09000032,Wandsworth,51.45942724064231,-0.16664395266219761,527464.9654646625,174976.92539017007,,E05000619,Northcote,,E09000032,12/27/2020
Wandsworth,Pubs,Falcon,2 St Johns Hill,Battersea,Clapham Junction,E09000032,Wandsworth,51.46382394079907,-0.16832504137162826,527335.9655004691,175462.92525627662,,E05000619,Northcote,,E09000032,12/27/2020
Wandsworth,Pubs,Slug & Lettuce,4 St Johns Hill,Battersea,Clapham Junction,E09000032,Wandsworth,51.46382394079907,-0.16832504137162826,527335.9655004691,175462.92525627662,,E05000619,Northcote,,E09000032,12/27/2020
Wandsworth,Pubs,Junction,36 St Johns Hill,Battersea,Clapham Junction,E09000032,Wandsworth,51.463680597417216,-0.16893543689515106,527293.9655119325,175445.92526097334,,E05000619,Northcote,,E09000032,12/27/2020
Wandsworth,Pubs,Ben's Canteen,140 St Johns Hill,Battersea,Clapham Junction,E09000032,Wandsworth,51.46036064526431,-0.17748968130428583,526708.9656709364,175061.9253669051,,E05000614,Fairfield,,E09000032,12/27/2020
Wandsworth,Pubs,Plough,89 St John's Hill,Battersea,Clapham Junction,E09000032,Wandsworth,51.46127441599602,-0.17379673219581104,526962.9656018021,175169.92533712613,,E05000614,Fairfield,,E09000032,12/27/2020
Wandsworth,Pubs,Schoolhouse,137-139 St Johns Hill,Battersea,Clapham Junction,E09000032,Wandsworth,51.46040436211788,-0.17567408722985106,526834.965636511,175069.9253646999,,E05000614,Fairfield,,E09000032,12/27/2020
Wandsworth,Pubs,Beehive,197 St Johns Hill,Battersea,London,E09000032,Wandsworth,51.459835495559524,-0.17841750621435606,526645.9656879634,175001.92538344173,,E05000614,Fairfield,,E09000032,12/27/2020
Wandsworth,Pubs,Powderkeg,147 St John's Hill,Battersea,Clapham Junction,E09000032,Wandsworth,51.460155326806806,-0.17700840634001241,526742.9656615696,175039.92537296977,,E05000614,Fairfield,,E09000032,12/27/2020
Wandsworth,Pubs,Churchills,151 St Johns Hill,Battersea,Clapham Junction,E09000032,Wandsworth,51.460155326806806,-0.17700840634001241,526742.9656615696,175039.92537296977,,E05000614,Fairfield,,E09000032,12/27/2020
Wandsworth,Pubs,Project Orange,43 St Johns Hill,Battersea,Clapham Junction,E09000032,Wandsworth,51.46286074611021,-0.16999037587242002,527222.9655311437,175352.9252866364,,E05000619,Northcote,,E09000032,12/27/2020
Wandsworth,Pubs,Anchor,61 Holgate Avenue,Battersea,London,E09000032,Wandsworth,51.46546837930479,-0.17863961724936245,526614.9656985255,175627.92521092622,,E05000617,Latchmere,,E09000032,12/27/2020
Wandsworth,Pubs,Fox & Hounds,66-68 Latchmere Road,Battersea,London,E09000032,Wandsworth,51.46684926449799,-0.1628192744814355,527709.9653998293,175808.92516166868,,E05000623,Shaftesbury,,E09000032,12/27/2020
Wandsworth,Pubs,Suburb SW11,148 Falcon Road,Battersea,London,E09000032,Wandsworth,51.466016772398234,-0.16996497808846375,527215.965533943,175703.92518981668,,E05000617,Latchmere,,E09000032,12/27/2020
Wandsworth,Pubs,Asparagus,1-13 Falcon Road,Battersea,London,E09000032,Wandsworth,51.46995891462015,-0.1713336101884624,527109.9655626081,176139.92507155298,,E05000617,Latchmere,,E09000032,12/27/2020
Wandsworth,Pubs,Duke of Cambridge,228 Battersea Bridge Road,Battersea,London,E09000032,Wandsworth,51.472581754853366,-0.1659586279209117,527475.9654615655,176440.92499054625,,E05000622,St. Mary's Park,,E09000032,12/27/2020
Wandsworth,Pubs,Draft House Westbridge,74-76 Battersea Bridge Road,Battersea,London,E09000032,Wandsworth,51.47876934824993,-0.17060708326093116,527135.9655540622,177120.9248058275,,E05000622,St. Mary's Park,,E09000032,12/27/2020
Wandsworth,Pubs,Union,109 Battersea Bridge Road,Battersea,London,E09000032,Wandsworth,51.47704317219174,-0.16832876228917387,527298.9655087969,176932.92485749925,,E05000622,St. Mary's Park,,E09000032,12/27/2020
Wandsworth,Pubs,Bunga Bunga,37 Battersea Bridge Road,Battersea,London,E09000032,Wandsworth,51.47889764168589,-0.1701843133203028,527164.9655460631,177135.92480176454,,E05000622,St. Mary's Park,,E09000032,12/27/2020
Wandsworth,Pubs,Latchmere,503 Battersea Park Road,Battersea,London,E09000032,Wandsworth,51.471929964123085,-0.1656823639099881,527496.9654560905,176368.92500996077,,E05000617,Latchmere,,E09000032,12/27/2020
Wandsworth,Pubs,Woodman,60 Battersea High Street,Battersea,London,E09000032,Wandsworth,51.47356803018149,-0.1738389490300547,526925.9656125753,176536.92496437993,,E05000622,St. Mary's Park,,E09000032,12/27/2020
Wandsworth,Pubs,Candlemaker,136 Battersea High Street,Battersea,London,E09000032,Wandsworth,51.47037881049705,-0.17231034554580263,527040.9655815144,176184.92505940492,,E05000622,St. Mary's Park,,E09000032,12/27/2020
Wandsworth,Pubs,Melanzana,140 Westbridge Road,Battersea,London,E09000032,Wandsworth,51.475276440057286,-0.17440438539919695,526881.9656244393,176725.92491331528,,E05000622,St. Mary's Park,,E09000032,12/27/2020
Wandsworth,Pubs,Stag,96 Westbridge Road,Battersea,London,E09000032,Wandsworth,51.47587659869931,-0.17309880345401885,526970.9655996717,176794.9248947022,,E05000622,St. Mary's Park,,E09000032,12/27/2020
Wandsworth,Pubs,Sambrook's Brewery Tap Room,Unit 1 & 2 Yelverton Road,Battersea,,E09000032,Wandsworth,51.470131279466386,-0.17604947671728804,526781.9656529425,176150.92506850057,,E05000622,St. Mary's Park,,E09000032,12/27/2020
Wandsworth,Pubs,ZÃ³calo,14 Battersea Square,Battersea,London,E09000032,Wandsworth,51.47478257365772,-0.17502889112122408,526839.9656361858,176669.92492836807,,E05000622,St. Mary's Park,,E09000032,12/27/2020
Wandsworth,Pubs,Paya & Horse,189 Battersea Park Road,Battersea,London,E09000032,Wandsworth,51.475733608337706,-0.14907021780288296,528639.9651451886,176820.92488627322,,E05000620,Queenstown,,E09000032,12/27/2020
Wandsworth,Pubs,Magic Garden,231 Battersea Park Road,Battersea,London,E09000032,Wandsworth,51.475311054229095,-0.1507865445484835,528521.965177341,176770.92489964713,,E05000620,Queenstown,,E09000032,12/27/2020
Wandsworth,Pubs,Lighthouse,441 Battersea Park Road,Battersea,London,E09000032,Wandsworth,51.47249447635795,-0.16325504073837255,527663.9654106554,176435.92499179632,,E05000617,Latchmere,,E09000032,12/27/2020
Wandsworth,Pubs,Lost & Co,339 Battersea Park Road,Battersea,London,E09000032,Wandsworth,51.47409004560275,-0.15662464846679597,528119.9652866495,176624.92494002526,,E05000617,Latchmere,,E09000032,12/27/2020
Wandsworth,Pubs,Grove,279 Battersea Park Road,Battersea,London,E09000032,Wandsworth,51.47468109470826,-0.15246801258856377,528406.9652087693,176697.9249196445,,E05000620,Queenstown,,E09000032,12/27/2020
Wandsworth,Pubs,Prince Albert,85 Albert Bridge Road,Battersea,London,E09000032,Wandsworth,51.48002052550085,-0.1660781116674052,527446.9654694684,177267.92476559168,,E05000622,St. Mary's Park,,E09000032,12/27/2020
Wandsworth,Pubs,Flag,103-105 Culvert Road,Battersea,London,E09000032,Wandsworth,51.4720934051851,-0.15946973051321522,527927.9653392405,176397.92500200192,,E05000617,Latchmere,,E09000032,12/27/2020
Wandsworth,Pubs,Tarragon,43 Lavender Hill,Battersea,London,E09000032,Wandsworth,51.46601012580687,-0.15176698981005537,528479.9651912042,175734.92518331244,,E05000623,Shaftesbury,,E09000032,12/27/2020
Wandsworth,Pubs,Crown,102 Lavender Hill,Battersea,London,E09000032,Wandsworth,51.46572645922442,-0.15602563870128006,528184.965271135,175695.92519340495,,E05000623,Shaftesbury,,E09000032,12/27/2020
Wandsworth,Pubs,Ashanti Lounge Bar,14 Lavender Hill,Battersea,London,E09000032,Wandsworth,51.466412863441235,-0.15107404668751342,528526.9651783679,175780.92517086078,,E05000623,Shaftesbury,,E09000032,12/27/2020
Wandsworth,Pubs,Scratch Bar,"BAC, Lavender Hill",Battersea,,E09000032,Wandsworth,51.46516317902282,-0.16081376546019377,527853.9653607201,175624.92521228234,,E05000623,Shaftesbury,,E09000032,12/27/2020
Wandsworth,Pubs,Eagle Ale House,104 Chatham Road,Battersea,London,E09000032,Wandsworth,51.45499245786567,-0.1636836969587593,527682.9654071198,174488.92552220472,,E05000619,Northcote,,E09000032,12/27/2020
Wandsworth,Pubs,Draft House Northcote,94 Northcote Road,Battersea,London,E09000032,Wandsworth,51.457339520469084,-0.16597904912139838,527516.9654511898,174745.92545280745,,E05000619,Northcote,,E09000032,12/27/2020
Wandsworth,Pubs,Bolingbroke,174 Northcote Rd.,Battersea,London,E09000032,Wandsworth,51.45375696467897,-0.1640355220293448,527661.965413141,174350.92555957584,,E05000619,Northcote,,E09000032,12/27/2020
Wandsworth,Pubs,Battersea Brewery Tap Room,12-14 Arches Lane,Battersea,,E09000032,Wandsworth,51.48132291891282,-0.14596366340012962,528839.9650941284,177447.9247153139,,E05000620,Queenstown,,E09000032,12/27/2020
Wandsworth,Pubs,Regent,21 Chestnut Grove,Balham,London,E09000032,Wandsworth,51.44409255578598,-0.15390354219539842,528392.9652143597,173293.9258478342,,E05000618,Nightingale,,E09000032,12/27/2020
Wandsworth,Pubs,Nightingale,97 Nightingale Lane,Balham,London,E09000032,Wandsworth,51.45022617845329,-0.1573694670050885,528134.9652840281,173969.92566374608,,E05000618,Nightingale,,E09000032,12/27/2020
Wandsworth,Pubs,Grove,39 Oldridge Road,Balham,London,E09000032,Wandsworth,51.44832335375871,-0.1513151055039118,528560.965167549,173768.92571924062,,E05000610,Balham,,E09000032,12/27/2020
Wandsworth,Pubs,Balham Bowls Club,7-9 Ramsden Rd,Balham,London,E09000032,Wandsworth,51.44546162195282,-0.15289853448729804,528458.9651961016,173447.9258062421,,E05000618,Nightingale,,E09000032,12/27/2020
Wandsworth,Pubs,Wolfgang's Beer Haus,90-92 Balham High Road,Balham,London,E09000032,Wandsworth,51.445908611522725,-0.15044841262380687,528627.9651499959,173501.92579169368,,E05000610,Balham,,E09000032,12/27/2020
Wandsworth,Pubs,Gazette,96-100 Balham High Road,Balham,London,E09000032,Wandsworth,51.445908611522725,-0.15044841262380687,528627.9651499959,173501.92579169368,,E05000610,Balham,,E09000032,12/27/2020
Wandsworth,Pubs,Devonshire,39 Balham High Road,Balham,London,E09000032,Wandsworth,51.446748212404934,-0.14894659176869648,528729.9651220817,173597.9257653522,,E05000610,Balham,,E09000032,12/27/2020
Wandsworth,Pubs,Hagen & Hyde,157 Balham High Road,Balham,London,E09000032,Wandsworth,51.44431180787596,-0.1518368378355746,528535.9651754105,173321.9258407278,,E05000610,Balham,,E09000032,12/27/2020
Wandsworth,Pubs,Firefly,"3 Station Parade, Balham High Rd",Balham,London,E09000032,Wandsworth,51.44232180694127,-0.15338494045940995,528433.9652035779,173097.92590119032,,E05000618,Nightingale,,E09000032,12/27/2020
Wandsworth,Pubs,Avalon,16 Balham Hill,Balham,London,E09000032,Wandsworth,51.45065679055863,-0.14816967605622924,528772.9651094965,174033.9256465542,,E05000610,Balham,,E09000032,12/27/2020
Wandsworth,Pubs,Foxlow,15-19 Bedford Hill,Balham,London,E09000032,Wandsworth,51.44451584579738,-0.15051906246354907,528626.9651506315,173346.9258338514,,E05000610,Balham,,E09000032,12/27/2020
Wandsworth,Pubs,Bedford,77 Bedford Hill,Balham,London,E09000032,Wandsworth,51.44208211998148,-0.14902009876127836,528737.9651211072,173078.925906519,,E05000611,Bedford,,E09000032,12/27/2020
Wandsworth,Pubs,Balham Lounge,76 Bedford Hill,Balham,London,E09000032,Wandsworth,51.44180828797142,-0.14933335113602653,528716.9651268781,173047.92591488129,,E05000611,Bedford,,E09000032,12/27/2020
Wandsworth,Pubs,Exhibit,12 Balham Station Road,Balham,London,E09000032,Wandsworth,51.44328818899244,-0.15193571469028666,528531.9651767608,173207.92587168486,,E05000610,Balham,,E09000032,12/27/2020
Wandsworth,Pubs,Grapes,39 Fairfield Street,Wandsworth,London,E09000032,Wandsworth,51.458919987531644,-0.19073305620299671,525792.9659206185,174878.92541626893,,E05000614,Fairfield,,E09000032,12/27/2020
Wandsworth,Pubs,Bricklayer's Arms,32 Waterman Street,Putney,London,E09000032,Wandsworth,51.466163796577156,-0.2174706218561627,523915.9664303549,175638.9252107456,,E05000625,Thamesfield,,E09000032,12/27/2020
Wandsworth,Pubs,Half Moon,93 Lower Richmond Road,Putney,London,E09000032,Wandsworth,51.467291912525525,-0.22010463484397638,523729.96648065996,175759.92517797655,,E05000625,Thamesfield,,E09000032,12/27/2020
Wandsworth,Pubs,Spencer,237 Lower Richmond Road,Putney,London,E09000032,Wandsworth,51.46826698940637,-0.22689130700404428,523255.9666104421,175856.92515157716,,E05000625,Thamesfield,,E09000032,12/27/2020
Wandsworth,Pubs,Duke's Head,8 Lower Richmond Road,Putney,London,E09000032,Wandsworth,51.467148277081115,-0.21656840391285467,523975.9664139756,175749.92518038105,,E05000625,Thamesfield,,E09000032,12/27/2020
Wandsworth,Pubs,Star & Garter,4 Lower Richmond Road,Putney,London,E09000032,Wandsworth,51.467148277081115,-0.21656840391285467,523975.9664139756,175749.92518038105,,E05000625,Thamesfield,,E09000032,12/27/2020
Wandsworth,Pubs,Thames Rowing Club,Putney Embankment,Putney,London,E09000032,Wandsworth,51.47011344926321,-0.2211467411675688,523649.9665033234,176071.92509303067,,E05000625,Thamesfield,,E09000032,12/27/2020
Wandsworth,Pubs,Coat & Badge,8 Lacy Road,Putney,London,E09000032,Wandsworth,51.46472228911636,-0.21788670089332612,523890.96643754956,175477.92525460292,,E05000625,Thamesfield,,E09000032,12/27/2020
Wandsworth,Pubs,Jolly Gardeners,61-63 Lacy Road,Putney,London,E09000032,Wandsworth,51.464596220020084,-0.2184674845770019,523850.9664484267,175462.92525873764,,E05000625,Thamesfield,,E09000032,12/27/2020
Wandsworth,Pubs,Spotted Horse (Ye Olde),122 Putney High Street,Putney,London,E09000032,Wandsworth,51.4626675193774,-0.21641192089349368,523998.96640905435,175251.92531576712,,E05000625,Thamesfield,,E09000032,12/27/2020
Wandsworth,Pubs,Lost & Co,160 Putney High Street,Putney,London,E09000032,Wandsworth,51.461518422940344,-0.21713331557021517,523951.9664221237,175122.9253509821,,E05000625,Thamesfield,,E09000032,12/27/2020
Wandsworth,Pubs,Toy Shop,32 High Street,Putney,,E09000032,Wandsworth,51.4649845480673,-0.21502587227188003,524088.96638419526,175511.92524479108,,E05000625,Thamesfield,,E09000032,12/27/2020
Wandsworth,Pubs,Rocket,"16 Brewhouse Lane,",Putney,London,E09000032,Wandsworth,51.46542429342753,-0.213194671937257,524214.96635023534,175563.92523028923,,E05000625,Thamesfield,,E09000032,12/27/2020
Wandsworth,Pubs,Boathouse,Brewhouse Lane,Putney,London,E09000032,Wandsworth,51.46520202078988,-0.21277143834429,524244.96634220215,175539.9252367324,,E05000625,Thamesfield,,E09000032,12/27/2020
Wandsworth,Pubs,Normanby,231 Putney Bridge Road,Putney,London,E09000032,Wandsworth,51.462974444216485,-0.21058380976223343,524402.9662998004,175295.92530266749,,E05000625,Thamesfield,,E09000032,12/27/2020
Wandsworth,Pubs,Dutch Courage,26 Upper Richmond Road,Putney,London,E09000032,Wandsworth,51.45690635842008,-0.20424278705162588,524859.9661759418,174631.9254818025,,E05000613,East Putney,,E09000032,12/27/2020
Wandsworth,Pubs,Prince of Wales,138 Upper Richmond Road,Putney,London,E09000032,Wandsworth,51.45990932205687,-0.21185529724616323,524322.966321704,174952.92539620592,,E05000625,Thamesfield,,E09000032,12/27/2020
Wandsworth,Pubs,East Putney Tavern,94-98 Upper Richmond Road,Putney,London,E09000032,Wandsworth,51.45990932205687,-0.21185529724616323,524322.966321704,174952.92539620592,,E05000625,Thamesfield,,E09000032,12/27/2020
Wandsworth,Pubs,Green Man,Putney Heath,Putney,London,E09000032,Wandsworth,51.452929311551635,-0.22121001477481383,523691.9664949476,174160.92561206734,,E05000621,Roehampton and Putney Heath,,E09000032,12/27/2020
Wandsworth,Pubs,Angel,11 High Street,Roehampton,London,E09000032,Wandsworth,51.450444057804305,-0.23946956207532394,522429.9668360638,173853.92569360568,,E05000621,Roehampton and Putney Heath,,E09000032,12/27/2020
Wandsworth,Pubs,King's Head,1 High Street,Roehampton,London,E09000032,Wandsworth,51.450444057804305,-0.23946956207532394,522429.9668360638,173853.92569360568,,E05000621,Roehampton and Putney Heath,,E09000032,12/27/2020
Wandsworth,Pubs,Fox & Hounds,167 Upper Richmond Road,Putney,London,E09000032,Wandsworth,51.46089717466732,-0.217675764482743,523915.96643209254,175052.9253701209,,E05000613,East Putney,,E09000032,12/27/2020
Wandsworth,Pubs,Arab Boy,289 Upper Richmond Road,Putney,London,E09000032,Wandsworth,51.46272774445592,-0.2263141370087196,523310.96659637877,175241.92531811306,,E05000629,West Putney,,E09000032,12/27/2020
Wandsworth,Pubs,Revolution,202 Upper Richmond Road,Putney,London,E09000032,Wandsworth,51.46122334457453,-0.21783581160898863,523903.9664352372,175088.92536036298,,E05000625,Thamesfield,,E09000032,12/27/2020
Wandsworth,Pubs,Furzedown,118 Mitcham Lane,Streatham,London,E09000032,Wandsworth,51.424782828154676,-0.1412467013588667,529326.9649598813,171168.92642257275,,E05000615,Furzedown,,E09000032,12/27/2020
Wandsworth,Pubs,Corner Pin,10 Summerstown,Summerstown,London,E09000032,Wandsworth,51.4332885554922,-0.18594767046699648,526195.9658143366,172036.92618836084,,E05000612,Earlsfield,,E09000032,12/27/2020
Wandsworth,Pubs,By The Horns Brewery Tap,25 Summerstown,Summerstown,London,E09000032,Wandsworth,51.43266927647835,-0.1848644047622642,526272.9657933603,171969.9262067438,,E05000612,Earlsfield,,E09000032,12/27/2020
Wandsworth,Pubs,Selkirk,60 Selkirk Road,Tooting,London,E09000032,Wandsworth,51.42980724697873,-0.16794468649220778,527456.9654691719,171680.92628282664,,E05000626,Tooting,,E09000032,12/27/2020
Wandsworth,Pubs,Leather Bottle,538 Garratt Lane,Summerstown,London,E09000032,Wandsworth,51.43686865072259,-0.18717275136619285,526100.9658385467,172432.92608066002,,E05000612,Earlsfield,,E09000032,12/27/2020
Wandsworth,Pubs,Castle,38 Tooting High Street,Tooting,London,E09000032,Wandsworth,51.42885527472223,-0.16745048566517837,527493.9654587556,171575.92631124106,,E05000626,Tooting,,E09000032,12/27/2020
Wandsworth,Pubs,Tap 13,Broadway Market,Tooting,,E09000032,Wandsworth,51.42834637065912,-0.16653577930971863,527558.9654409239,171520.92632622668,,E05000616,Graveney,,E09000032,12/27/2020
Wandsworth,Pubs,Craft Tooting,"Unit 1, Broadway Market, 29 Tooting High Street",Tooting,,E09000032,Wandsworth,51.42834637065912,-0.16653577930971863,527558.9654409239,171520.92632622668,,E05000616,Graveney,,E09000032,12/27/2020
Wandsworth,Pubs,JJ Moon's,56a Tooting High Street,Tooting,London,E09000032,Wandsworth,51.42741482799376,-0.16907610748074542,527384.9654878841,171412.92635529803,,E05000626,Tooting,,E09000032,12/27/2020
Wandsworth,Pubs,Trafalgar Arms,148-156 Tooting High Street,Tooting,London,E09000032,Wandsworth,51.42495046401159,-0.17136104741786423,527232.9655286707,171134.92643110477,,E05000626,Tooting,,E09000032,12/27/2020
Wandsworth,Pubs,Manor,196 Tooting High Street,Tooting,London,E09000032,Wandsworth,51.42414472348789,-0.172169959335557,527178.9655432454,171043.92645618168,,E05000626,Tooting,,E09000032,12/27/2020
Wandsworth,Pubs,Althorp,20 Bellevue Road,Wandsworth Common,London,E09000032,Wandsworth,51.44470874113618,-0.16681600132794397,527493.9654589973,173339.92583231814,,E05000618,Nightingale,,E09000032,12/27/2020
Wandsworth,Pubs,Hope,1 Bellevue Road,Wandsworth Common,London,E09000032,Wandsworth,51.44560385667455,-0.16597426252510777,527549.9654439228,173440.92580524657,,E05000618,Nightingale,,E09000032,12/27/2020
Wandsworth,Pubs,King's Head,84 Upper Tooting Road,Tooting,London,E09000032,Wandsworth,51.434114305098454,-0.16273680774697746,527806.9653760077,172168.9261508399,,E05000626,Tooting,,E09000032,12/27/2020
Wandsworth,Pubs,Wheatsheaf,2 Upper Tooting Road,Tooting,London,E09000032,Wandsworth,51.435299184379424,-0.16087641144962037,527932.9653415423,172303.92611423618,,E05000618,Nightingale,,E09000032,12/27/2020
Wandsworth,Pubs,Mayfair Tavern,127 Upper Tooting Road,Tooting,London,E09000032,Wandsworth,51.431935831267275,-0.1637449429638443,527742.9653925775,171924.926217049,,E05000626,Tooting,,E09000032,12/27/2020
Wandsworth,Pubs,Rose & Crown,140 Tooting Bec Road,Tooting,London,E09000032,Wandsworth,51.432837707093874,-0.15417018146757577,528405.965213473,172041.92618533177,,E05000611,Bedford,,E09000032,12/27/2020
Wandsworth,Pubs,Dynamo,16/18 Ritherdon Road,Tooting,London,E09000032,Wandsworth,51.43824454589932,-0.15544867781990399,528301.9652406862,172640.92602365307,,E05000611,Bedford,,E09000032,12/27/2020
Wandsworth,Pubs,Ramble Inn,223 Mitcham Road,Tooting,London,E09000032,Wandsworth,51.42240985334641,-0.1601424385045967,528019.965314104,170871.92650446435,,E05000616,Graveney,,E09000032,12/27/2020
Wandsworth,Pubs,Tooting Tram & Social,48A Mitcham Road,Tooting,London,E09000032,Wandsworth,51.42678820662,-0.16695776674419938,527533.9654470646,171346.92637320427,,E05000616,Graveney,,E09000032,12/27/2020
Wandsworth,Pubs,Graveney & Meadow,40 Mitcham Road,Tooting,London,E09000032,Wandsworth,51.42678820662,-0.16695776674419938,527533.9654470646,171346.92637320427,,E05000616,Graveney,,E09000032,12/27/2020
Wandsworth,Pubs,Antelope,76 Mitcham Road,Tooting,London,E09000032,Wandsworth,51.4257128704764,-0.16547600558213402,527639.9654178536,171229.926405154,,E05000616,Graveney,,E09000032,12/27/2020
Wandsworth,Pubs,Long Room,130 Mitcham Road,Tooting,London,E09000032,Wandsworth,51.424646275645394,-0.16397957969320232,527746.9653885661,171113.92643731076,,E05000616,Graveney,,E09000032,12/27/2020
Wandsworth,Pubs,East Hill,21 Alma Road,Wandsworth,London,E09000032,Wandsworth,51.45868111843521,-0.18574738389576656,526139.9658258628,174860.9254220439,,E05000614,Fairfield,,E09000032,12/27/2020
Wandsworth,Pubs,Royal Standard,1 Ballantine Street,Wandsworth,London,E09000032,Wandsworth,51.460384956396744,-0.18660116244910777,526075.9658439339,175048.9253702432,,E05000614,Fairfield,,E09000032,12/27/2020
Wandsworth,Pubs,Crane,14 Armoury Way,Wandsworth,London,E09000032,Wandsworth,51.45888252012445,-0.19472200860626865,525515.9659962758,174867.92541857966,,E05000614,Fairfield,,E09000032,12/27/2020
Wandsworth,Pubs,Hop Pole,64 Putney Bridge Road,Wandsworth,London,E09000032,Wandsworth,51.4596015486836,-0.1982061265297511,525271.96606318,174941.92539778544,,E05000614,Fairfield,,E09000032,12/27/2020
Wandsworth,Pubs,Cat's Back,86-88 Point Pleasant,Wandsworth,London,E09000032,Wandsworth,51.46180166187121,-0.19976065031935908,525157.9660950571,175183.9253315954,,E05000625,Thamesfield,,E09000032,12/27/2020
Wandsworth,Pubs,Queen Adelaide,35 Putney Bridge Road,Wandsworth,London,E09000032,Wandsworth,51.46048831062386,-0.2009063917154441,525081.9661153642,175035.92537176592,,E05000625,Thamesfield,,E09000032,12/27/2020
Wandsworth,Pubs,View 94,94 Point Pleasant,Wandsworth,London,E09000032,Wandsworth,51.46225528554158,-0.20060657731560094,525097.9661115824,175232.9253181598,,E05000625,Thamesfield,,E09000032,12/27/2020
Wandsworth,Pubs,Ship,41 Jews Row,Wandsworth,London,E09000032,Wandsworth,51.46294092453593,-0.1878963340411637,525978.9658714845,175330.92529255647,,E05000614,Fairfield,,E09000032,12/27/2020
Wandsworth,Pubs,Alma,499 Old York Road,Wandsworth,London,E09000032,Wandsworth,51.460370793642454,-0.18801249966228964,525977.9658706858,175044.92537113582,,E05000614,Fairfield,,E09000032,12/27/2020
Wandsworth,Pubs,Konnigan's,344-346 Old York Road,Wandsworth,London,E09000032,Wandsworth,51.45985121013021,-0.18872405624410166,525929.9658835775,174985.92538723716,,E05000614,Fairfield,,E09000032,12/27/2020
Wandsworth,Pubs,Waterfront,"Baltimore House, Juniper Drive, Battersea Reach",Wandsworth,London,E09000032,Wandsworth,51.46422446128339,-0.18541243303472868,526147.9658259405,175477.92525231425,,E05000622,St. Mary's Park,,E09000032,12/27/2020
Wandsworth,Pubs,Spread Eagle,71 Wandsworth High Street,Wandsworth,London,E09000032,Wandsworth,51.45658416797147,-0.19204893344573018,525707.9659446102,174616.92548712716,,E05000614,Fairfield,,E09000032,12/27/2020
Wandsworth,Pubs,Brewers Inn,147 East Hill,Wandsworth,London,E09000032,Wandsworth,51.45686909114724,-0.18836706049492585,525962.9658748955,174654.92547751736,,E05000614,Fairfield,,E09000032,12/27/2020
Wandsworth,Pubs,Roundhouse,"2 North Side, Wandsworth Common",Wandsworth,Clapham Junction,E09000032,Wandsworth,51.45892920000673,-0.17449488748868558,526920.965612519,174907.925409364,,E05000614,Fairfield,,E09000032,12/27/2020
Wandsworth,Pubs,County Arms,345 Trinity Road,Wandsworth,Wandsworth Common,E09000032,Wandsworth,51.45009436164205,-0.17424273317824698,526962.96560492,173925.92567480193,,E05000627,Wandsworth Common,,E09000032,12/27/2020
Wandsworth,Pubs,Le Gothique,"Royal Victoria Patriotic Building, John Archer Way, Off Windmill Road",Wandsworth,Wandsworth Common,E09000032,Wandsworth,51.45330030103503,-0.17453227005595517,526933.96561162,174281.9255786207,,E05000627,Wandsworth Common,,E09000032,12/27/2020
Wandsworth,Pubs,Old Sergeant,104 Garratt Lane,Wandsworth,London,E09000032,Wandsworth,51.451240059958145,-0.19131009759794845,525773.965928501,174023.9256481424,,E05000612,Earlsfield,,E09000032,12/27/2020
Wandsworth,Pubs,Tir Na Nog,107 Garratt Lane,Wandsworth,London,E09000032,Wandsworth,51.45258305428557,-0.19092598407124162,525796.9659217539,174173.92560753628,,E05000614,Fairfield,,E09000032,12/27/2020
Wandsworth,Pubs,Garratt Tavern,89 Garratt Lane,Wandsworth,London,E09000032,Wandsworth,51.45258305428557,-0.19092598407124162,525796.9659217539,174173.92560753628,,E05000614,Fairfield,,E09000032,12/27/2020
Wandsworth,Pubs,Jolly Gardeners,214 Garratt Lane,Earlsfield,London,E09000032,Wandsworth,51.44674363499582,-0.1895592980593567,525907.9658904237,173526.9257834425,,E05000612,Earlsfield,,E09000032,12/27/2020
Wandsworth,Pubs,Grosvenor Arms,204 Garratt Lane,Wandsworth,London,E09000032,Wandsworth,51.44822942634653,-0.1896876333256836,525894.9658946857,173691.92573863384,,E05000612,Earlsfield,,E09000032,12/27/2020
Wandsworth,Pubs,Wandle,332 Garratt Lane,Earlsfield,London,E09000032,Wandsworth,51.44360295915449,-0.19000007559066895,525885.9658948766,173176.925878349,,E05000612,Earlsfield,,E09000032,12/27/2020
Wandsworth,Pubs,Country House,2-4 Groton Road,Earlsfield,London,E09000032,Wandsworth,51.44187484020759,-0.18932011347481628,525937.9658801982,172985.92593030113,,E05000612,Earlsfield,,E09000032,12/27/2020
Wandsworth,Pubs,Ben's Canteen,422 Garratt Lane,Earlsfield,London,E09000032,Wandsworth,51.440185633761615,-0.1870846123170795,526097.9658375941,172801.9259805967,,E05000612,Earlsfield,,E09000032,12/27/2020
Wandsworth,Pubs,L'Affaire,134 Wandsworth High Street,Wandsworth,London,E09000032,Wandsworth,51.45736156483525,-0.19698440058337677,525362.9660385348,174694.9254650587,,E05000614,Fairfield,,E09000032,12/27/2020
Wandsworth,Pubs,King's Arms,94-96 Wandsworth High Street,Wandsworth,London,E09000032,Wandsworth,51.45727414304629,-0.19422406379399187,525554.965986141,174689.92546692473,,E05000614,Fairfield,,E09000032,12/27/2020
Wandsworth,Pubs,Halfway House,521 Garratt Lane,Earlsfield,London,E09000032,Wandsworth,51.441071820134795,-0.1868192942299906,526113.965832773,172900.92595379404,,E05000612,Earlsfield,,E09000032,12/27/2020
Wandsworth,Pubs,Hallowed Belly,573 Garratt Lane,Earlsfield,London,E09000032,Wandsworth,51.439530767414944,-0.18660691839538246,526132.9658284403,172729.92600021377,,E05000612,Earlsfield,,E09000032,12/27/2020
Wandsworth,Pubs,Earlsfield,511 Garratt Lane,Earlsfield,London,E09000032,Wandsworth,51.44253178892654,-0.1881860995914228,526014.9658592672,173060.92591015762,,E05000612,Earlsfield,,E09000032,12/27/2020
Wandsworth,Pubs,Earl Spencer,260-262 Merton Road,Wandsworth,Southfields,E09000032,Wandsworth,51.44824493079809,-0.19945909390574174,525215.9660795666,173676.9257405121,,E05000624,Southfields,,E09000032,12/27/2020
Wandsworth,Pubs,Gardeners Arms,268 Merton Road,Wandsworth,Southfields,E09000032,Wandsworth,51.44824493079809,-0.19945909390574174,525215.9660795666,173676.9257405121,,E05000624,Southfields,,E09000032,12/27/2020
Wandsworth,Pubs,Pig & Whistle,479-481 Merton Road,Wandsworth,Southfields,E09000032,Wandsworth,51.441333081649006,-0.19676661237215334,525421.9660207302,172912.92594877427,,E05000624,Southfields,,E09000032,12/27/2020
Wandsworth,Pubs,Old Fields,20 Replingham Road,Wandsworth,Southfields,E09000032,Wandsworth,51.444606864628064,-0.20558864140662597,524799.9661912229,173261.92585344915,,E05000624,Southfields,,E09000032,12/27/2020
Wandsworth,Pubs,Park Tavern,212 Merton Road,Wandsworth,Southfields,E09000032,Wandsworth,51.450908212158986,-0.1989657323931219,525242.9660732767,173973.9256598754,,E05000624,Southfields,,E09000032,12/27/2020
Wandsworth,Pubs,Victoria,166 Queenstown Road,Battersea,London,E09000032,Wandsworth,51.472742583100484,-0.14815442751222035,528711.965126328,176489.92497697286,,E05000620,Queenstown,,E09000032,12/27/2020
Wandsworth,Pubs,Flanagans of Battersea,"21 Bradmead, 133 Battersea Park Road",Battersea,London,E09000032,Wandsworth,51.47823938021302,-0.1443172598198283,528962.9650585355,177107.92480852047,,E05000620,Queenstown,,E09000032,12/27/2020
Wandsworth,Pubs,Masons Arms,169 Battersea Park Road,Battersea,London,E09000032,Wandsworth,51.476687618920856,-0.1468427167430219,528791.9651042736,176930.92485658953,,E05000620,Queenstown,,E09000032,12/27/2020
Wandsworth,Pubs,Duchess Belle,101 Battersea Park Road,Battersea,London,E09000032,Wandsworth,51.47884864081381,-0.14303962631523737,529049.9650351426,177177.92478950263,,E05000620,Queenstown,,E09000032,12/27/2020
Wandsworth,Pubs,Mondo Tap House,86 Stewarts Road,Battersea,,E09000032,Wandsworth,51.473979989526065,-0.1394068209201757,529315.9649612188,176642.92493628,,E05000620,Queenstown,,E09000032,12/27/2020
Wandsworth,Theatre rehearsal studio,Royal Academy of Dance,36 Battersea Square,,,E09000032,Wandsworth,51.474782572587756,-0.17502889292214666,526839.9655140851,176669.9248062697,100023300146,E05000622,St. Mary's Park,www.rad.org.uk,E09000032,12/27/2020
Wandsworth,Theatres,Tara Theatre,356 Garratt Ln,NA,NA,E09000032,Wandsworth,51.44228795092532,-0.18943917521719103,525928.5567605499,173031.6594957767,121011012,E05000612,Earlsfield,https://www.tara-arts.com/,E09000032,12/27/2020
Wandsworth,Theatres,Battersea Arts Centre,Lavender Hill,NA,NA,E09000032,Wandsworth,51.46567840164486,-0.16241482231889132,527741.3217691274,175679.42767510674,121015942,E05000623,Shaftesbury,https://www.bac.org.uk/,E09000032,12/27/2020
Wandsworth,Theatres,Battersea Barge,Nine Elms Lane,NA,NA,E09000032,Wandsworth,51.482659031617956,-0.13932526494566302,529297.1212478525,177608.19474965637,10025500313,E05000620,Queenstown,http://www.batterseabarge.com/bbevents/,E09000032,12/27/2020
Wandsworth,Theatres,Theatre503,503 Battersea Park Rd,NA,NA,E09000032,Wandsworth,51.472443611027494,-0.16728283521041465,527384.3870643264,176423.2608732552,10091845630,E05000622,St. Mary's Park,https://theatre503.com/,E09000032,12/27/2020
Wandsworth,Theatres,Battersea Power Station Village Hall,188 Kirtling St,NA,NA,E09000032,Wandsworth,51.481707079267956,-0.14227291210105691,529095.1449024924,177497.13917997677,10091874090,E05000620,Queenstown,https://www.bac.org.uk/content/40704/to_archive/consultation_sessions_circus_west_village_hall_battersea_power_station,E09000032,12/27/2020
Wandsworth,Theatres,Putney Arts Theatre,Ravenna Rd, Putney,NA,E09000032,Wandsworth,51.461026517403596,-0.22170317074438145,523635.85048618744,175060.5108456458,100023000000,E05000613,East Putney,http://www.putneyartstheatre.org.uk/,E09000032,12/27/2020
Wandsworth,Theatres,Above The Stag Theatre,72 Albert Embankment, Vauxhall,NA,E09000032,Wandsworth,51.48312519057925,-0.12738245267705625,530125.0059209304,177681.17163166968,200000000000,E05000620,Queenstown,http://www.abovethestag.com/,E09000032,12/27/2020
